name,lat,lng,address,zone,uid,_geo/lat,_geo/lng,searchScore,popularityScore,lat_scaled,lng_scaled,cluster
Pallir Yubak Brinda,22.576123,88.367023,"sitaram ghosh street, Kolkata, West Bengal 700009",CCU-C,d9wX9r2,22.576123,88.367023,0,,0.218708595,0.051079088,4
Beliaghata Shibtala Adhibasi Brinda,22.564395,88.377405,"Shibtala Ln, Seal Lane, Tangra, Kolkata-700015",CCU-C,vxLiUA5,22.564395,88.377405,0,,0.045541352,0.338739981,4
Tangra Harisava Math Sarbojanin,22.55495,88.391065,"54, Debendra Chandra Dey Rd, Tangra, Kolkata, West Bengal 700015",CCU-C,iZ6MRtw,22.55495,88.391065,0,,-0.093916749,0.717226573,4
Beleghata Sarkar Bazar Vivekananda Sangha Durga Puja,22.568187,88.386046,"97, KG Bose Sarani, Kundu Bagan, Beleghata, Kolkata, West Bengal 700085",CCU-C,gJKVoEL,22.568187,88.386046,0,,0.101531306,0.578161843,4
New Market Sabojanin Sri Sri Durga Puja,22.56047,88.354968,"38 MARKET STREET AND, Mirza Ghalib St, Dharmatala, crossing, Kolkata, West Bengal 700087",CCU-C,fsJT23c,22.56047,88.354968,0,,-0.012412385,-0.282936715,4
Amherst Sarbojanin Durgotsab,22.57877,88.369713,"50, Raja Ram Mohan Sarani, Machuabazar, Kolkata, West Bengal 700009",CCU-C,F5BKD9f,22.57877,88.369713,0,,0.2577923,0.125612685,4
Kalimuddin Adhibasi Brindo Sarbojonin Durgautsav,22.561972,88.393767,"Kalimuddin Sarkar Ln, Kulia, Beleghata, Kolkata-700010",CCU-C,AmG6nF1,22.561972,88.393767,0,,0.00976507,0.792092662,2
37 Pally Sarbojanin Durgotsab O Saradiya Sammelan,22.574566,88.368107,"10, Dr Kartik Bose St, College Row, Baithakkhana, Kolkata-700009",CCU-C,mFYrana,22.574566,88.368107,0,,0.195719049,0.081114188,4
Entally Kantal Bagan Durga Puja Committee,22.557502,88.371924,"35/A, Entally, Kolkata, West Bengal 700014",CCU-C,CfUQOWd,22.557502,88.371924,0,,-0.056235746,0.186874314,4
Entally Udayan Sangha,22.557594,88.367002,"16, Haralal Das St, Entally, Kolkata, West Bengal 700014",CCU-C,CvZkpaA,22.557594,88.367002,0,,-0.05487734,0.050497227,4
Jorasanko 7er Palli,22.584,88.361336,"Raja Katra, Singhi Bagan, Jorasanko, Kolkata, West Bengal 700007",CCU-C,fxztYdq,22.584,88.361336,0,,0.335014732,-0.106494357,4
Interact Club of Chowringhee High School Sarbojanin Durga Puja,22.556686,88.353042,"12A, Chowringhee Lane, Kolkata, West Bengal 700016",CCU-C,0sSeMrH,22.556686,88.353042,0,,-0.068284218,-0.336301662,4
Narikeldanga Sastitala Durga Puja Committeee,22.575954,88.381052,"13, Sastitala Rd, Narkeldanga, Kolkata, West Bengal 700011",CCU-C,VbwIJlM,22.575954,88.381052,0,,0.216213262,0.439789805,4
Simla Bayam Samity,22.585401,88.365009,"9B, Singhee Lane, P O. Beadon Street, Simla, Machuabazar, Kolkata, West Bengal 700006",CCU-C,dBvjB5Y,22.585401,88.365009,0,,0.355700893,-0.004724133,4
College Square Sarbojanin Durgotsab Committee,22.574407,88.364361,"Lalbajar, College Square, Kolkata, West Bengal 700012",CCU-C,c0OvSO2,22.574407,88.364361,0,,0.193371368,-0.022678695,4
Beleghata Santi Sangha,22.561941,88.391229,"26/H/4, Barwaritala Rd, Kulia, Beleghata, Kolkata, West Bengal 700010",CCU-C,5skh8Pd,22.561941,88.391229,0,,0.009307346,0.721770629,4
Kankurgachi Jubak Brinda (Kankurgachi Sarbojanin Durgotsab),22.579535,88.387885,"Kankurgachi, Kolkata-700054",CCU-C,X5OWggD,22.579535,88.387885,0,,0.269087741,0.629116224,4
Central Calcutta Youth Association Durga Puja Committee,22.563772,88.3625,"37, Gokul Boral St, Bowbazar, Kolkata, West Bengal 700016",CCU-C,1fxKTmX,22.563772,88.3625,0,,0.03634258,-0.074242644,4
Wellington Nagrik Kalyan Samity Durga Puja,22.564713,88.357538,"Biplabi Anukul Chandra Street, Princep St, Bowbazar, Kolkata, West Bengal 700072",CCU-C,vECgWYJ,22.564713,88.357538,0,,0.050236712,-0.211728037,4
Rash Moni Bagan Kishore Sangha,22.558122,88.390937,"Rashmoni Bagan Ln, Tangra, Kolkata, West Bengal 700015",CCU-C,MREnDsS,22.558122,88.390937,0,,-0.047081271,0.713679993,4
20 Pally Puja O Janakalyan Samity,22.550168,88.370926,"?P-65 Dr, SUNDARI MOHAN AVENUE KOLKATA -700014",CCU-C,WzN9wS3,22.550168,88.370926,0,,-0.164524334,0.159222072,4
47 Pally Jubak Brinda Durga Puja,22.571486,88.358725,"90, Chittaranjan Ave, Calcutta Medical College, College Square, Kolkata-700012",CCU-C,H0KzbPn,22.571486,88.358725,0,,0.150241976,-0.178839049,4
North Narikeldanga Bhatri Sangha & Welfare Society,22.579247,88.383158,"15/1 NARIKELDANGA NORTH ROAD, KOLKATA- 700011",CCU-C,R96n4dB,22.579247,88.383158,0,,0.26483534,0.498142131,4
Rammohan Sammilani Durga Puja,22.581558,88.375117,"4, Rammohan Roy Rd, Yogi Para, Garpar, Machuabazar, Kolkata, West Bengal 700009",CCU-C,HWQX1S2,22.581558,88.375117,0,,0.29895791,0.275344862,4
Ekta Oleander Resident,22.55891,88.379943,"Radhanath Chowdhury Road, Seal Lane, Tangra, Kolkata, West Bengal 700015",CCU-C,EnICUDO,22.55891,88.379943,0,,-0.035446227,0.409062014,4
Adhibasi Brinda (Kanai Dhar Lane),22.572353,88.365262,"25/8A, Kanai Dhar Lane Kolkata, Kolkata, West Bengal 700012",CCU-C,CiTWSru,22.572353,88.365262,0,,0.163043476,0.002285904,4
Manicktala Chaltabagan Lohapatty,22.585128,88.372193,"Raja Ram Mohan Sarani, Maniktala, Maniktala, Kolkata, West Bengal 700009",CCU-C,FYviN8r,22.585128,88.372193,0,,0.351669971,0.194327673,4
14 ER Pally Sadharan Durgotsav,22.582049,88.382161,"237P/1A, Maniktala Main Rd, Manicktala, Narkeldanga, Kolkata, West Bengal 700054",CCU-C,9x4z26T,22.582049,88.382161,0,,0.306207664,0.470517597,4
61 Pally Sarbojanin Durgotsav Committee,22.550213,88.359659,"55 mcleod street,kolkata-700017",CCU-C,z67wKvb,22.550213,88.359659,0,,-0.163859897,-0.152960097,4
Santosh Mitra Square,22.565994,88.365663,"Natabar Dutta Row Road, Lebutala, Bowbazar, Kolkata-700014",CCU-C,iU3SoEO,22.565994,88.365663,0,,0.06915104,0.013396674,4
Madhya Kolkata Uttoran,22.568376,88.361576,"21, Surendra Lal Pyne Lane, Kolkata, West Bengal 700012",CCU-C,WyXHzlq,22.568376,88.361576,0,,0.104321945,-0.099844519,4
Md. Ali Park Durga Puja (Youth Association),22.577273,88.360571,"41/A, 4th Floor, Tara Chand Dutta Street, Kolkata, West Bengal 700073",CCU-C,rlOeZL5,22.577273,88.360571,0,,0.235688671,-0.127690714,4
Brindaban Matri Mandir,22.582521,88.373226,"16, Brindaban Mullick First Lane., Sukhiya Street, Kolkata, West Bengal 700009",CCU-C,2Hne2tG,22.582521,88.373226,0,,0.313176877,0.222949683,4
Tangra Ghol Para Sarbojanin Durgotsav,22.553355,88.391036,"13D, Tangra, Kolkata, West Bengal 700046",CCU-C,NDKubcV,22.553355,88.391036,0,,-0.117467376,0.716423051,4
Milan Sangha Club,22.564491,88.384011,"Subhash Park, 167/ 40 A, Beliaghata Main Road, Chaulpatty Rd, Kulia, Tangra, Kolkata-700010",CCU-C,aYoxf1X,22.564491,88.384011,0,,0.046958819,0.521776762,4
Sarir Sangathan Samity,22.563183,88.380954,"19, S Sealdah Rd, Seal Lane, Tangra, Kolkata, West Bengal 700015",CCU-C,N6jPMje,22.563183,88.380954,0,,0.027645828,0.437074455,4
Rammohan Smriti Sangha,22.584149,88.372249,"24A, Amherst Row, Manicktala, Simla, Machuabazar, Kolkata, West Bengal 700009",CCU-C,fONPPz3,22.584149,88.372249,0,,0.337214759,0.195879302,4
Sealdah Railway Athletic Club,22.570942,88.372135,"ESI HOSPITAL, SEALDAH, 301, Acharya Jagadish Chandra Bose Road, Baitakkhana North, Kolkata - 700009, WB, India",CCU-C,KQLZNZ5,22.570942,88.372135,0,,0.142209662,0.192720629,4
Kolkata,22.56472,88.350845,"Jawaharlal Nehru Road, Esplanade, Kolkata - 700001, WB, India",CCU-C,ztFKxpF,22.56472,88.350845,0,,0.050340069,-0.397175384,4
Subodh Mallick Square,22.563452,88.359647,"Subodh Mullick Square, Ward 51, Kolkata - 700013, WB, India",CCU-C,LeFtbc2,22.563452,88.359647,0,,0.03161769,-0.153292589,4
Simla Sporting Club,22.585108,88.366717,"Simla St, Girish Park, Kolkata - 700003, WB, India",CCU-C,SCNpkay,22.585108,88.366717,0,,0.351374665,0.042600545,4
Hindu Mahasabha - Girish Park,22.586019,88.36212,"Tagore Street, Machua Bazar North, Kolkata - 700007, WB, India",CCU-C,tliQuGZ,22.586019,88.36212,0,,0.364825839,-0.084771554,4
Hindu Mahasabha Sarbojanin Durgotsav,22.5859348,88.360559,"Vivekananda Road, Kolkata- 700006, West Bengal",CCU-C,veU5uj8,22.5859348,88.360559,0,,0.363582602,-0.128023206,4
Park Circus - Uddipani,22.544149,88.370056,"Park Circus, Ward 64, Kolkata - 700017, WB, India",CCU-C,FBMGQSl,22.544149,88.370056,0,,-0.253396575,0.135116411,1
Durga Puja of 4 Ghosh Lane,22.585108,88.370789,"Sealdah North, Kolkata - 700006, WB, India",CCU-C,s4ydDX0,22.585108,88.370789,0,,0.351374665,0.155426123,4
Kanjial Para Puja Samity (Rajarhat),22.634774,88.485821,"Purba Kanjial Para, Rajarhat, Kolkata-700135",CCU-E,3rRJYvW,22.634774,88.485821,0,,1.084707228,3.342693303,2
AE Part 1 Block Committee,22.598575,88.409369,"AE-059, AE Block, Sector 1, Salt Lake City, Kolkata- 700064",CCU-E,J0yG1Yl,22.598575,88.409369,0,,0.550218736,1.224387524,2
Beleghata Nabamilan,22.565353,88.396364,"P -81,, 10, CIT Rd, Subhas Sarobar Park, Phool Bagan, Beleghata, Kolkata- 700010",CCU-E,qDp1ier,22.565353,88.396364,0,,0.059686493,0.864049447,2
FC Block Sarbojonin Durgotsav Committee,22.580016,88.4095,"FC Block, Sector III, Salt Lake City, Kolkata, West Bengal 700106",CCU-E,OW46MjO,22.580016,88.4095,0,,0.276189843,1.228017227,2
Mitra Sanghati,22.570085,88.392297,"8,Suren Sarkar Road,Kolkata-700010",CCU-E,OQShdod,22.570085,88.392297,0,,0.129555814,0.751362406,4
Dhiren Charu Smriti Sangha,22.561184,88.405335,"1a/2a Ramkrishna naskar lane,CIT More, Beleghata, Kolkata, West Bengal 700010",CCU-E,3UNWKeh,22.561184,88.405335,0,,-0.001869973,1.112614836,2
Aswininagar Sarbojanin Durgotsav [Abhiyatrik Club],22.606977,88.43276,"Aswininagar, Baguiati, Kolkata, West Bengal 700159",CCU-E,WXBwsdM,22.606977,88.43276,0,,0.674276647,1.872497324,2
BL Block Durga Puja,22.585153,88.430011,"BL Block,Sector-II, Salt Lake City, Kolkata, West Bengal 700091",CCU-E,D3D8FJ5,22.585153,88.430011,0,,0.352039103,1.796328976,2
Gurudas Park ? Beleghata,22.570605,88.390307,"Suren Sarkar Rd, Jewish Graveyard, Phool Bagan, Beleghata, Kolkata-700010",CCU-E,le0ETAG,22.570605,88.390307,0,,0.137233761,0.696224169,4
AB Block Abashik Sangha,22.593879,88.401903,"AB Block, Sector 1, Salt Lake City, Kolkata, West Bengal 700064",CCU-E,pi1lQi0,22.593879,88.401903,0,,0.480880966,1.017522158,2
CF Block Residents Association,22.594028,88.418076,"CF, CF Block, Sector 1, Salt Lake City, Kolkata, West Bengal 700064",CCU-E,rhzocdY,22.594028,88.418076,0,,0.483080993,1.465638091,2
Salt Lake BJ Block,22.591015,88.426658,"BJ Block, Sector II, Salt Lake City, Kolkata, West Bengal 700091",CCU-E,3yfgR2F,22.591015,88.426658,0,,0.438593194,1.703425202,2
BE (East) Puja Committee,22.597271,88.413822,"BE Block, Sector 1, Salt Lake City, Kolkata, West Bengal 700064",CCU-E,Sh4WJgq,22.597271,88.413822,0,,0.530964807,1.347769719,2
Beliaghata 33 Palli,22.568894,88.395676,"P-225/1, C.I.T Road, Subhas Sarobar Park, Phool Bagan, Beleghata, Kolkata-700010",CCU-E,N4Th3DO,22.568894,88.395676,0,,0.111970361,0.844986579,2
Netaji Kishore Sangha,22.609621,88.429462,"Baguihati Main Rd, Narayantola East, Ashwini Nagar, Baguiati, Kolkata-700159",CCU-E,uhVSDAK,22.609621,88.429462,0,,0.713316056,1.781117472,2
BB Block Resident's Association,22.591803,88.402764,"BB Block, Sector 1, Salt Lake City, Kolkata, West Bengal 700064",CCU-E,RMKX14j,22.591803,88.402764,0,,0.450228237,1.04137845,2
AG Block Durga Puja,22.598204,88.423222,"AG Block, Sector II, Salt Lake City, Bidhannagar, West Bengal 700091",CCU-E,QMgLkG1,22.598204,88.423222,0,,0.544740816,1.608221693,2
Balaka Abasan Puja Committee,22.574399,88.453674,"Balaka Abasan,CG Block, Action Area I, Newtown, Kolkata- 700156",CCU-E,RCMTWUc,22.574399,88.453674,0,,0.193253246,2.451975259,2
FE Block Residents' Association,22.579946,88.414879,"FE Block, Sector III, Salt Lake City, Kolkata, West Bengal 700106",CCU-E,qTehMR7,22.579946,88.414879,0,,0.275156273,1.377056713,2
Mitali Kankurkachi Durgapuja,22.579986,88.394219,"179A/1A, Maniktala Main Rd, Kadapara, Sector 1, Kankurgachi, Kolkata, West Bengal 700054",CCU-E,e2pUQLR,22.579986,88.394219,0,,0.275746884,0.804616523,2
Beleghata 33 No Pallibasibrinda,22.568204,88.391848,"P-225/1, C.I.T Road, Kolkata-700010",CCU-E,hWLHpIi,22.568204,88.391848,0,,0.101782316,0.738921668,4
Shramapally Adhibasibrinda,22.55867,88.410391,"Chaulpatty Rd, Kulia, Beleghata, Kolkata, West Bengal 700010",CCU-E,519MTlS,22.55867,88.410391,0,,-0.038989895,1.252704749,2
Jal Vayu Vihar Puja Committee,22.55899,88.412077,"Jal Vayu Vihar, LB Block, Sector III, Salt Lake City, Kolkata, West Bengal 700098",CCU-E,RWf9Fe8,22.55899,88.412077,0,,-0.034265005,1.299419858,2
Ultadanga Sangrami,22.590404,88.39489,"Bagmari Rd, Block Number 5, BRS 3, Ghose Bagan, Bidhannagar, West Bengal 700054",CCU-E,AdWeWXY,22.590404,88.39489,0,,0.429571606,0.82320836,2
FD Block Sarbojanin Puja Committee,22.583649,88.41243,"FD-63/A, FD Block, Sector III, Salt Lake City, Kolkata, West Bengal 700106",CCU-E,7iKghHn,22.583649,88.41243,0,,0.329832117,1.309200661,2
BH Block Society,22.593244,88.425314,"BH Block, Sector II, Salt Lake City, Kolkata, West Bengal 700091",CCU-E,aasR9Uv,22.593244,88.425314,0,,0.471505011,1.666186112,2
BD Block Sarbojanin Durgotsab,22.595025,88.407549,"BD Block, Sector 1, Salt Lake City, Kolkata, West Bengal 700064",CCU-E,Im311MH,22.595025,88.407549,0,,0.49780198,1.173959588,2
EC Block Residents' Association,22.585853,88.409114,"North corner of EC Park,, Sector 1, Kolkata, West Bengal",CCU-E,lNo5Kai,22.585853,88.409114,0,,0.362374802,1.217322071,2
"Balak Brinda Club (Prafulla Kanan, Kestopur)",22.602103,88.424894,"AC 62, Prafulla Kanan Rd, Rabindrapally, Kestopur, Kolkata, West Bengal 700101",CCU-E,BNIlbe4,22.602103,88.424894,0,,0.602310656,1.654548896,2
Sree Sree Durga Puja Committee Rabindrapally,22.614752,88.43728,"Rabindrapally, Jyangra, Baguiati, Kolkata, West Bengal 700059",CCU-E,vj75Q4p,22.614752,88.43728,0,,0.789076725,1.997735933,2
RA Block Sarbojanin Durgotsav,22.556549,88.41446,"Sector IV, Milan Nagar, Basani Devi Colony, Salt Lake City, Kolkata- 700105",CCU-E,oHZ9UAb,22.556549,88.41446,0,,-0.070307061,1.365447204,2
BA Block,22.585133,88.459621,"BA Block, Action Area I,New Town, West Bengal 700156",CCU-E,YtYayNw,22.585133,88.459621,0,,0.351743798,2.616752694,2
Baganbari Athletic Club,22.571163,88.395721,"73, NARKEL DANGA MAIN ROAD , KOLKATA - 700054",CCU-E,A9903E5,22.571163,88.395721,0,,0.145472789,0.846233423,2
Salt Lake CJ Block,22.58927,88.423599,"CJ Park, Bidhannagar - 700135, WB, India",CCU-E,rKDt00T,22.58927,88.423599,0,,0.412827775,1.61866748,2
Salt Lake GD Block,22.576777,88.414162,"GD Community Center, 1st Cross Road, Sector III, Bidhannagar - 700106, WB, India",CCU-E,u1iodwI,22.576777,88.414162,0,,0.22836509,1.357190323,2
Salt Lake HA Block,22.57641,88.412971,"HA Park, Sector III, Bidhannagar - 700135, WB, India",CCU-E,rZJyuxg,22.57641,88.412971,0,,0.222946231,1.324190503,2
Salt Lake IA Block,22.574305,88.409523,"Medicos, 125, Block HA Sector 3, Sector III, Bidhannagar - 700097, WB, India",CCU-E,ETQ30iY,22.574305,88.409523,0,,0.19186531,1.228654503,2
Salt Lake Labony Estate Puja,22.582869,88.406723,"Labony Housing Playground, 1st Cross Road, Sector III, Bidhannagar - 700097, WB, India",CCU-E,UAqzMr5,22.582869,88.406723,0,,0.318315196,1.151073064,2
Purbachal Sarbojanin,22.573011,88.407463,"Sector III, Bidhannagar - 700097, WB, India",CCU-E,8m1tv5d,22.573011,88.407463,0,,0.172759033,1.17157673,2
Swapnar Bagan Yubak Brinda,22.579193,88.395462,"Maniktala, Kolkata - 700054, WB, India",CCU-E,Dfc8bmg,22.579193,88.395462,0,,0.264038015,0.83905714,2
Salt Lake AE Block - Part 2,22.600937,88.413355,"Sector I, Bidhannagar - 700064, WB, India",CCU-E,QhB3Oeu,22.600937,88.413355,0,,0.585094335,1.334830244,2
Salt Lake BE Block - West,22.596836,88.412197,"BE Park, 3rd Cross Road, Sector I, Bidhannagar - 700064, WB, India",CCU-E,FeoLu5y,22.596836,88.412197,0,,0.524541908,1.302744777,2
Salt Lake CK-CL Block,22.584633,88.427861,"CKCL Park, Sector II, Bidhannagar - 700135, WB, India",CCU-E,ta7SQpo,22.584633,88.427861,0,,0.344361156,1.736757513,2
Salt Lake BG Block,22.59545,88.423119,"Apeejay School, 5th Cross Road, Sector II, Bidhannagar - 700101, WB, India",CCU-E,tfodmrQ,22.59545,88.423119,0,,0.504077226,1.605367805,2
Salt Lake AH Block,22.594231,88.427271,"Sector II, Bidhannagar - 700101, WB, India",CCU-E,Uj5zYN5,22.594231,88.427271,0,,0.486078345,1.720409996,2
Kankurgachi Progressive Youth,22.582215,88.391876,"1, Bagmari Lane, Maniktala, Kolkata - 700054, WB, India",CCU-E,thjS2qd,22.582215,88.391876,0,,0.308658701,0.739697483,4
Salt Lake AK Block,22.588813,88.430843,"AK Block, Bidhannagar - 700102, WB, India",CCU-E,EWxR4Zl,22.588813,88.430843,0,,0.40608004,1.819381746,2
Salt Lake BH Block,22.594241,88.42402,"BH Park, Sector II, Bidhannagar - 700135, WB, India",CCU-E,Un83kBG,22.594241,88.42402,0,,0.486225998,1.630332404,2
Sreeramnagar Appartment,22.627056,88.434231,"Rajarhat Gopalpur, Bidhannagar - 700052, WB, India",CCU-E,g4kh4vB,22.627056,88.434231,0,,0.970748771,1.913255287,2
Beliaghata 33 Pally Adhibasibrindo Sarbojanin Durgotsav,22.5687627,88.3914276,"94, Hem Chandra Naskar Road, Subhas Sarobar Park, Phool Bagan, Beleghata, Kolkata- 700010, West Bengal",CCU-E,5aki5NR,22.5687627,88.3914276,0,,0.11003168,0.727273369,4
Samarpally AB Block Sarbojanin Durgotsav,22.5926688,88.4319563,"Samarpally, Krishnapur, Kestopur, Kolkata- 700102, West Bengal",CCU-E,apZ5yko,22.5926688,88.4319563,0,,0.46301202,1.85022868,2
Kamal Park Sarbojanin Durgotsav,22.6036127,88.4262103,"BC- 88, Gauranganagar, Kestopur, Kolkata- 700101, West Bengal",CCU-E,BWTrNTy,22.6036127,88.4262103,0,,0.624601804,1.691020484,2
Mahishgote Sarbojanin Durgotsav,22.5827143,88.44269,"Krishnapur, Kestopur, Kolkata- 700059, West Bengal",CCU-E,e2ipTBC,22.5827143,88.44269,0,,0.316031007,2.147634357,2
Sunrise Point Durga Puja,22.6226549,88.4682377,"Street No. 653, AA- IIC, Newtown, New Town, Kolkata- 700156, West Bengal",CCU-E,Og1KZp6,22.6226549,88.4682377,0,,0.905765282,2.855501261,2
Dashadrone Sarbojanin Durgotsav,22.6313979,88.4464932,"Dashadrone Manicktala, Khelar Math, PO- Rajarhat, Kolkata- 700136, West Bengal",CCU-E,4vHd3hO,22.6313979,88.4464932,0,,1.034858155,2.253012117,2
Beliaghata 33 No Palli,22.566563,88.393852,"Narkeldanga, Kolkata - 700010, WB, India",CCU-E,xhVD6Pq,22.566563,88.393852,0,,0.077552486,0.794447813,2
Karunamayee G Block,22.583117,88.423172,"Sector II, Bidhannagar - 700091, WB, India",CCU-E,uPupMJH,22.583117,88.423172,0,,0.321976986,1.606836311,2
Sangrami,22.590536,88.395699,"Maniktala, Kolkata - 700067, WB, India",CCU-E,iF30wCI,22.590536,88.395699,0,,0.431520623,0.845623855,2
Beleghata Sandhani,22.5648434,88.3961574,"Kolkata - 700010, WB, India",CCU-E,1AciqJt,22.5648434,88.3961574,0,,0.052162105,0.858325045,2
Salt Lake DL block,22.582136,88.425822,"DL Park, Bidhannagar - 700135, WB, India",CCU-E,2O7fWE2,22.582136,88.425822,0,,0.307492243,1.680261601,2
Salt Lake AD Block,22.596856,88.406446,"262, 1st Avenue, Sector I, Bidhannagar - 700064, WB, India",CCU-E,kz3eBFM,22.596856,88.406446,0,,0.524837214,1.143398043,2
AK Block,22.5891537,88.4313014,"Sector II, Bidhannagar - 700102, WB, India",CCU-E,hBskY6i,22.5891537,88.4313014,0,,0.411110572,1.832082936,2
AE Block,22.6008801,88.4119096,"Sector I, Bidhannagar - 700064, WB, India",CCU-E,6tlFXDB,22.6008801,88.4119096,0,,0.584254191,1.294781596,2
AJ Block,22.5921092,88.4288779,"Sector II, Bidhannagar - 700101, WB, India",CCU-E,hI7Fd22,22.5921092,88.4288779,0,,0.454749367,1.76493343,2
AA Block,22.5917995,88.39736,"AA Block, Bidhannagar - 700067, WB, India",CCU-E,MAy1sH4,22.5917995,88.39736,0,,0.450176559,0.891646273,2
AB Block,22.593313,88.3997852,"241, 1st Cross Road, Sector I, Bidhannagar - 700067, WB, India",CCU-E,IZBecN5,22.593313,88.3997852,0,,0.472523815,0.958842882,2
AC Block,22.5948385,88.4034229,"130, 1st Avenue, Sector I, Bidhannagar - 700064, WB, India",CCU-E,eK0gCLt,22.5948385,88.4034229,0,,0.495048255,1.059635025,2
AG Block,22.5995094,88.4240305,"Sector II, Bidhannagar - 700101, WB, India",CCU-E,i2mrWwf,22.5995094,88.4240305,0,,0.564015417,1.630623334,2
AH Block,22.5965541,88.4264543,"Sector II, Bidhannagar - 700101, WB, India",CCU-E,YBsi7Rr,22.5965541,88.4264543,0,,0.520379575,1.697781153,2
AL Block,22.5861982,88.4337248,"175, Bidhannagar - 700135, WB, India",CCU-E,gN7rXpE,22.5861982,88.4337248,0,,0.367471777,1.899229672,2
BA Block,22.5888325,88.3985726,"BA Block, Bidhannagar - 700054, WB, India",CCU-E,3CEOu1z,22.5888325,88.3985726,0,,0.406367963,0.925244577,2
BC Block,22.5929856,88.4043323,"225, 1st Avenue, Sector I, Bidhannagar - 700064, WB, India",CCU-E,SbxJ9AC,22.5929856,88.4043323,0,,0.467689661,1.084832368,2
BD Block,22.5948864,88.4082726,"Sector I, Bidhannagar - 700064, WB, India",CCU-E,CpV5hcn,22.5948864,88.4082726,0,,0.495755512,1.194008849,2
BE Block,22.5979131,88.4131218,"393, Sector I, Kolkata - 700064, WB, India",CCU-E,Ja2pNv1,22.5979131,88.4131218,0,,0.540445595,1.328368818,2
BG Block,22.5953985,88.4225156,"Sector II, Bidhannagar - 700101, WB, India",CCU-E,EfaOUbS,22.5953985,88.4225156,0,,0.503316814,1.588649005,2
BK Block,22.5876407,88.4288779,"Sector II, Bidhannagar - 700102, WB, India",CCU-E,WPXxp3f,22.5876407,88.4288779,0,,0.388770699,1.76493343,2
BL Block,22.5846852,88.4313014,"Sector V, Bidhannagar - 700102, WB, India",CCU-E,wU2VBUB,22.5846852,88.4313014,0,,0.345131904,1.832082936,2
CB Block,22.5888806,88.4034229,"CB Block Park, Bidhannagar - 700048, WB, India",CCU-E,XvBTNZJ,22.5888806,88.4034229,0,,0.407078173,1.059635025,2
CD Block,22.5919194,88.409485,"265, Bidhannagar - 700048, WB, India",CCU-E,CBIgH9z,22.5919194,88.409485,0,,0.451946916,1.227601612,2
CE Block,22.5949341,88.4131218,"Jhupri Market, BE-56, BE Block, Kolkata - 700064, WB, India",CCU-E,RaWoiKe,22.5949341,88.4131218,0,,0.496459816,1.328368818,2
JC Block,22.5696125,88.4131218,"JC-27A, National Institute of Homoeopathy Staff Quarters, Bidhannagar - 700098, WB, India",CCU-E,ccqlO3l,22.5696125,88.4131218,0,,0.122579218,1.328368818,2
IB Block,22.572234,88.4146371,"Sector III, Bidhannagar - 700106, WB, India",CCU-E,px0h3iH,22.572234,88.4146371,0,,0.161286408,1.37035423,2
IA Block,22.5725677,88.4106973,"Sector III, Bidhannagar - 700097, WB, India",CCU-E,niDt0qH,22.5725677,88.4106973,0,,0.166213583,1.261191604,2
HB Block,22.5741049,88.4155462,"Sector III, Bidhannagar - 700106, WB, India",CCU-E,6VB6hez,22.5741049,88.4155462,0,,0.188910776,1.395543261,2
HA Block,22.5755587,88.4119096,"Sector III, Bidhannagar - 700097, WB, India",CCU-E,4PwrbUu,22.5755587,88.4119096,0,,0.210376545,1.294781596,2
GD Block,22.5770958,88.4167583,"268, 1st Cross Road, Sector III, Bidhannagar - 700106, WB, India",CCU-E,IQ14nkU,22.5770958,88.4167583,0,,0.233072262,1.429127712,2
GC Block,22.5785377,88.4119096,"111, 1st Cross Road, Sector III, Bidhannagar - 700097, WB, India",CCU-E,46N3bhm,22.5785377,88.4119096,0,,0.254362324,1.294781596,2
FE Block,22.5815762,88.4179705,"158, Bidhannagar - 700135, WB, India",CCU-E,APHjkGy,22.5815762,88.4179705,0,,0.299226638,1.462714934,2
FC Block,22.5800034,88.409485,"Administrative Training Institute, 1st A Cross Road, Sector III, Bidhannagar - 700097, WB, India",CCU-E,OXQeAf8,22.5800034,88.409485,0,,0.2760038,1.227601612,2
EE Block,22.5801459,88.4240305,"Sector V, Bidhannagar - 700091, WB, India",CCU-E,ngk0OmO,22.5801459,88.4240305,0,,0.278107853,1.630623334,2
EC Market,22.5852613,88.4092955,"EC Market, Bidhannagar - 700097, WB, India",CCU-E,cIe6EWO,22.5852613,88.4092955,0,,0.353638183,1.222351011,2
DB Block,22.5862889,88.4049385,"Sector I, Bidhannagar - 700064, WB, India",CCU-E,NqJ4Sk1,22.5862889,88.4049385,0,,0.368810989,1.10162875,2
DA Block,22.5847695,88.4019072,"Bond Forever Jewelry Pvt. Ltd, DA 18, Salt Lake City, Bidhannagar - 700048, WB, India",CCU-E,YGsHzAu,22.5847695,88.4019072,0,,0.346376617,1.01763853,2
CG Block,22.5920383,88.4216066,"Sector II, Bidhannagar - 700101, WB, India",CCU-E,NVE0iZT,22.5920383,88.4216066,0,,0.453702509,1.563462745,2
Salt Lake CA Block,22.587495,88.399687,"Sector I, Bidhannagar - 700054, WB, India",CCU-E,IWq4nUH,22.587495,88.399687,0,,0.386619397,0.95612199,2
Ultadanga Pallyshree,22.595855,88.384417,"Muchibazar,, Ultadanga, Kolkata, West Bengal 700067",CCU-N,L7pVMWj,22.595855,88.384417,0,,0.510057165,0.53302607,4
Durbar Mahila Samanya Committee Durga Puja,22.591756,88.363819,"12/5, Nilmoni Mitra Street, Kolkata, West Bengal 700006",CCU-N,Pt6CGHh,22.591756,88.363819,0,,0.449534269,-0.037696245,4
Ahiritola Sarbajanin Sarodotsab,22.594882,88.357176,"172/C, BK Paul Ave, Ahiritola, Beniatola, Kolkata, West Bengal 700005",CCU-N,nn2Ql0X,22.594882,88.357176,0,,0.495690545,-0.221758209,4
Sarat Youth Association,22.60877,88.405814,"Borat Colony, Block A, Lake Town, Kolkata, West Bengal 700055",CCU-N,IfSqFY4,22.60877,88.405814,0,,0.7007508,1.125886804,2
Paikpara Sarbojanin Durgotsab Committee,22.613722,88.384424,"Ganguly Para Ln, Ganguly Para Lane, Gangulipara, Paikpara, Kolkata, West Bengal 700037",CCU-N,B6VcEzm,22.613722,88.384424,0,,0.773868483,0.533220024,4
Belgachia Yuba Sammilani,22.602764,88.378991,"Bhairab Mukherjee Lane,Kolkata - 700 004.",CCU-N,ALutkMo,22.602764,88.378991,0,,0.612070508,0.382684325,4
Dunduvi Club,22.62697,88.425336,"NA/7, K.B.Sarani, Kamardanga, Kolkata, West Bengal 700080",CCU-N,XDCaOog,22.62697,88.425336,0,,0.969478956,1.66679568,2
Kumartuli Sarbojanin Durgoutsav,22.601202,88.362652,"No. 2, Durga Charan Banerjee Street, Kumartuli, Shobhabazar, Kolkata, West Bengal 700005",CCU-N,GowcDuS,22.601202,88.362652,0,,0.589007135,-0.07003108,4
Simla Vivekananda Sporting Club,22.586059,88.366842,"Raja Rammohan Roy Rd, Manicktala, Azad Hind Bag, Kolkata, West Bengal 700006",CCU-N,SOGIHvT,22.586059,88.366842,0,,0.36541645,0.046064002,4
Dakshineswar Adi Sarbojanin Durgotsab O Dolutsab Samity,22.65922,88.364435,"2b, AC Sarkar Rd, Dakshineswar, Kolkata, West Bengal 700076",CCU-N,8MEJWbg,22.65922,88.364435,0,,1.445659344,-0.020628328,0
Mohan Bagan Barowari,22.598332,88.373657,"21 Mohan Bagan Row, Fariapukur, Shyambazar, Kolkata - 700004",CCU-N,zHUnGR2,22.598332,88.373657,0,,0.546630772,0.234891683,4
Ingit Sarbojanin Durgotsav,22.636233,88.417956,"Near Dum Dum Girls High School, U.K. Dutta Road, Dum Dum Gorabazar, Kolkata - 700028.",CCU-N,RqBjixL,22.636233,88.417956,0,,1.106249776,1.462313173,2
Golaghata Sammilani,22.597297,88.399173,"Golaghata Rd, Sreebhumi, Lake Town, Kolkata, West Bengal 700048",CCU-N,qGD90eJ,22.597297,88.399173,0,,0.531348704,0.941880255,2
Sandhani Durgotsav,22.595656,88.361839,"96, BK Paul Ave, Sovabazar, Shobhabazar, Kolkata, West Bengal 700005",CCU-N,Rsbe767,22.595656,88.361839,0,,0.507118874,-0.092557405,4
Darjeepara Sammilani,22.591429,88.367177,"Beadon Row, Hedua, Kolkata-700006",CCU-N,Acg7lU1,22.591429,88.367177,0,,0.444706021,0.055346067,4
Baghbazar Palli Puja O Pradarshani Durga Puja,22.602818,88.367354,"P/, 12, Bagbazar St, Bidhan Sarani, Baghbazar, Kolkata, West Bengal 700003",CCU-N,xqlrunH,22.602818,88.367354,0,,0.612867833,0.060250322,4
Natunpally Pradeep Sangha,22.603083,88.396975,"26, Shree Bhumi, Patipukur, Kolkata, West Bengal 700048",CCU-N,Usa0FwZ,22.603083,88.396975,0,,0.616780633,0.880978825,2
Lake View Park Sarbojanin Durgotsav Samity,22.644854,88.384427,"D/9, Lake View Park,Bonhooghly, Kolkata-700108",CCU-N,C9wBH1e,22.644854,88.384427,0,,1.233541284,0.533303147,0
Bandhudal Sporting Club Durga Puja,22.633153,88.377695,"?Nainan Para, Baranagar, Kolkata, West Bengal 700036",CCU-N,aebGm4I,22.633153,88.377695,0,,1.060772703,0.346775201,4
Sovabazar B K Pal Park,22.5953,88.360017,"107, BK Paul Ave, Ahiritola, Beniatola, Kolkata, West Bengal 700005",CCU-N,rbZibfP,22.5953,88.360017,0,,0.501862433,-0.143040756,4
Shyampukur Adi Sarbojanin Durgotsab Committee,22.597637,88.370826,"22, Shyam Bazar, Ramdhan Mitra Lane, Hati Bagan, Kolkata, West Bengal 700004",CCU-N,ysAntoh,22.597637,88.370826,0,,0.5363689,0.156451307,4
Nainan Para & Jogendra Basak Road Sarbojanin Shree Shree Durgapuja,22.635896,88.375107,"98, Nainan Para Ln, Nainan Para, Baranagar, Kolkata-700036",CCU-N,QRW1yAN,22.635896,88.375107,0,,1.101273876,0.275067785,4
Telengabagan Sarbojanin Durgotsab,22.594935,88.38544,"65, Adhar Chandra Das Lane, Kolkata - 700067.",CCU-N,s6vgfa8,22.594935,88.38544,0,,0.496473105,0.561371003,4
Nanda Ram Sen Street Sarbojanin Durgotsab Samity,22.598196,88.361601,"Nandaram Sen St, Hatkhola, Kolkata- 700005",CCU-N,3PPCEkL,22.598196,88.361601,0,,0.544622694,-0.099151828,4
Balaram Dey Street Dutta Bari,22.587589,88.362649,"159, Balaram Dey St, Ram Bagan, Kolkata, West Bengal 700006",CCU-N,AWbjFvU,22.587589,88.362649,0,,0.388007333,-0.070114203,4
United Club - Ultadanga,22.591261,88.391281,"Ultadanga, Kolkata, West Bengal 700054",CCU-N,qg0mTKG,22.591261,88.391281,0,,0.442225454,0.723211427,4
Belgachia Sadharan Durgotsab Committee,22.607554,88.383448,"Talapark Circus, Maidan, Kolkata, West Bengal 700037",CCU-N,yAU8MKf,22.607554,88.383448,0,,0.682796215,0.506177351,4
CIT Park Goabagan Sarbojanin Durgotsav Samity,22.591168,88.372663,"10A, Sahitya Parishad Street, Kolkata ? 700006",CCU-N,Jf94GWz,22.591168,88.372663,0,,0.440852282,0.207350272,4
Basak Bagan Sarbojanin Durgotsab,22.612505,88.398161,"30/1-A, Basak Bagan, South Dum Dum, Kolkata, West Bengal 700048",CCU-N,OdtMQ8s,22.612505,88.398161,0,,0.755899133,0.913840106,2
Maitry Sangha Durga Puja Committee,22.59283,88.364561,"22, Jatindra Mohan Ave, Girish Park, Darjipara, Kolkata, West Bengal 700006",CCU-N,Gve9YGn,22.59283,88.364561,0,,0.465392183,-0.017137163,4
Nimta Boy's Athletic Club Sarbojanin Durgotsav Committee,22.663895,88.39777,"Udaypur, Nimta, Kolkata, West Bengal 700058",CCU-N,Pk556kz,22.663895,88.39777,0,,1.514687044,0.903006412,0
Sikdar Bagan Sadharan Durgotsov,22.596646,88.372309,"No. 69/1, Sikdar Bagan Street, Hati Bagan, Kolkata, West Bengal 700004",CCU-N,wYeB9A9,22.596646,88.372309,0,,0.521736505,0.197541762,4
Kumartully Park Sarbojanin Durgotsab Committee,22.599038,88.361422,"8B, Abhay Mitra St, Sovabazar, Kumartuli, Shobhabazar, Kolkata, West Bengal 700005",CCU-N,aWbJXpp,22.599038,88.361422,0,,0.557055062,-0.104111498,4
Grey Street Sarbojanin Durga Puja,22.594591,88.3708,"38/1, Grey Street, Kolkata-700005",CCU-N,3yxces1,22.594591,88.3708,0,,0.491393847,0.155730907,4
Prafullakanan Adhibasibrinda (Poschim),22.607486,88.421479,"Prafulla Kanan Rd, Prafulla Kanan, Kestopur, Rajarhat, West Bengal 700101",CCU-N,0SEFyuQ,22.607486,88.421479,0,,0.681792176,1.559927248,2
Mohit Moitra Mancha,22.612299,88.382918,"34/1, 13/1/2, Raja Manindra Rd, Jora Mandir, Gangulipara, Paikpara, Kolkata, West Bengal 700059",CCU-N,CHubyps,22.612299,88.382918,0,,0.752857485,0.491492293,4
B. N. B. L. Netaji Sangha,22.661635,88.389285,"Nagendra Bhattacharjee Lane, Goyal Para, Belghoria , Kolkata 700056",CCU-N,NBGu8v1,22.661635,88.389285,0,,1.481317503,0.667906944,0
Dum Dum Park Bharat Chakra,22.610102,88.414169,"Tank No. 2, Dum Dum Park, South Dum Dum, Kolkata- 700055",CCU-N,xsXNbww,22.610102,88.414169,0,,0.720418157,1.357384276,2
31 Pally Sadharan Durgotsab Samity,22.61038,88.38913,"5/3F,Raja Manindra Road,Paikpara,Kolkata-700037",CCU-N,hqVK5dB,22.61038,88.38913,0,,0.724522906,0.663612257,4
Ahiritola Sarbojanin Durgotsav Samity,22.592818,88.356809,"30/C, B.K. Pal Avenue, Kolkata, West Bengal 700005",CCU-N,DVpRq5x,22.592818,88.356809,0,,0.465215,-0.231926919,4
Hari Ghosh Street Sarbojanin Durgotsav Samity,22.590565,88.368083,"15 Hari Ghosh Street, Kolkata, West Bengal 700006",CCU-N,PUJ3ulC,22.590565,88.368083,0,,0.431948817,0.080449204,4
Bagbazar Sarbajanin Durgotsav,22.604635,88.366046,"Bagbazar St, Baghbazar, Kolkata, West Bengal 700003",CCU-N,ATU64Mi,22.604635,88.366046,0,,0.639696353,0.024008707,4
Manasbag Sarbojanin Durgotsab,22.666213,88.378193,"Nilgunj Rd, Manasbag, Belghoria, Kolkata, West Bengal 700056",CCU-N,kw6hpkJ,22.666213,88.378193,0,,1.54891297,0.360573614,0
Ramkrishnapuram Residents Welfare Association,22.640108,88.367486,"Baranagar, Kolkata, West Bengal 700036",CCU-N,lFeKghT,22.640108,88.367486,0,,1.163465249,0.063907733,4
Darpanarayan St. Sarbojanin Durga Puja,22.587297,88.35433,"Darpanarayan Tagore St, Malapara, Jorabagan, Kolkata, West Bengal 700007",CCU-N,5CYdkWh,22.587297,88.35433,0,,0.383695871,-0.3006142,4
Sreebhumi Sporting Club Durga Puja,22.59889,88.402939,"Sreebhumi, Lake Town, South Dum Dum, West Bengal 700048",CCU-N,LFmBJ0Q,22.59889,88.402939,0,,0.5548698,1.04622729,2
Tarun Sporting Club,22.586536,88.364998,"Ramtanu Bose Ln, Manicktala, Azad Hind Bag, Kolkata, West Bengal 700006",CCU-N,xYGoxAm,22.586536,88.364998,0,,0.37245949,-0.005028917,4
Bangali Sangha,22.65379,88.431569,"Khalisha Kota, Birati, Kolkata, West Bengal 700134",CCU-N,2MINPwh,22.65379,88.431569,0,,1.365483856,1.839497505,2
Sovabazar Sarbojanin Durgotsab (Sovabazar Sangrami),22.597379,88.360416,"87, Sovabazar St, Sovabazar, Hatkhola, Kolkata, West Bengal 700005",CCU-N,5oj68B1,22.597379,88.360416,0,,0.532559457,-0.131985401,4
Karbagan Sarbojanin Durgotsab Committee,22.59538,88.383811,"17, Ultadanga Main Rd, Daspara, Ultadanga, Kolkata, West Bengal 700067",CCU-N,R3MIGMx,22.59538,88.383811,0,,0.503043656,0.51623523,4
Lake Town Adhibasi Brinda Durga Puja,22.605004,88.403603,"Lake Town Rd, Block A, Lake Town, South Dum Dum, West Bengal 700089",CCU-N,dbOOVPY,22.605004,88.403603,0,,0.645144743,1.064625174,2
Netaji Sporting Club Lake Town Durga Puja,22.607947,88.399977,"Block A, Lake Town, Kolkata, West Bengal 700089",CCU-N,70p1fhH,22.607947,88.399977,0,,0.688598972,0.964157211,2
Jawpur Bayam Samiti,22.61357,88.401886,"282, Sahid Hemant Basu Sarani, Lal Garh Colony, South Dum Dum, Kolkata-700074",CCU-N,5EvBCxw,22.61357,88.401886,0,,0.77162416,1.017051128,2
Hatibagan Sarbojanin,22.594216,88.371872,"Principal Khudiram Bose Rd, Shyambazar, Sovabazar, Goa Bagan, Kolkata, West Bengal 700004",CCU-N,M3aLvS7,22.594216,88.371872,0,,0.485856866,0.185433516,4
North End Plaza Durgotsab,22.641058,88.374251,"234, Gopal Lal Tagore Road, Kolkata- 700036",CCU-N,2sKy1Rr,22.641058,88.374251,0,,1.177492268,0.251350031,4
Deshbandhunagar Sarbojanin Durgotsab,22.612775,88.423516,"AA-8/4 Deshbandhunagar, Baguiati, Kolkata-700059",CCU-N,fh6uN77,22.612775,88.423516,0,,0.75988576,1.616367745,2
Darjeepara Sarbojonin Durgotsab Samity,22.592462,88.367956,"Darjipara, Kolkata, West Bengal 700006",CCU-N,Fsm5nNS,22.592462,88.367956,0,,0.459958559,0.076930331,4
Jagrata Sangha,22.613422,88.406352,"259, Green Park Road, Naskar Bagan, Sarada Pally, Kolkata, West Bengal 700055",CCU-N,YyKxNAy,22.613422,88.406352,0,,0.769438898,1.140793523,2
Jagat Mukherjee Park,22.599577,88.366204,"1, Jatindra Mohan Ave, Shobhabazar, Kolkata, West Bengal 700005",CCU-N,yI64FAh,22.599577,88.366204,0,,0.56501355,0.028386517,4
Munshir Bagan Sarbojanin Durgotsab Committee,22.630449,88.383947,"Kalicharan Ghosh Rd, Sinthi, Kolkata, West Bengal 700050",CCU-N,uppxtKi,22.630449,88.383947,0,,1.020847377,0.520003472,4
Cossipore Shakti Sangha,22.624208,88.37249,"8A Gopi Mondal Lane, Kolkata- 700002",CCU-N,R7PrFrx,22.624208,88.37249,0,,0.928697244,0.202556848,4
Baghbazar Durga Puja Pandal,22.602178,88.372078,"Brindaban Pal Ln, Bidhan Sarani, Baghbazar, Kolkata, West Bengal 700003",CCU-N,5yM1fXR,22.602178,88.372078,0,,0.603418052,0.191141293,4
Sovabazar Beniatola Sarbojanin Durgotsab Samity,22.595874,88.361108,"Beniatola St, Sovabazar, Shobhabazar, Kolkata, West Bengal 700005",CCU-N,2hYhFff,22.595874,88.361108,0,,0.510337706,-0.112811702,4
Lalabagan Nabankur Sangha,22.58818,88.377451,"44, Simla Rd, Manicktala, Sahitya Parishad, Kolkata, West Bengal 700006",CCU-N,LBLpaLU,22.58818,88.377451,0,,0.396733616,0.340014533,4
Surir Bagan Sarbojanin Durgotsav Committee,22.594794,88.387383,"Surir Bagan, Ultadanga, Kolkata, West Bengal 700067",CCU-N,kgU6BrZ,22.594794,88.387383,0,,0.4943912,0.615206981,4
Sammilita Malapara Sarbojanin,22.58767,88.354756,"5-B, Malapara, Jorabagan, Kolkata, West Bengal 700006",CCU-N,YhUzr3X,22.58767,88.354756,0,,0.389203321,-0.288810739,4
Dum Dum Mall Pally,22.616679,88.402984,"866, Panchanantala, Bahiragath Colony, Jawpur, South Dum Dum, Kolkata, West Bengal 700074",CCU-N,ji2MbIi,22.616679,88.402984,0,,0.817529426,1.047474135,2
Dum Dum Tarun Dal Association,22.610051,88.419617,"60, Shyam Nagar Road, Dum Dum Park, South Dum Dum, Kolkata, West Bengal 700055",CCU-N,uHXMo3h,22.610051,88.419617,0,,0.719665128,1.508335591,2
Sanghatirtha,22.583686,88.383406,"No.9, Bagmari Rd, Bagmari, Kolkata, West Bengal 700054",CCU-N,F2cajQY,22.583686,88.383406,0,,0.330378433,0.505013629,4
Ramesh Dutta Street Sarbojanin,22.589534,88.361256,"Ramesh Dutta St, Kolkata, West Bengal 700006",CCU-N,5e030HU,22.589534,88.361256,0,,0.416725809,-0.108710969,4
Beadon Street Sarbojanin Durgotsab,22.589569,88.366479,"62/5, Abhedananda Rd, Manicktala, Darjipara, Kolkata, West Bengal 700006",CCU-N,uFSuFVV,22.589569,88.366479,0,,0.417242594,0.036006122,4
Bhagabati Park Durga Puja Committee,22.61629,88.41213,"100 Jessore Road, Bhagabati Park Kolkata - 700 074",CCU-N,o3wORhK,22.61629,88.41213,0,,0.81178573,1.300888364,2
Arunachal Sarbojanin Durgotsab Committee,22.692721,88.384381,"Arunachal, Sodepur, Khardaha, West Bengal 700110",CCU-N,4fEWz6v,22.692721,88.384381,0,,1.940311101,0.532028595,0
Bangur Avenue Protirodh Bahini,22.607826,88.409335,"Bangur Avenue, P-48, Block A, Kolkata, 700055",CCU-N,1kYYWk7,22.607826,88.409335,0,,0.686812372,1.223445463,2
Sarkar Bagan Sammilita Sangha,22.606431,88.377386,"3/2, Nilmoni Mitra Row, Bidhan Sarani, Tala, Kolkata, West Bengal 700002",CCU-N,as9omLX,22.606431,88.377386,0,,0.666214802,0.338213535,4
Naba Tarun Sangha,22.616124,88.428876,"D.D.13, D.B Nagar, Rail Pukur Rd, Desh Bandhu Nagar, Baguiati, Kolkata, West Bengal 700059",CCU-N,FEfIwNc,22.616124,88.428876,0,,0.809334693,1.764880785,2
Dum Dum Park Yubak Brinda,22.605386,88.417875,"A,, 413, Dum Dum Park, South Dum Dum, Kolkata, West Bengal 700055",CCU-N,4wIAYI9,22.605386,88.417875,0,,0.650785081,1.460068852,2
Halsibagan Sarbojanin Durgotsab,22.589411,88.377401,"14, Nirode Behari Mullick Road, Kolkata-700006",CCU-N,YSbD8QO,22.589411,88.377401,0,,0.41490968,0.33862915,4
Nimtala Sarbojanin Durgotsab,22.591846,88.358801,"Rabindra Sarani, #58, Nimtala Ghat St, Kolkata, West Bengal 700006",CCU-N,9k9ySx0,22.591846,88.358801,0,,0.450863145,-0.176733267,4
Hatkhola Gossainpara Sarbojanin Durgotsav,22.599161,88.35914,"Gossain Para Ln, Sovabazar, Kumartuli, Shobhabazar, Kolkata, West Bengal 700005",CCU-N,8FQE46H,22.599161,88.35914,0,,0.558871192,-0.167340371,4
Cossipore I.H.E Tenant Welfare Association,22.627164,88.37224,"87B, Kasipur Rd , Cossipore Road, Bara Nagar, CIT, Satchasi Para, Kolkata, West Bengal 700035",CCU-N,jEHEgca,22.627164,88.37224,0,,0.972343421,0.195629933,4
Paik Para 15 Palli Adhibasibrinda,22.618205,88.390318,"15,Paikpara.Kolkata, West Bengal 700037",CCU-N,ls4EmeV,22.618205,88.390318,0,,0.840061248,0.696528953,4
Dum Dum Park Tarun Sangha,22.610095,88.411637,"Tank No 3, Dum Dum Park, South Dum Dum, Kolkata, West Bengal 700055",CCU-N,wMbPQ3j,22.610095,88.411637,0,,0.7203148,1.287228489,2
Kashi Bose Lane Durga Puja Committee,22.591148,88.368863,"6E, Manicktala, Darjipara, Kolkata, West Bengal 700006",CCU-N,1koNz9C,22.591148,88.368863,0,,0.440556977,0.102061176,4
Kalindi Plot Owner's Association,22.611172,88.399967,"Kalindi Housing Estate, South Dum Dum, West Bengal 700089",CCU-N,2AcTYjk,22.611172,88.399967,0,,0.73621701,0.963880134,2
Sahid Colony Sarbojanin Sarodutsab,22.612898,88.389983,"Paikpara First Row, Sahid Colony, Paikpara, Kolkata, West Bengal 700037",CCU-N,bfZb8WF,22.612898,88.389983,0,,0.761701889,0.687246888,4
Bharatiya Tarun Sangha,22.588852,88.36371,"9B ASHUTOSH DEY LANE,NEAR SEKAR BHAWAN Kolkata -700006",CCU-N,7leroEP,22.588852,88.36371,0,,0.406655886,-0.040716379,4
Sinthee Youth Athletic Club,22.629376,88.386955,"60/1D, Kalicharan Ghosh Rd, W-block, Sinthi, Kolkata, West Bengal 700050",CCU-N,6oiW9Ro,22.629376,88.386955,0,,1.005004228,0.603348103,4
Nutan Pally Sarbojanin Durgotsab (Natunpally Adhibasi Brinda),22.676527,88.389483,"N Basudev Rd, Natun Pally, Belghoria, Kolkata, West Bengal 700056",CCU-N,bUamDku,22.676527,88.389483,0,,1.701202103,0.67339306,0
Ananda Complex Residential Durga Puja Committee,22.616942,88.383574,"Ananda Complex, Nilmoni Dey Ln, Mitrabagan Basti, Paikpara, Kolkata, West Bengal 700002",CCU-N,VaN80Qu,22.616942,88.383574,0,,0.821412695,0.509668516,4
Missionpara Sarbojanin Durga Puja Committee,22.726293,88.37978,"Missionpara Road, Chowdhary Para, Rahara, Kolkata, West Bengal 700118",CCU-N,ZxFOpUz,22.726293,88.37978,0,,2.436011193,0.404545666,0
United Club - Baguiati,22.612362,88.42783,"Rail Pukur Rd, Shastri Bagan, Desh Bandhu Nagar, Baguiati, Kolkata, West Bengal 700059",CCU-N,VNoqa2G,22.612362,88.42783,0,,0.753787698,1.735898576,2
Debloke Residents Welfare Association,22.61885,88.408942,"1/99 Krishnakunj Apartment M M, MM Ghose Rd, Ward Number 22, Amarpalli, South Dum Dum, Kolkata- 700074",CCU-N,PDyI1z5,22.61885,88.408942,0,,0.849584856,1.212556354,2
Shovabazar 9er Pally Sarbajanin Durgatsab,22.596795,88.364917,"67C, Raja Naba Krishna St, Girish Park, Sovabazar, Kolkata- 700005",CCU-N,umbIV3j,22.596795,88.364917,0,,0.523936532,-0.007273238,4
Hatibagan Nabinpally Sarbojanin Durgotsav,22.595974,88.373508,"11/1d,, Ganendra Mitra Ln, Hati Bagan, Shyam Bazar, Kolkata, West Bengal 700004",CCU-N,mm2SRN3,22.595974,88.373508,0,,0.511814234,0.230763242,4
Shyam Square Sarbojanin Durgapuja-O-Prodorshani,22.600761,88.368728,"41/1A, Ramkanto Bose St, Bidhan Sarani, Baghbazar, Kolkata, West Bengal 700003",CCU-N,Z20BbaB,22.600761,88.368728,0,,0.582495646,0.098320643,4
Bejoypur Sarbojanin Durga Puja,22.694359,88.391579,"A/49, Anand Loke Rd, H B Town, Sodepur, Barrackpore, West Bengal 700114",CCU-N,FwbupEc,22.694359,88.391579,0,,1.964496635,0.731468309,0
Nalin Sarkar Street Sarbojanin Durgotsab,22.59442,88.374612,"205-A, Shri Aurobindo Sarani Rd, Hati Bagan, Shyam Bazar, Kolkata, West Bengal 700006",CCU-N,9ctiXPO,22.59442,88.374612,0,,0.488868984,0.261352495,4
Nabapally Adhibashi Brinda Durga Puja [Nabapally Sporting Club],22.647589,88.428628,"Airport Gate No 2, Manickpur Nabapally, Kolkata-700079",CCU-N,4bpoGUU,22.647589,88.428628,0,,1.273924334,1.758009286,2
Shyambazar Palli Sangha,22.600186,88.369567,"48, Shyam Bazar St, Hati Bagan, Shyam Bazar, Kolkata, West Bengal 700004",CCU-N,l3URSt0,22.600186,88.369567,0,,0.574005608,0.121567367,4
Ultadanga 13 & 14 Pally Durga Puja Committee,22.594518,88.383834,"24A,Ultadaga Main Road, Kolkata -700067",CCU-N,TeyG4mw,22.594518,88.383834,0,,0.490315982,0.516872507,4
Motijheel Sarbojanin Durgotsab Committee,22.624726,88.40792,"291, Motijheel, Lakshminagar, South Dum Dum, Kolkata-700074",CCU-N,C1FFMG7,22.624726,88.40792,0,,0.936345661,1.184239129,2
Sammilita Lalabagan Sarbojanin,22.587382,88.376873,"88, Raja Dinendra St, Manicktala, Sahitya Parishad, Kolkata, West Bengal 700006",CCU-N,G4u3Qc8,22.587382,88.376873,0,,0.38495092,0.323999507,4
Dum Dum Park Sarbojanin Durga Puja Committee,22.609514,88.4164,"225/1, Dum Dum Park, South Dum Dum, Kolkata, West Bengal 700055",CCU-N,AFigBUB,22.609514,88.4164,0,,0.711736171,1.419200059,2
Dum Dum Tarun Dal,22.611732,88.418739,"Bangur, South Dumdum - 700101, WB, India",CCU-N,5v1DGIg,22.611732,88.418739,0,,0.744485569,1.484008268,2
Gouriberia,22.594547,88.379227,"Gouribari Sarbojanin, Ward 12, Kolkata - 700004, WB, India",CCU-N,VCA1ZiG,22.594547,88.379227,0,,0.490744175,0.389223332,4
Tala Barowari,22.607212,88.376022,"M.G.M. Rubber Company, 86/1, Barrackpore Trunk Road, Cossipore, Kolkata - 700002, WB, India",CCU-N,0IpjsiP,22.607212,88.376022,0,,0.677746488,0.300420291,4
Pathuriaghata Pancher Pally,22.588566,88.358368,"Rabindra Sarani, Ward 26, Kolkata -, WB, India",CCU-N,AwVmbcR,22.588566,88.358368,0,,0.402433015,-0.188730682,4
Ultadanga Yuba Brinda,22.595825,88.381683,"5N, Ultadanga Main Rd, Ultadanga, Kolkata - 700067, WB, India",CCU-N,UvvIVhn,22.595825,88.381683,0,,0.509614207,0.457273337,4
Laketown Natun Pally Pradeep Sangha,22.60372,88.397507,"Pagaria Computers, 756, Lake Town Road, Lake Town, South Dumdum - 700089, WB, India",CCU-N,uzI2hMZ,22.60372,88.397507,0,,0.626186119,0.895719298,2
Kumartuli Preparation,22.599609,88.362396,"Bana Mali Sarkar Street, Kashi Mitra, Kolkata - 700003, WB, India",CCU-N,LcxVbGX,22.599609,88.362396,0,,0.565486039,-0.07712424,4
Belgachia Sadharan Durgatsab,22.609217,88.383423,"Uttarpalli Playground, Nitya Gopal Chatterjee Lane, Paikpara, Kolkata - 700037, WB, India",CCU-N,MwxJwOc,22.609217,88.383423,0,,0.707350881,0.50548466,4
Kumartuli Sarbojanin,22.600859,88.363274,"Gopeswar St, Bag Bazar, Kolkata - 700003, WB, India",CCU-N,TirK5Bl,22.600859,88.363274,0,,0.583942643,-0.052796918,4
Satadal,22.595271,88.367844,"Shyam Bazar, Kolkata - 700003, WB, India",CCU-N,mOujmnH,22.595271,88.367844,0,,0.50143424,0.073827074,4
Beadon Street Sarbojanin,22.58916,88.368284,"Shobha Bazar East, Kolkata - 700003, WB, India",CCU-N,HnvT6oS,22.58916,88.368284,0,,0.411203594,0.086018443,4
Haritaki Bagan,22.586396,88.372092,"Sealdah North, Kolkata - 700006, WB, India",CCU-N,HrrFbdl,22.586396,88.372092,0,,0.37039235,0.1915292,4
Sovabazar Sarbojanin,22.597193,88.361084,"Sobha Bazar Street, Kashi Mitra, Kolkata - 700003, WB, India",CCU-N,l0yBXWU,22.597193,88.361084,0,,0.529813115,-0.113476686,4
Hatkhola Gosain Para,22.598639,88.360097,"Kashi Mitra, Kolkata - 700003, WB, India",CCU-N,hydJyxC,22.598639,88.360097,0,,0.551163714,-0.140824143,4
Laketown Vivekananda Park,22.610109,88.402476,"Lake town, South Dumdum - 700089, WB, India",CCU-N,2BIwe7M,22.610109,88.402476,0,,0.720521514,1.033398645,2
Jawpur Bayam Samity,22.612486,88.40179,"Udyan, South Dumdum - 700048, WB, India",CCU-N,dSJXGJZ,22.612486,88.40179,0,,0.755618593,1.014391192,2
Pragati Pally Adhibasi Brindra,22.609594,88.400663,"Kalindi, South Dumdum - 700048, WB, India",CCU-N,567sbTD,22.609594,88.400663,0,,0.712917393,0.983164663,2
Kabiraj Bagan,22.593855,88.382725,"Ultadanga, Kolkata - 700067, WB, India",CCU-N,XZoEKX7,22.593855,88.382725,0,,0.480526599,0.486144715,4
Ultadanga Bidhan Sangha,22.592874,88.383229,"Ultadanga, Kolkata - 700067, WB, India",CCU-N,zrGXeEB,22.592874,88.383229,0,,0.466041856,0.500109374,4
Shyambazar Nabin Sangha,22.598718,88.375332,"Shyambazar Nabin Sangha, Jadu Mitra Lane, Shyam Bazar, Kolkata - 700004, WB, India",CCU-N,yOsitnQ,22.598718,88.375332,0,,0.552330172,0.281302008,4
Dum Dum Mall Palli,22.628401,88.421617,"Parul Nibas, 38/1, Mall Road, Nagerbazar, South Dumdum - 700080, WB, India",CCU-N,x09PJzp,22.628401,88.421617,0,,0.990608077,1.563750904,2
Sikdarbagan,22.596539,88.372843,"Sikdar Bagan St, Ward 11, Kolkata - 700037, WB, India",CCU-N,BY0fR0m,22.596539,88.372843,0,,0.520156619,0.21233765,4
Nabadiaganta,22.614863,88.402755,"Lake Town, South Dumdum - 700005, WB, India",CCU-N,bWmR8Tb,22.614863,88.402755,0,,0.790715671,1.041129081,2
Krishnabagan Nabajiban Sangha,22.586118,88.37397,"Simla, Kolkata - 700006, WB, India",CCU-N,61DNRoy,22.586118,88.37397,0,,0.366287602,0.24356418,4
Halasibagan,22.589843,88.377843,"Nirode Behari Mullick Road, Simla, Kolkata - 700006, WB, India",CCU-N,S5RyRJr,22.589843,88.377843,0,,0.421288282,0.350875935,4
Amra Sabai - Ramdulal Sarkar Street,22.588011,88.366857,"Ramdulal Sarkar Street, Girish Park, Kolkata - 700003, WB, India",CCU-N,6m5uidx,22.588011,88.366857,0,,0.394238283,0.046479617,4
Anupama Housing Complex,22.629539,88.432876,"Rajarhat Gopalpur, Bidhannagar - 700052, WB, India",CCU-N,8V9fpU9,22.629539,88.432876,0,,1.007410969,1.875711412,2
Arjunpur Amra Sabai Club,22.62433,88.42446,"Radha Krishna Sweets, NB - 116, E Mall Rd, Bidhannagar - 700080, WB, India",CCU-N,yeb5nbr,22.62433,88.42446,0,,0.930498608,1.642523773,2
Kestopur Prafullakanan Adhibasibrinda,22.60821,88.420992,"Baguiati, Bidhannagar - 700101, WB, India",CCU-N,XJlLG4f,22.60821,88.420992,0,,0.692482241,1.546433619,2
Dum Dum Park Tarun Sangha Sarbojanin Durgotsav,22.610723,88.413628,"Tank No. 3, Dum Dum Park Road, South Dum Dum, Kolkata- 700055, West Bengal",CCU-N,kZdpd7y,22.610723,88.413628,0,,0.729587398,1.342394434,2
Dum Dum Park Bharat Chakra Sarbojanin Durgotsav,22.610662,88.41433,"Tank No. 2, Dum Dum Park Road, South Dum Dum, Kolkata- 700055, West Bengal",CCU-N,BvNdRoZ,22.610662,88.41433,0,,0.728686716,1.361845209,2
Bangur Avenue Protirodh Bahini Sarbojanin Durgotsav,22.6069,88.409246,"P- 48, Bangur Avenue, Block- C, Bangur, Kolkata- 700055, West Bengal",CCU-N,r1lAyKQ,22.6069,88.409246,0,,0.67313972,1.220979482,2
Master Da Smriti Sangha Sarbojanin Durgotsav,22.6048138,88.4235729,"Prafulla Kanan (West), Kestopur, Kolkata- 700101, West Bengal",CCU-N,GYTcuM5,22.6048138,88.4235729,0,,0.642336386,1.61794431,2
20 Palli Sarbojanin Durgotsav,22.5936339,88.3581339,"35-139, Brindaban Basak Street, Ahiritola, Beniatola, Kolkata- 700005, West Bengal",CCU-N,QTTmZmF,22.5936339,88.3581339,0,,0.477261995,-0.195217045,4
BK Paul Park Sarbojanin Durgotsav,22.5958882,88.3596035,"19, BK Paul Avenue, Kolkata- 700005, West Bengal",CCU-N,QbUzdBr,22.5958882,88.3596035,0,,0.510547373,-0.154497872,4
Bangur Avenue C Block Sarbojanin Durgotsav,22.603711,88.4104167,"117/1, Block- C, Bangur Avenue, Kolkata- 700055, West Bengal",CCU-N,FgTwhBJ,22.603711,88.4104167,0,,0.626053231,1.253416836,2
Lake Town Adhibasi Brindo Sarbojanin Durgotsav,22.6044508,88.4039701,"Children's Park, Lake Town Road, Block- A, Lake Town, South Dumdum, Kolkata- 700089, West Bengal",CCU-N,tN7LBcd,22.6044508,88.4039701,0,,0.636976588,1.074796655,2
Joramandir,22.613289,88.429512,"Baguiati, Bidhannagar - 700059, WB, India",CCU-N,RI967mT,22.613289,88.429512,0,,0.767475115,1.782502855,2
Tala Palli,22.608385,88.374886,"M.G.M. Rubber Company, 86/1, Barrackpore Trunk Road, Cossipore, Kolkata - 700002, WB, India",CCU-N,GrEEOsJ,22.608385,88.374886,0,,0.695066166,0.268944393,4
Sovabazar Rajbari,22.596798,88.367233,"Shobhabazar Rajbari Nathmandir, Raja Nabakrishna Street, Shyam Bazar, Kolkata - 700003, WB, India",CCU-N,Btp5uOq,22.596798,88.367233,0,,0.523980828,0.056897696,4
Milangarh Sarbojanin,22.651651,88.374054,"Baranagar - 700108, WB, India",CCU-N,fOYjSIL,22.651651,88.374054,0,,1.333900915,0.245891623,0
Motijheel Sarbojanin,22.62336,88.410759,"Motijheel College Playground, Dum Dum - 700048, WB, India",CCU-N,VXAvQ0s,22.62336,88.410759,0,,0.916176284,1.262901166,2
Baghbazar Jagodharti,22.603493,88.371101,"Pasupati Bose Ln, Chitpur North, Kolkata - 700004, WB, India",CCU-N,Y2Vme96,22.603493,88.371101,0,,0.6228344,0.164070912,4
Naba Baghbazar,22.605097,88.370171,"Nandalal Bose Ln, Chitpur North, Kolkata - 700004, WB, India",CCU-N,pUTCtb6,22.605097,88.370171,0,,0.646517914,0.138302791,4
Kumartuli Park,22.598995,88.361366,"Kumartuli Park, Abhay Mitra Street, Kashi Mitra, Kolkata - 700003, WB, India",CCU-N,1tW6ncb,22.598995,88.361366,0,,0.556420155,-0.105663127,4
Salt Lake AG Block,22.598421,88.42329,"Arobit Academy, 32, 5th Cross Road, Sector II, Kolkata - 700091, WB, India",CCU-N,Rf0zK4Q,22.598421,88.42329,0,,0.547944883,1.610105814,2
Shurir Bagan,22.594558,88.387563,"Ultadanga, Kolkata - 700067, WB, India",CCU-N,9cs1o8a,22.594558,88.387563,0,,0.490906593,0.620194359,4
Ultadanga United Club,22.59126,88.391265,"United Club, 103, Ultadanga Main Rd, Ultadanga, Kolkata - 700067, WB, India",CCU-N,IhOdmZW,22.59126,88.391265,0,,0.442210689,0.722768104,4
Ahiritola Jubak Brinda,22.5944,88.358788,"Nimu Gossain Lane, Shobha Bazar, Kolkata - 700003, WB, India",CCU-N,tOnXJOY,22.5944,88.358788,0,,0.488573678,-0.177093466,4
CIT Sarbojanin,22.633426,88.377465,"Baranagar Police Station, 47, Barrackpore Trunk Road, Baranagar - 700090, WB, India",CCU-N,ng1tmeW,22.633426,88.377465,0,,1.064803626,0.34040244,4
3 No Mahajati Nagar Durga Puja,22.6858044,88.3807243,"Sodepur, Kamarhati - 700109, WB, India",CCU-N,PmDUPZM,22.6858044,88.3807243,0,,1.838185542,0.430710006,0
Kalitala Village Defence Party Kamarhati,22.6814026,88.3680052,"Mallick Bari, 5, Thakur Das Chatterjee Road, Kolkata - 700058, WB, India",CCU-N,ABRuOCS,22.6814026,88.3680052,0,,1.773191718,0.078293548,0
Agarpara Kalyan Samity Club,22.6840908,88.3831329,"Kamarhati - 700109, WB, India",CCU-N,kYQsiRe,22.6840908,88.3831329,0,,1.812883753,0.497446668,0
Tarapukur Paschimpally Puja Mandop (Govt.Regd.),22.6876068,88.3855353,"Sodepur, Kamarhati - 700109, WB, India",CCU-N,MtKfkjx,22.6876068,88.3855353,0,,1.864798489,0.564011543,0
Agarpara Youth Recreation Centre Durgotsab,22.684524,88.3726735,"Sodepur, Kamarhati - 700058, WB, India",CCU-N,3NWaanM,22.684524,88.3726735,0,,1.819280074,0.207641203,0
Pirtala Sports & Cultural Centre,22.6833084,88.3893318,"Kamarhati - 700109, WB, India",CCU-N,IPOHqdw,22.6833084,88.3893318,0,,1.801331395,0.669203662,0
Adi Debensen Road Sarbojonin Durgotsav Committee,22.6849435,88.3863676,"Sodepur, Kamarhati - 700109, WB, India",CCU-N,7TiK4Iz,22.6849435,88.3863676,0,,1.82547411,0.587072626,0
Adi Tarapukur Durgotsav Samity,22.6859462,88.3867961,"Sodepur, Kamarhati - 700109, WB, India",CCU-N,HCQNOZi,22.6859462,88.3867961,0,,1.84027926,0.598945357,0
Ushumpur Uttarpally Sporting Club,22.685506,88.3978575,"Panihati - 700109, WB, India",CCU-N,95bWM6w,22.685506,88.3978575,0,,1.833779582,0.905430832,0
Young Men's Association Agarpara,22.6857218,88.3737802,"Sodepur, Kamarhati - 700058, WB, India",CCU-N,MXnYacd,22.6857218,88.3737802,0,,1.83696593,0.238305266,0
Shaktipur Sabuj Shikha Club,22.6884561,88.391659,"Sodepur, Panihati - 700109, WB, India",CCU-N,muNMUCQ,22.6884561,88.391659,0,,1.877338644,0.733684921,0
Shaktipur Yuba Sangha Club,22.6899544,88.3919485,"Sodepur, Panihati - 700109, WB, India",CCU-N,E5FqtCX,22.6899544,88.3919485,0,,1.899461468,0.741706288,0
Mahajati Club,22.6844087,88.3787897,"Kamarhati - 700109, WB, India",CCU-N,5bpkZHP,22.6844087,88.3787897,0,,1.817577636,0.377106773,0
Sahid Colony Sarbojanin Durga Pujo,22.6950308,88.3764505,"Sodepur, Kamarhati - 700114, WB, India",CCU-N,BLgJo5o,22.6950308,88.3764505,0,,1.974415953,0.312293022,0
Seth Colony SarbojaninDurgotsab Committee,22.696587,88.378067,"Sodepur, Kamarhati - 700114, WB, India",CCU-N,7y2sMR5,22.696587,88.378067,0,,1.997393687,0.35708245,0
Sodepur Waterside Apartment Durga Puja,22.6944505,88.3795303,"Sodepur, Kamarhati - 700114, WB, India",CCU-N,ad1BKr3,22.6944505,88.3795303,0,,1.965847659,0.397627064,0
Sanghasree Club Panihati,22.700609,88.3745841,"The Sayans Blog, Peerless Nagar, Barrackpore Trunk Road, Sodepur, Kolkata - 700114, WB, India",CCU-N,aqchxPF,22.700609,88.3745841,0,,2.056779656,0.260579452,0
Udayan Sangha Club,22.6970744,88.3979748,"Panihati - 700111, WB, India",CCU-N,8ZmKs9r,22.6970744,88.3979748,0,,2.004590286,0.90868094,0
Peerless Nagar Durga Puja,22.701004,88.3734802,"The Sayans Blog, Peerless Nagar, Barrackpore Trunk Road, Sodepur, Kolkata - 700114, WB, India",CCU-N,CHmlkpZ,22.701004,88.3734802,0,,2.062611943,0.229992969,0
Sodepur Naboday Sangha,22.7038544,88.3776032,"The Sayans Blog, Peerless Nagar, Barrackpore Trunk Road, Sodepur, Kolkata - 700114, WB, India",CCU-N,4geORIb,22.7038544,88.3776032,0,,2.104698907,0.344231638,0
Sodepur Deep Prangan,22.7014112,88.3795206,"Sodepur, Khardaha - 700110, WB, India",CCU-N,zwnGnT3,22.7014112,88.3795206,0,,2.068624366,0.3973583,0
Sodepur 4 No.Deshbandu Nagar Durga Puja,22.6995034,88.376809,"Sodepur, Khardaha - 700114, WB, India",CCU-N,dbqVcfw,22.6995034,88.376809,0,,2.040455159,0.322226217,0
Purba Panihati Sarbojanin Durgotsab,22.6941334,88.3753482,"Sodepur, Kamarhati - 700114, WB, India",CCU-N,aCeO8h6,22.6941334,88.3753482,0,,1.961165587,0.281750872,0
Swasti Nagar Durgapuja Club,22.6931093,88.3787592,"Sodepur, Kamarhati - 700114, WB, India",CCU-N,c3HYfJa,22.6931093,88.3787592,0,,1.946044461,0.37626169,0
Sodepur Sanmilani Club,22.6986298,88.3759221,"Rabindranath Tagore Road, Sodepur, Khardaha - 700114, WB, India",CCU-N,js9EOUX,22.6986298,88.3759221,0,,2.027556207,0.297652297,0
Bijoypur Town Club,22.6941069,88.3922172,"Sodepur, Panihati - 700111, WB, India",CCU-N,y3fCGSn,22.6941069,88.3922172,0,,1.960774307,0.749151335,0
Sodepur Club,22.701075,88.386784,"Debnath Bari, 2/9, Jay Gopal Das Road, Sodepur, Khardaha - 700110, WB, India",CCU-N,o1XBeFm,22.701075,88.386784,0,,2.063660278,0.598610094,0
Railway Park Recreation Club,22.704487,88.37866,"Sodepur, Khardaha - 700110, WB, India",CCU-N,QbaHQnl,22.704487,88.37866,0,,2.114039425,0.37351309,0
Gandhinagar bidhanmilon somiti puja prangon,22.6886535,88.3832769,"Sodepur, Kamarhati - 700109, WB, India",CCU-N,X6hUU49,22.6886535,88.3832769,0,,1.880253311,0.501436571,0
Sodepur Central Park,22.6999021,88.3797932,"Sodepur, Khardaha - 700110, WB, India",CCU-N,aTF6xsB,22.6999021,88.3797932,0,,2.046342077,0.404911407,0
Ramnagar Durgotsav,22.7079914,88.3831551,"Sodepur, Khardaha - 700110, WB, India",CCU-N,eerEQyK,22.7079914,88.3831551,0,,2.165782884,0.498061778,0
Purbapally Unnayan Samity,22.6999703,88.3895891,"Sodepur, Khardaha - 700110, WB, India",CCU-N,0ixjR9L,22.6999703,88.3895891,0,,2.04734907,0.676332842,0
Amarabati Kalyan Samiti,22.6986888,88.3884876,"Sodepur, Khardaha - 700110, WB, India",CCU-N,sQGKx6W,22.6986888,88.3884876,0,,2.028427359,0.645812858,0
Saraswat Sangha Durgotsav,22.7037186,88.3835761,"Sodepur, Khardaha - 700110, WB, India",CCU-N,jDeIYGU,22.7037186,88.3835761,0,,2.102693781,0.509726702,0
Dakshin Pally Sarbojonin,22.6978082,88.3861413,"Sodepur, Khardaha - 700110, WB, India",CCU-N,TcwBoQF,22.6978082,88.3861413,0,,2.015425051,0.580802383,0
Mukherjee Para Durga Puja,22.6981712,88.3708601,"Sodepur, Kamarhati - 700114, WB, India",CCU-N,OoJnoUD,22.6981712,88.3708601,0,,2.020784848,0.157396138,0
Panihati Ankur Club Durga Puja,22.6994778,88.370485,"Ankurclub Playground, Sodepur, Kamarhati - 700114, WB, India",CCU-N,Ld7peND,22.6994778,88.370485,0,,2.040077168,0.147002996,0
Supari Bagan Sarbojonin Durgotsav,22.6998138,88.3720657,"Sodepur, Khardaha - 700114, WB, India",CCU-N,bf149au,22.6998138,88.3720657,0,,2.045038303,0.190800489,0
Gorbhobani Club Durga Puja,22.6975874,88.3659979,"Sodepur, Kamarhati - 700114, WB, India",CCU-N,rGj17IZ,22.6975874,88.3659979,0,,2.012164876,0.022675969,0
Subhash Chandra Sporting Club,22.7008294,88.3684049,"Sodepur, Khardaha - 700114, WB, India",CCU-N,nVsy8KR,22.7008294,88.3684049,0,,2.060033925,0.089368299,0
Sankat Mochan Shiv Mandir ,22.7013964,88.3682255,"Sodepur, Khardaha - 700114, WB, India",CCU-N,3k5iRqc,22.7013964,88.3682255,0,,2.06840584,0.084397545,0
Bandhab Pathagar,22.7019734,88.3680975,"Sodepur, Khardaha - 700114, WB, India",CCU-N,il4YH0b,22.7019734,88.3680975,0,,2.076925409,0.080850965,0
Barun Sporting Club,22.6931176,88.3699894,"Sodepur, Kamarhati - 700058, WB, India",CCU-N,huMvu40,22.6931176,88.3699894,0,,1.946167013,0.133271081,0
Panihati Club (Panihati Sadharan),22.6954057,88.368823,"Sodepur, Kamarhati - 700114, WB, India",CCU-N,436YcOg,22.6954057,88.368823,0,,1.979951457,0.10095287,0
SWAMI VIVEKANANDA STATUE,22.6917381,88.3688039,"Sodepur, Kamarhati - 700114, WB, India",CCU-N,d5uqrfI,22.6917381,88.3688039,0,,1.925798304,0.100423654,0
MADHYA PANIHATI DURGA PUJA MANDAP,22.696616,88.3716,"Sodepur, Kamarhati - 700114, WB, India",CCU-N,fm2F4Af,22.696616,88.3716,0,,1.99782188,0.177897033,0
Raghava Bhawan,22.6973647,88.3676544,"Sodepur, Kamarhati - 700114, WB, India",CCU-N,68ezYVk,22.6973647,88.3676544,0,,2.008876647,0.068573702,0
Panihati Vivekananda Social Welfare Organisation,22.6959189,88.3747884,"Barrackpore Trunk Road, Sodepur, Kamarhati - 700116, WB, India",CCU-N,lONFLtd,22.6959189,88.3747884,0,,1.987529001,0.266240126,0
Pragati Yuva Samaj Club,22.7036756,88.3686295,"Sodepur, Khardaha - 700115, WB, India",CCU-N,m5V4pcu,22.7036756,88.3686295,0,,2.102058874,0.095591438,0
New Subhash Sporting Club,22.6902205,88.377564,"Sodepur, Kamarhati - 700114, WB, India",CCU-N,RIutcXJ,22.6902205,88.377564,0,,1.90339051,0.343145498,0
Nabarun Club Panihati,22.7026181,88.3714267,"Sodepur, Khardaha - 700114, WB, India",CCU-N,PMShWCy,22.7026181,88.3714267,0,,2.086444587,0.173095296,0
Dakshin Panihati Sarbojonin,22.6881151,88.3774661,"Sodepur, Kamarhati - 700114, WB, India",CCU-N,MSn6jVr,22.6881151,88.3774661,0,,1.872303683,0.340432919,0
Udyan Sangha,22.6948649,88.36653,"Sodepur, Kamarhati - 700114, WB, India",CCU-N,mJLqRlZ,22.6948649,88.36653,0,,1.971966392,0.037419213,0
Club Road Bylane Durga Puja Committee,22.7037187,88.3718286,"Sodepur, Khardaha - 700114, WB, India",CCU-N,tdy0Rc8,22.7037187,88.3718286,0,,2.102695258,0.184231003,0
Bazar Para Sarbojanin Durgapuja,22.7079714,88.3657954,"Sodepur, Khardaha - 700115, WB, India",CCU-N,urLCDGY,22.7079714,88.3657954,0,,2.165487578,0.017065168,0
Sukchar Sarbbajanin (Durga Dalan Ghoshpara),22.7052375,88.369063,"Sodepur, Khardaha - 700115, WB, India",CCU-N,UYTGfxk,22.7052375,88.369063,0,,2.12512077,0.107602708,0
Sukchar Kali Tala,22.7095774,88.366792,"Sodepur, Khardaha - 700115, WB, India",CCU-N,2sSIwLG,22.7095774,88.366792,0,,2.189200623,0.044678619,0
Das Bari DurgaPuja,22.7040215,88.3723976,"Sodepur, Khardaha - 700114, WB, India",CCU-N,faMAXDw,22.7040215,88.3723976,0,,2.107166186,0.19999666,0
Raja Radha kanta Deb bahadur nagar unnoyon samiti,22.7067698,88.3660134,"Khardaha - 700115, WB, India",CCU-N,o6fXf5X,22.7067698,88.3660134,0,,2.147745614,0.023105437,0
2 no. Subhasnagar Durgotsav,22.7051266,88.373403,"The Sayans Blog, Peerless Nagar, Barrackpore Trunk Road, Sodepur, Kolkata - 700114, WB, India",CCU-N,JwMser8,22.7051266,88.373403,0,,2.1234833,0.227853938,0
Balak Sangha,22.7046903,88.3721592,"Sodepur, Khardaha - 700114, WB, India",CCU-N,pdqVRpW,22.7046903,88.3721592,0,,2.117041207,0.193391155,0
Sukchar Girja Nagarik Brinda,22.7099298,88.3737488,"Sodepur, Khardaha - 700115, WB, India",CCU-N,onHOkOT,22.7099298,88.3737488,0,,2.194403909,0.237435246,0
Nabajagaran Club,22.7042497,88.373023,"Sodepur, Khardaha - 700114, WB, India",CCU-N,nM9BssX,22.7042497,88.373023,0,,2.110535623,0.217325029,0
Sahabagan Unnayan Samiti Durga Puja,22.70675,88.37127778,"Sodepur, Khardaha - 700115, WB, India",CCU-N,LhukbFd,22.70675,88.37127778,0,,2.147453261,0.168969072,0
Godrej Prakriti Durga Puja,22.7082865,88.3793567,"Sodepur, Khardaha - 700115, WB, India",CCU-N,Ey0a6a8,22.7082865,88.3793567,0,,2.170140119,0.392817015,0
Merlin MaximusDurga Puja,22.7047679,88.3753351,"The Sayans Blog, Peerless Nagar, Barrackpore Trunk Road, Sodepur, Kolkata - 700114, WB, India",CCU-N,tsOt5vI,22.7047679,88.3753351,0,,2.118186993,0.281387902,0
Natagarh charak talla & Durgapuja puja mondap,22.7047374,88.4001683,"Panihati - 700111, WB, India",CCU-N,3maay63,22.7047374,88.4001683,0,,2.117736652,0.969457685,0
Panchantala Durgotsav,22.7079961,88.3909083,"Sodepur, Khardaha - 700112, WB, India",CCU-N,bwI8hEM,22.7079961,88.3909083,0,,2.165852281,0.712884783,0
Mahendranagar Unnayan samity,22.7128521,88.400403,"Panihati - 700112, WB, India",CCU-N,7rEs1Xb,22.7128521,88.400403,0,,2.237552497,0.975960672,0
Panshila Anandapally Janakalyan Samity,22.7141429,88.3899158,"26, R N Avenue, Khardaha - 700117, WB, India",CCU-N,MAIW6q5,22.7141429,88.3899158,0,,2.256611524,0.685384934,0
Gouranga Nagar Adhibasi Brinda,22.7004607,88.4068144,"Panihati - 700111, WB, India",CCU-N,RFiU9o0,22.7004607,88.4068144,0,,2.054589965,1.153605543,0
Trishakti Sangha Club,22.7028028,88.3943811,"Sodepur, Panihati - 700110, WB, India",CCU-N,pLbbZO4,22.7028028,88.3943811,0,,2.089171735,0.809107934,0
Ghola AGRADUT CLUB,22.6957052,88.3965437,"Sodepur Road, Sodepur, Panihati - 700111, WB, India",CCU-N,RXMxAd7,22.6957052,88.3965437,0,,1.98437366,0.869028512,0
Pansila Sarbojonin,22.7126148,88.3842798,"26, R N Avenue, Khardaha - 700117, WB, India",CCU-N,x0wl4N2,22.7126148,88.3842798,0,,2.234048695,0.52922458,0
Kalyan Nagar Sarbojonin,22.718834,88.3914699,"Maa Durga Aabasan, 128, R N Avenue, Sodepur, Barrackpore - 700112, WB, India",CCU-N,Q9GVWEY,22.718834,88.3914699,0,,2.325876945,0.728445403,0
Subhasnagar Nabajagaran Durga Puja,22.69263889,88.40036111,"Panihati - 700111, WB, India",CCU-N,URzmFde,22.69263889,88.40036111,0,,1.939098724,0.974799999,0
Ghosh Para Kali Tala,22.712405,88.3937218,"Khardaha - 700112, WB, India",CCU-N,7wOBUcR,22.712405,88.3937218,0,,2.230950938,0.790840276,0
Priyanagar Swapan Smriti Sangha,22.7126224,88.3830556,"Khardaha - 700112, WB, India",CCU-N,dZbzkTz,22.7126224,88.3830556,0,,2.234160911,0.495304866,0
Ramkrishna Park Durga Puja Mandap,22.6961337,88.3998634,"Panihati - 700111, WB, India",CCU-N,RKIjUdE,22.6961337,88.3998634,0,,1.990700584,0.961009621,0
Ghola C Block Adi Sarobojonin,22.6967172,88.4038785,"Panihati - 700111, WB, India",CCU-N,wZBLavA,22.6967172,88.4038785,0,,1.999316126,1.072258634,0
Tirthabharati Sarbojanin Durgoutsav,22.6937099,88.3990474,"Panihati - 700111, WB, India",CCU-N,xFVJgRp,22.6937099,88.3990474,0,,1.95491249,0.938400173,0
Nabarun Pally Unnayan Samiti Club,22.7025011,88.391173,"Sodepur, Khardaha - 700110, WB, India",CCU-N,QmfPXTh,22.7025011,88.391173,0,,2.084717049,0.720219,0
Yuvak Brinda Club,22.6897627,88.4047512,"Panihati - 700111, WB, India",CCU-N,JGwsdBI,22.6897627,88.4047512,0,,1.896630963,1.096439106,0
Pansila Thakurbari,22.7159418,88.3893814,"Khardaha - 700112, WB, India",CCU-N,fqzsGUe,22.7159418,88.3893814,0,,2.283172792,0.670577962,0
Chata Pora Banerjee Bari,22.6870535,88.3701678,"Sodepur, Kamarhati - 700058, WB, India",CCU-N,EbxxUrQ,22.6870535,88.3701678,0,,1.856628858,0.138214127,0
Puratan Bati Puja,22.6962043,88.3674855,"Sodepur, Kamarhati - 700114, WB, India",CCU-N,sIdrkPM,22.6962043,88.3674855,0,,1.991743013,0.063893879,0
Sen Barir Puja (Tarapukur),22.68847222,88.38675,"Sodepur, Kamarhati - 700109, WB, India",CCU-N,w1k2aB1,22.68847222,88.38675,0,,1.877576661,0.597668034,0
Bose Barir Puja (Panihati),22.69322222,88.37097222,"Sodepur, Kamarhati - 700114, WB, India",CCU-N,vgZptuF,22.69322222,88.37097222,0,,1.947711756,0.16050272,0
Ariadaha Jubak Sangha,22.6714013,88.3634263,"Baranagar - 700057, WB, India",CCU-N,ueyg8Vo,22.6714013,88.3634263,0,,1.62551969,-0.048577042,0
MANASBAG SARBOJONIN DURGOTSAV,22.6663891,88.3783907,"Baranagar - 700056, WB, India",CCU-N,zAmieRA,22.6663891,88.3783907,0,,1.551513137,0.366051418,0
Bani Mandir Durga Puja,22.6658251,88.3807199,"Bani Mandir Park, Baranagar - 700058, WB, India",CCU-N,Y1dvQT1,22.6658251,88.3807199,0,,1.543185517,0.430588092,0
Nawpara Dada Bhai Sangha,22.6416696,88.3886567,"Baranagar - 700090, WB, India",CCU-N,aK4oQnK,22.6416696,88.3886567,0,,1.186522715,0.650498223,0
Netaji Colony Lowland Durgotsov Committee,22.6349679,88.3832241,"16, A K Mukherjee Road, Baranagar - 700090, WB, India",CCU-N,DUnIHvP,22.6349679,88.3832241,0,,1.087570216,0.499973607,4
Sovabazar Rajbari,22.596295,88.367387,"Raja Nabakrishna Street, Ward 10, Kolkata - 700037, WB, India",CCU-N,l0aYGxV,22.596295,88.367387,0,,0.51655389,0.061164675,4
Sovabazar Nat Mondir,22.596856,88.366417,"Shyam Bazar, Kolkata - 700003, WB, India",CCU-N,hQcGiJ4,22.596856,88.366417,0,,0.524837214,0.034288248,4
"Jorasanko Shib Krishna Daw Bari (Home of Shib Krishna Daw of Jorasanko,Kolkata)",22.585757,88.359652,"Sri Krishna Daw Ln, Machua Bazar North, Kolkata - 700007, WB, India",CCU-N,1abjxTZ,22.585757,88.359652,0,,0.360957334,-0.153154051,4
Daw Bari Bandookwala,22.586186,88.359479,"Sri Krishna Daw Ln, Machua Bazar North, Kolkata - 700007, WB, India",CCU-N,27J7D5f,22.586186,88.359479,0,,0.367291641,-0.157947475,4
Khelat Bhavan,22.588769,88.356539,"Pathuria Ghat Street, Ward 24, Kolkata - 700069, WB, India",CCU-N,UiZhTof,22.588769,88.356539,0,,0.405430368,-0.239407986,4
Baisnabdas Mallick Bari,22.587439,88.354258,"Darpanarayan Tagore St, Jagganath Ghat, Kolkata - 700007, WB, India",CCU-N,iMW8N4s,22.587439,88.354258,0,,0.385792541,-0.302609152,4
"Ramdulal Nibas Thakurbari, Chhatubabu Latubabu's",22.590216,88.364441,"Shobha Bazar East, Kolkata - 700003, WB, India",CCU-N,RW1VZUg,22.590216,88.364441,0,,0.426795733,-0.020462082,4
Durga Charan Mitra Thakur Dalan,22.592106,88.365225,"Beadan Row, Shobha Bazar East, Kolkata - 700003, WB, India",CCU-N,vtPWQZz,22.592106,88.365225,0,,0.454702118,0.001260721,4
Sukhtara: Sardar bari Puja,22.595525,88.37273,"Nalani Sarkar Street, Ward 11, Kolkata - 700037, WB, India",CCU-N,njhLLrj,22.595525,88.37273,0,,0.505184622,0.209206685,4
Rani Rashmoni Bhawan,22.562467,88.355352,"Hospital Street, New Market, Kolkata - 700013, WB, India",CCU-N,y9lr0Is,22.562467,88.355352,0,,0.017073885,-0.272296975,4
Madan Mohan Dutta Bari,22.594507,88.354233,"Dutta Para Lane, Jorasanko North, Kolkata - 711101, WB, India",CCU-N,mnwUcA7,22.594507,88.354233,0,,0.490153564,-0.303301843,4
Dutta Family Hatkhola - Madan Mohan Dutta,22.593849,88.354017,"Madan Mohan Dutta Lane, Ward 20, Kolkata - 711107, WB, India",CCU-N,8nAeV3I,22.593849,88.354017,0,,0.480438007,-0.309286697,4
BAGHBAZAAR HALDARBARI DURGAPUJA,22.603509,88.36674,"Bag Bazar, Kolkata - 700004, WB, India",CCU-N,5euKryo,22.603509,88.36674,0,,0.623070644,0.043237821,4
Mahendra Srimani's house,22.582104,88.37298,"Mahendra Sreemani Street, City College, Kolkata - 700006, WB, India",CCU-N,fMNMfOm,22.582104,88.37298,0,,0.307019754,0.216133599,4
Harinath Mookherjee's House Durga Puja,22.577299,88.371252,"Keshab Sen Street, Baitakkhana North, Kolkata - 700009, WB, India",CCU-N,8kiOPut,22.577299,88.371252,0,,0.236072568,0.168254768,4
Nilmani Sen Bari Durga Puja,22.573346,88.368567,"Baitakkhana North, Kolkata - 700009, WB, India",CCU-N,vCkQsl8,22.573346,88.368567,0,,0.177705403,0.09385971,4
Shambhunath sen Bari,22.569775,88.36581,"Lady Dufferin Victoria Hospital, Kolkata, Ward 49, Kolkata - 700009, WB, India",CCU-N,soMbNe8,22.569775,88.36581,0,,0.124978576,0.0174697,4
radhanath Basumallick House,22.573166,88.364258,"Bow Bazar North, Kolkata - 700073, WB, India",CCU-N,cSq9YKQ,22.573166,88.364258,0,,0.175047652,-0.025532583,4
patuatola banerjee road,22.574523,88.365932,"H Majumdar St, Bow Bazar North, Kolkata - 700073, WB, India",CCU-N,JF2Px9H,22.574523,88.365932,0,,0.195084141,0.020850034,4
Chorbagan Mitra Bari,22.582407,88.362429,"Muktaram Babu Street, Machua Bazar, Kolkata - 700007, WB, India",CCU-N,EIfW4Te,22.582407,88.362429,0,,0.311493635,-0.076209888,4
Laha bari,22.58263,88.362273,"Ramanath Sadhu Ln, Machua Bazar North, Kolkata - 700007, WB, India",CCU-N,hka7KT9,22.58263,88.362273,0,,0.314786293,-0.080532282,4
chorbagan chatterjee house,22.582254,88.362941,"Muktaram Babu Ln, Machua Bazar, Kolkata - 700007, WB, India",CCU-N,VmfYSRl,22.582254,88.362941,0,,0.309234547,-0.062023567,4
Thanthania Kali Bari,22.580998,88.365748,"Aurobindo Netralaya, Ward 39, Kolkata - 700007, WB, India",CCU-N,AwnoxKO,22.580998,88.365748,0,,0.290689351,0.015751825,4
Raja Krishna Das Laha,22.580138,88.365602,"Aurobindo Netralaya, Ward 39, Kolkata - 700007, WB, India",CCU-N,s06kpxR,22.580138,88.365602,0,,0.277991207,0.011706507,4
Parvati Charan Laha,22.580886,88.365851,"Aurobindo Netralaya, Ward 39, Kolkata - 700007, WB, India",CCU-N,WJ0KDMq,22.580886,88.365851,0,,0.289035639,0.018605714,4
Subal Chand Chandra thakurbari,22.580331,88.367952,"Bechu Chatterjee St, City College, Kolkata - 700006, WB, India",CCU-N,zCLvu23,22.580331,88.367952,0,,0.280840907,0.076819501,4
Joygobinda Laha,22.582576,88.370638,"Rama Prasad Roy Ln, City College, Kolkata - 700006, WB, India",CCU-N,Ept4d0c,22.582576,88.370638,0,,0.313988968,0.151242267,4
chorbagan Seal Bagan,22.582938,88.359263,"Muktaram Babu Street, Machua Bazar, Kolkata - 700007, WB, India",CCU-N,55RWYr5,22.582938,88.359263,0,,0.319334001,-0.163932329,4
Motilal Seal bari,22.57594,88.358192,"Md Jan Higher Secondary School, 9B, Bolai Dutta Street, Ward 43, Kolkata - 700073, WB, India",CCU-N,KRklfA5,22.57594,88.358192,0,,0.216006548,-0.19360723,4
Badan Chandra roy Bari,22.575254,88.358339,"Colootola Street, Central Avenue 2, Kolkata - 700073, WB, India",CCU-N,yy3L0V4,22.575254,88.358339,0,,0.205877563,-0.189534204,4
Colootala Dhar Bari,22.573947,88.357806,"Dendra Mullick Ln, Central Avenue 2, Kolkata - 700073, WB, India",CCU-N,GGSPuTi,22.573947,88.357806,0,,0.186579338,-0.204302385,4
Kundu Bari,22.585701,88.362053,"Machua Bazar North, Kolkata - 700007, WB, India",CCU-N,PhaEMtr,22.585701,88.362053,0,,0.360130478,-0.086627967,4
Amritlal dawn debottar Estate,22.596382,88.361089,"Daw Ln, Ward 19, Kolkata - 700037, WB, India",CCU-N,CF4k6GT,22.596382,88.361089,0,,0.51783847,-0.113338148,4
Adhar laal Sen,22.596865,88.358915,"Golak Dutta Ln, Kashi Mitra, Kolkata - 700003, WB, India",CCU-N,3ZM41tg,22.596865,88.358915,0,,0.524970102,-0.173574594,4
Kabiraj Ganga Prasad Sen Bari,22.601627,88.360778,"Strand Bank Road, Kashi Mitra, Kolkata - 711101, WB, India",CCU-N,Srx5vSd,22.601627,88.360778,0,,0.595282381,-0.121955229,4
Motilal Durga Bari,22.56776,88.361742,"Bowbazar, Kolkata - 700013, WB, India",CCU-N,SYMEKdA,22.56776,88.361742,0,,0.09522653,-0.095245048,4
Dutta Bari,22.568145,88.360783,"Hidaram Banerjee Ln, Chandni Chowk East, Kolkata - 700013, WB, India",CCU-N,a76WIix,22.568145,88.360783,0,,0.100911164,-0.121816691,4
Nilmani deys Thakurbari,22.566697,88.362492,"Hidaram Banerjee Ln, Chandni Chowk East, Kolkata - 700013, WB, India",CCU-N,TaqpA3S,22.566697,88.362492,0,,0.079531034,-0.074464305,4
Akrur Dutta dalanbari,22.565216,88.359976,"Akrur Dutta Ln, Chandni Chowk, Kolkata - 700013, WB, India",CCU-N,Kz2NKJT,22.565216,88.359976,0,,0.057663649,-0.14417677,4
Ramgopal Saha House,22.564456,88.362558,"Akrur Dutta Ln, Chandni Chowk, Kolkata - 700013, WB, India",CCU-N,mQv4J5A,22.564456,88.362558,0,,0.046442034,-0.0726356,4
Garia Amra Kajan Club,22.463407,88.384064,"Fartabad More, Garia Station Road, Opp. Harimati Devi Girls High School, P.O. Garia, Kolkata-700084",CCU-S,gkEefwo,22.463407,88.384064,0,,-1.445575082,0.523245268,1
Sonarpur Sadharan Sammilani Club,22.429067,88.417069,"Aghore Sarani, Paschatya Para, Harinavi, Kolkata, West Bengal 700150",CCU-S,qB2r3Yv,22.429067,88.417069,0,,-1.952614912,1.437736481,1
Laskarpur Jagriti Sangha,22.452458,88.385628,"Ramkrishna Nagar Rd, Ramkrishna Nagar, Garia Gardens, Rabindra Nagar, Kolkata, West Bengal 700153",CCU-S,7qF9smt,22.452458,88.385628,0,,-1.607240169,0.566580043,1
Keyatala Pally Samity,22.514798,88.362216,"CIT Scheme 47, Hindustan Park, Kalighat, Kolkata, West Bengal 700029",CCU-S,xcbbbZi,22.514798,88.362216,0,,-0.686772406,-0.082111619,1
Alipore Sarbojanin Durgotsav Committee,22.518574,88.335492,"27/1 A, Alipore Road, Alipore, Kolkata, West Bengal 700027",CCU-S,Q3HZyfE,22.518574,88.335492,0,,-0.631018696,-0.82257104,3
Bhowanipore De Bari Durga Puja,22.535016,88.343559,"26/E, Chandra Nath Chatterjee Street, Bhowanipore, Kolkata ? 700025",CCU-S,sYPsu3y,22.535016,88.343559,0,,-0.388247907,-0.599053372,1
Hindustan Club,22.520159,88.360721,"37/B, Hindusthan Rd, Dover Terrace, Ballygunge, Kolkata, West Bengal 700019",CCU-S,5LbpFZo,22.520159,88.360721,0,,-0.607615722,-0.123534566,1
Dhalua Naboday Sangha,22.472903,88.407973,"Dhalua (west), at Shiv Durga Mandir, near Saha Panchil",CCU-S,hsP90JV,22.472903,88.407973,0,,-1.305363951,1.185707635,1
Putiary Sarbojanin Durgotsab Committee (Putiary Club),22.480004,88.343098,"1, Jadu Nath Ukil Rd, Banerjee Para, Paschim Putiary, Kolkata, West Bengal 700041",CCU-S,0HngByH,22.480004,88.343098,0,,-1.200515674,-0.611826602,1
Barisha Milani Sangha Durga Puja,22.477121,88.308909,"177, Narayan Roy Rd, Sakher Bazar, Paschim Barisha, Kolkata, West Bengal 700063",CCU-S,TT0fIXv,22.477121,88.308909,0,,-1.243083986,-1.559123681,3
Naktala Pally Mangal Samity,22.476804,88.367324,"Naktala, Garia, Kolkata, West Bengal 700047",CCU-S,hdgpP9A,22.476804,88.367324,0,,-1.247764581,0.059419092,1
Chetla Agrani Club,22.516266,88.336802,"14, Peary Mohan Roy Rd, Chetla, Kolkata, West Bengal 700027",CCU-S,ptHQmyi,22.516266,88.336802,0,,-0.66509697,-0.786274009,3
Garfa Kantapukur Sarbojanin Durgapuja,22.499306,88.384615,"67/A GARFA GOURANGA SARANI67/A GARFA GOURANGA SARANI, Kolkata-700078",CCU-S,OOuRebe,22.499306,88.384615,0,,-0.915516175,0.538512187,1
Santi Doot Sangha,22.48025,88.294954,"Satin Sen Pally, Sarsuna, Kolkata, West Bengal 700061",CCU-S,JEHWvcD,22.48025,88.294954,0,,-1.196883415,-1.945784032,3
Adi Lake Palli Club,22.514823,88.349521,"Adi Lake Palli Club,, Lake Place Road, Kalighat, Kolkata, West Bengal 700029",CCU-S,kVk9Tv6,22.514823,88.349521,0,,-0.686403274,-0.433860322,1
Nutan Probhati Sangha,22.517857,88.348088,"Prince Golam Md Rd, Manoharpukur, Kalighat, Kolkata, West Bengal 700029",CCU-S,YOzHfqi,22.517857,88.348088,0,,-0.641605404,-0.473565394,1
Mayurbhanj Durgotsab Samity,22.531475,88.326238,"57/2,D.H. Road, Kolkata-700023 (Near Calcutta Medical Research Institute)",CCU-S,zxUXEw8,22.531475,88.326238,0,,-0.440531776,-1.078977696,3
Eden City Durga Puja,22.493402,88.210956,"New Budge Budge Trunk Road, Parbangla, Sarengabad, Kolkata-700137",CCU-S,eye5PBG,22.493402,88.210956,0,,-1.002690408,-4.27317179,3
Palli Unnayan Samity (Basudevpur),22.478279,88.342126,"400/3, Banerjee Para Rd, Kudghat, Banerjee Para, Paschim Putiary, Kolkata, West Bengal 700041",CCU-S,9WhBB5A,22.478279,88.342126,0,,-1.225985788,-0.638758444,1
Acharya Prafulla Sangha,22.490906,88.313275,"P-7, Dr Akshay Kumar Paul Rd, Shimultala, Gopinagar, Behala, Kolkata, West Bengal 700034",CCU-S,mbqLjDl,22.490906,88.313275,0,,-1.039544555,-1.438152051,3
Monohar Pukur Sarbojonin Durgotsob Committee,22.519528,88.350601,"22,Bipin pal Road, Kolkata-26",CCU-S,KWeJ2BS,22.519528,88.350601,0,,-0.616932616,-0.403936053,1
Jubamaitry Durga Puja(Kalighat),22.522455,88.343871,"39, Mahim Halder St, Kalighat, Kolkata, West Bengal 700026",CCU-S,i26OQLK,22.522455,88.343871,0,,-0.573714631,-0.590408583,1
Barisha Sabeda Bagan Club,22.488243,88.316653,"25/A, Raja Rammohan Roy Rd, 18 Bigha, Muradpur, Barisha, Kolkata, West Bengal 700008",CCU-S,qPaevBx,22.488243,88.316653,0,,-1.078864505,-1.344555587,3
Haridevpur New Sporting Club,22.480041,88.335754,"55, Banamali Banerjee Rd, Basuri Bagan, Paschim Putiary, Kolkata, West Bengal 700082",CCU-S,qcZQjNW,22.480041,88.335754,0,,-1.199969359,-0.815311634,3
Gandhi Colony Avijan Club,22.523005,88.343971,"4/208, Gandhi Colony, Netaji Nagar, Kolkata, West Bengal 700040",CCU-S,FaN4xCf,22.523005,88.343971,0,,-0.565593726,-0.587637817,1
Naktala Udayan Sangha,22.474385,88.36659,"Naktala, Garia, Kolkata, West Bengal 700047",CCU-S,YslOgIq,22.474385,88.36659,0,,-1.283481801,0.039081672,1
Bidhanpally Adhibasibrinda,22.467784,88.371933,117 bidhan pally kolkata -700048,CCU-S,fYV8FTx,22.467784,88.371933,0,,-1.380947437,0.187123683,1
"41 Pally Club, Haridevpur",22.482926,88.338411,"276, Mahatma Gandhi Rd, Haridevpur, Paschim Putiary, Kolkata, West Bengal 700082",CCU-S,qwavggf,22.482926,88.338411,0,,-1.157371516,-0.741692389,1
Deodar Street Balak Sangha,22.526427,88.360239,15/8 DEODAR STREET KOLKATA 700019,CCU-S,6OlTcJZ,22.526427,88.360239,0,,-0.515066926,-0.136889656,1
Sherwood Estate Puja Committee,22.439922,88.395799,"Garia Main Road, SH 1, Ramchandrapur, Narendrapur, Kolkata, West Bengal 700103",CCU-S,0FsmgF0,22.439922,88.395799,0,,-1.792337761,0.84839462,1
Kalighat Nepal Bhattacharjee Street Club,22.517578,88.340635,"10/9, Nepal Bhattacharjee St, Anami Sangha, Kalighat, Kolkata, West Bengal 700026",CCU-S,CGwP9TV,22.517578,88.340635,0,,-0.645724918,-0.680070561,1
Ketopole Sammilani,22.486515,88.280938,"169, Ho Chi Minh Sarani, Sarsuna Satellite Twp Housing Estate, Behala, Kolkata, West Bengal 700061",CCU-S,kRAvfQT,22.486515,88.280938,0,,-1.104378915,-2.33413455,3
Tridhara Sammilani Durga Puja,22.519548,88.355434,"Near Deshapriya Park, Satyendranath Mazumder Sarani, Dover Terrace, Kolkata- 700025",CCU-S,1AxOv5h,22.519548,88.355434,0,,-0.61663731,-0.270024947,1
Bhowanipore Mitra Bari Durga Puja,22.532572,88.349327,"13, Paddapukur Road, Bhowanipore, Kolkata 700020.",CCU-S,52ewO56,22.532572,88.349327,0,,-0.42433426,-0.439235607,1
Rajpur Sarbojanin Durgotsab,22.427938,88.416713,"Banstala, Aghore Sarani, Kolkata, West Bengal-700150",CCU-S,RCdn3ej,22.427938,88.416713,0,,-1.969284917,1.427872555,1
Naktala Sarbojanin Durga Puja Committee,22.472407,88.366172,"Naktala Rd, Poriya, Naktala, Garia, Kolkata, West Bengal 700047",CCU-S,dzcRhZc,22.472407,88.366172,0,,-1.312687532,0.027499872,1
Madox Square,22.526557,88.35481,"Earle St and, Pankaj Mullick Sarani, Garcha, Ballygunge, Kolkata, West Bengal 700025",CCU-S,65OtyIA,22.526557,88.35481,0,,-0.513147439,-0.287314525,1
97 Palli Bharatmata Puja,22.486988,88.344527,"23 M . N . SEN LANE, MN Sen Ln, Kudghat, Tollygunge, Kolkata, West Bengal 700040",CCU-S,eJHgeIo,22.486988,88.344527,0,,-1.097394936,-0.57223236,1
Sahapur Sarbojanin Durgotsab Committee,22.504519,88.33488,"72 Kailash Pandit Lane, New Alipore, Kolkata-700053",CCU-S,ZdmMJ9r,22.504519,88.33488,0,,-0.838544753,-0.839528126,3
Santoshpur Avenue South Pally Mangal Samity,22.492201,88.37986,"4, Avenue S, Bidhan Colony, Santoshpur, Kolkata, West Bengal 700075",CCU-S,U5hv4Cg,22.492201,88.37986,0,,-1.020423514,0.406762278,1
Barisha Maitree Sangha Durgotsab,22.484116,88.31754,"Nabalia Para Rd, Barisha, Kolkata, West Bengal 700008",CCU-S,QAqjVEQ,22.484116,88.31754,0,,-1.139800829,-1.319978895,3
Nabin Sangha (Rajpur),22.435028,88.427353,"Milan Pally, Kolkata, West Bengal 700150",CCU-S,8EgCZQN,22.435028,88.427353,0,,-1.864599058,1.722682024,1
Bhowanipur Udayan Club Durga Puja,22.528153,88.351379,"1, Benoy bose lane, kolkata-700025",CCU-S,beVmMuA,22.528153,88.351379,0,,-0.489582047,-0.382379496,1
Sahapur Friends Association,22.505973,88.330521,"142, SN Roy Rd, Sahapur, New Alipore, Kolkata, West Bengal 700038",CCU-S,0llvXcH,22.505973,88.330521,0,,-0.817076031,-0.960305802,3
Roy Bahadur Road Netaji Sporting Club,22.49985,88.326195,"247/A/5, Adarshapally, Chamrapatti, Behala, Kolkata, West Bengal 700034",CCU-S,a3OePVm,22.49985,88.326195,0,,-0.907483861,-1.080169125,3
Gopal Nagar Kalyan Sangha Durga Puja,22.501932,88.357504,"321, Prince Anwar Shah Rd, Madar Tala Colony, Tollygunge, Kolkata, West Bengal 700095",CCU-S,Mm7CyFj,22.501932,88.357504,0,,-0.876742541,-0.212670098,1
Behala Nutan Sangha,22.502183,88.319064,"375, Diamond Harbour Rd, Gholeshapur, Behala, Kolkata, West Bengal 700034",CCU-S,2nN7olF,22.502183,88.319064,0,,-0.873036455,-1.277752426,3
Udayan Sangha - Kalikapur,22.502531,88.392032,"13, Dakshin Purbachal Hospital Rd, Kalikapur, South Purbachal, Haltu, Kolkata, West Bengal 700078",CCU-S,e3CN6BX,22.502531,88.392032,0,,-0.867898137,0.744019877,1
Patuli Sarbojanin Durgotsab (Patuli Central Club),22.47454,88.384236,"Patuli Central Club, Patuli Main Rd, Baishnabghata Patuli Twp, Patuli, Kolkata, West Bengal 700094",CCU-S,XvWjVVL,22.47454,88.384236,0,,-1.281193183,0.528010985,1
Brahmapur Harisava Sarbojanin Durgotsav,22.46566,88.36391,"46 harisava math, Brahmapur, N G Park, Bansdroni, Kolkata, West Bengal 700084",CCU-S,OFqBKWk,22.46566,88.36391,0,,-1.412308899,-0.035174848,1
Rupchand Mukherjee Lane Sarbojanin Durgotsab,22.527326,88.345018,"20, Jatin Das Park, Patuapara, Bhowanipore, Kolkata, West Bengal 700025",CCU-S,NvFe3AH,22.527326,88.345018,0,,-0.501792936,-0.558627901,1
Bansdroni Roynagar Unnayan Samity,22.473553,88.360845,"9, NASKARPARA, TOLLYGUNGE, BANSDRONI, Kolkata-700070",CCU-S,pD1GqtP,22.473553,88.360845,0,,-1.295766517,-0.120098816,1
D. N. Ghosh Road Sarbojanin Durgotsav Commitee,22.482359,88.184095,"24, D.N. Ghosh Rd, Maity Para, Samanta Para, Budge Budge, Kolkata, West Bengal 700137",CCU-S,HfgZoEX,22.482359,88.184095,0,,-1.165743432,-5.01742716,3
Kidderpore Pally Saradia,22.543076,88.32135,"16, Hem Chandra St, Andaman Dock, Watganj, Kolkata, West Bengal 700023",CCU-S,26F9Bei,22.543076,88.32135,0,,-0.269239724,-1.214412722,3
Red Star Sporting and Cultural Society,22.498549,88.309245,"Ramkrishna Sarani, Vivekananda Pally, Behala, Kolkata, West Bengal 700060",CCU-S,MPhjWsK,22.498549,88.309245,0,,-0.926693495,-1.549813908,3
Chetla Sarbasadharaner Durgotsab,22.517326,88.339939,"Shop No-69/3B,, Chetla Rd, Kolkata, West Bengal 700027",CCU-S,nvUyYnd,22.517326,88.339939,0,,-0.64944577,-0.69935509,1
Nabarun Samity,22.514586,88.269978,"Santoshpur Govt Colony, Sanpa, Santoshpur, Maheshtala, West Bengal 700140",CCU-S,GsTrnwc,22.514586,88.269978,0,,-0.689902646,-2.637810469,3
Nandibagan Sarbojonin Durgoutsab,22.508281,88.38523,"Nandibagan, P. O. - Haltu, P. S. - Garfa, Kolkata - 700078.",CCU-S,Mjh47E6,22.508281,88.38523,0,,-0.782997757,0.555552395,1
Khidderpur 75 Pally Sarbojanin Durgotsab Committee,22.540289,88.320524,"11C, Khidderpore, Ramanath Pal Road, Watganj, Kolkata, West Bengal 700023",CCU-S,JovzwGm,22.540289,88.320524,0,,-0.310390568,-1.237299247,3
Baishnabghata Patuli Upanagori Sarbojanin Durgotsab Committee,22.473449,88.387067,"J 77 ,Baishnabghata Patuli Township, Kolkata 700094",CCU-S,yoWyDCU,22.473449,88.387067,0,,-1.297302107,0.606451361,1
Barisha Club,22.481256,88.313214,"Santosh Roy Rd, Sakher Bazar, Purba Barisha, Kolkata, West Bengal 700008",CCU-S,juKUW9t,22.481256,88.313214,0,,-1.18202954,-1.439842218,3
Diamond City West Welfare Society,22.484178,88.301672,"18, Ho Chi Minh Sarani, Bakultala, Behala, Kolkata, West Bengal 700061",CCU-S,4uRA7ND,22.484178,88.301672,0,,-1.138885382,-1.759643993,3
Vivekananda Park Atheletic Club,22.481469,88.337014,"76/9, Mahatma Gandhi Rd, Haridevpur, Paschim Putiary, Kolkata, West Bengal 700041",CCU-S,7kEe4sI,22.481469,88.337014,0,,-1.178884534,-0.780399986,1
Kheyali Sangha Durga Puja,22.456002,88.3668,"A-18, South, Bramhapur, Kolkata, 700096",CCU-S,SBcL01n,22.456002,88.3668,0,,-1.554912005,0.04490028,1
Lake Youth Corner Durga Puja,22.510763,88.347226,"16, Dr TN Majumder St, Lake Range, Kalighat, Kolkata, West Bengal 700045",CCU-S,oQQc8fN,22.510763,88.347226,0,,-0.746350324,-0.497449394,1
Barisha Saterpalli Sammilani Durga Puja,22.479781,88.304041,"12/12, Sashan Kalitala Road, Behala, kolkata-700008",CCU-S,apKBz17,22.479781,88.304041,0,,-1.203808333,-1.694004554,3
Srinagar Paschimpara Puja Committee,22.46908,88.402238,"Srinagar West, Near Garia Rly Station,Panchasayar, Kolkata 700094",CCU-S,wvMapId,22.46908,88.402238,0,,-1.36181163,1.026804223,1
Mudiali Club Sarbojanin Durga Puja,22.510006,88.346778,"37, SR Das Rd, Mudiali, Kalighat, Kolkata, West Bengal 700026",CCU-S,x30sQc8,22.510006,88.346778,0,,-0.757527644,-0.509862425,1
Bansdroni Sammlita Sarbojanin Durgotsav Committee,22.473651,88.358048,"10, H.L. SARKAR ROAD, BANSDRONI, Kolkata-700070",CCU-S,qtAhOkT,22.473651,88.358048,0,,-1.294319519,-0.197597132,1
Behala Arounoday Samity,22.501411,88.301092,"Rabindra Nagar No 2, Rabindra Nagar, Behala, Kolkata, West Bengal 700060",CCU-S,Payk4mo,22.501411,88.301092,0,,-0.884435254,-1.775714434,3
Agradoot Durgotsab Samity,22.522025,88.369187,"1A, CORNFIELD ROAD, BALLYGUNGE, KOLKATA 700019",CCU-S,Dt36obH,22.522025,88.369187,0,,-0.580063703,0.111038457,1
C N Roy Road Govt. Housing Estate Durga Puja Committee,22.530905,88.38752,"Chandra Nath Roy Rd, Tiljala, Topsia, Kolkata, West Bengal 700039",CCU-S,w3SJyoU,22.530905,88.38752,0,,-0.448947987,0.61900293,1
Vivekananda Youth Club,22.458979,88.308177,"James Long Sarani, Mukund Das Colony, Thakur Pukur, Kolkata, West Bengal 700063",CCU-S,FIWTA3V,22.458979,88.308177,0,,-1.510955757,-1.579405686,3
Batanagar Newland Puja Committee,22.505262,88.22905,"Das Para, Maheshtala, West Bengal 700140",CCU-S,aAeaRNT,22.505262,88.22905,0,,-0.827574148,-3.771829447,3
Tiljala Yubak Brinda,22.530962,88.381746,"123/B, Picnic Garden Rd, Majdia, Kata Pukur, Tiljala, Kolkata, West Bengal 700039",CCU-S,rePdttp,22.530962,88.381746,0,,-0.448106366,0.459018919,1
Naktala Sammilani,22.478918,88.367753,"Keya Bagan, Ganguly Bagan, Kolkata, West Bengal 700047",CCU-S,GjXtJns,22.478918,88.367753,0,,-1.216550772,0.071305677,1
Barisha Yubak Brinda,22.486077,88.312052,"13, Biren Roy Rd W, Behala Chowrasta, Sakher Bazar, Paschim Barisha, Kolkata, West Bengal 700008",CCU-S,ZDvHTf8,22.486077,88.312052,0,,-1.110846109,-1.472038516,3
Barisha Kumarpara Youngs' Club,22.481595,88.317097,"6/7, Motilal Gupta Rd, Sodepur, Purba Barisha, Kolkata, West Bengal 700008",CCU-S,YLPydaz,22.481595,88.317097,0,,-1.177024109,-1.332253387,3
Santoshpur Trikon Park,22.491825,88.385799,"31, Santoshpur Ave, Adipally Santoshpur, Solak Pally, Haltu, Kolkata, West Bengal 700075",CCU-S,QKZzJZ4,22.491825,88.385799,0,,-1.02597526,0.571318052,1
Nabapalli Sangha Sarbojanin Durgotsab,22.507289,88.343985,"45B, Charu Chandra Ave, Sahanagar, Tollygunge, Kolkata, West Bengal 700033",CCU-S,mLKSxb5,22.507289,88.343985,0,,-0.797644919,-0.58724991,1
Sonarpur Power House Sarbojanin Durgotsab [Sonarpur Recreation Club],22.443127,88.424852,"Sonarpur, Saheb Para, Power House, Kolkata,700150, Sonarpur Station Road, Sonarpur, Kolkata-700150",CCU-S,D0VxhI0,22.443127,88.424852,0,,-1.745015028,1.653385174,1
Jagaran Club Durga Puja,22.501936,88.372702,"Newland, Jadavpur, Kolkata, West Bengal 700075",CCU-S,rK7Ymkx,22.501936,88.372702,0,,-0.87668348,0.208430871,1
Khidderpore Nabarag,22.541824,88.321245,"30A, Watganj, Kolkata, West Bengal 700023",CCU-S,d8TMnpw,22.541824,88.321245,0,,-0.287725859,-1.217322026,3
Narendrapur Greenpark Sarbojanin Durgotsab,22.444532,88.397333,"158, Green Park, Narendrapur, Kolkata, West Bengal 700103",CCU-S,8RFcfVq,22.444532,88.397333,0,,-1.724269805,0.890898166,1
Harinavi Mitra Para,22.418503,88.416064,"Harinavi, Rajpur Sonarpur, West Bengal 700148",CCU-S,P7Wo6YM,22.418503,88.416064,0,,-2.108595365,1.409890286,1
Nabarun Sangha Durga Puja,22.50015,88.323522,"88/7, Roy Bahadur Rd, Barik Para, Gholeshapur, Behala, Kolkata, West Bengal 700034",CCU-S,3thzV4a,22.50015,88.323522,0,,-0.903054276,-1.154231692,3
Swamiji Sarak Young Bengal Club,22.488423,88.329193,"Swamiji Sarak, Behala, Kolkata, West Bengal 700008",CCU-S,Mhv2KAm,22.488423,88.329193,0,,-1.076206754,-0.99710157,3
Haridevpur Vivekananda Sporting Club,22.476351,88.338588,"Mahatma Gandhi Rd, Haridevpur, Paschim Putiary, Kolkata, West Bengal 700082",CCU-S,EWJ31Hs,22.476351,88.338588,0,,-1.254453254,-0.736788134,1
Kalitala Sporting Club,22.506564,88.397225,"126, North Purbachal Kalitala Rd,Purbachal Rd, Kalikapur, Haltu, Kolkata, West Bengal 700078",CCU-S,XS07vmT,22.506564,88.397225,0,,-0.808349749,0.887905739,1
Barisha Milan Mandir,22.487279,88.313958,"4, Biren Roy Rd, Behala Chowrasta, Bata Colony, Barisha, Kolkata, West Bengal 700008",CCU-S,SKs9Koy,22.487279,88.313958,0,,-1.093098238,-1.419227722,3
Sabuj Sathi,22.495623,88.315622,"12, Arcadia, Behala, Kolkata, West Bengal 700034",CCU-S,uLC1Zme,22.495623,88.315622,0,,-0.969896714,-1.373122181,3
Lake Gardens Mitali Sangha,22.50459,88.356847,"170/23 LAKE GARDENS, Trail Path, Lake Gardens, Kolkata, West Bengal 700045",CCU-S,uG5VKsV,22.50459,88.356847,0,,-0.837496418,-0.230874028,1
State Bank Park Sarbojanin Durgotsav,22.467976,88.30903,"133, Diamond Harbour Rd, State Bank Park, Thakur Pukur, Kolkata, West Bengal 700063",CCU-S,iNUwKQB,22.467976,88.30903,0,,-1.378112502,-1.555771054,3
Kasba Shakti Sangha,22.51655,88.381742,"14/1 Jahura Bazar Lane, Kolkata-700042",CCU-S,F5bSLoO,22.51655,88.381742,0,,-0.66090363,0.458908088,1
Kendua Shanti Sangha Sarbojanin Durgotsab Committee,22.471786,88.380237,"45/2 Kendua Main Road , Garia , Kolkata 700084",CCU-S,SvydAz2,22.471786,88.380237,0,,-1.321856773,0.417208065,1
Sunny Seasons Durga Puja,22.445444,88.389111,"Garia.Ramchandrapur, Kamalgachhi More,Kolkata, West Bengal 70015,",CCU-S,voucPua,22.445444,88.389111,0,,-1.710803867,0.663085812,1
Kasba Uttarpara Arabinda Sporting Club,22.520639,88.373708,"57, KN Sen Ln, New Ballygunge, Kasba, Kolkata, West Bengal 700042",CCU-S,4w5C5X8,22.520639,88.373708,0,,-0.600528386,0.236304774,1
Behala 11 Pally Durga Puja [11 Pally Youth Association],22.498462,88.321463,"69, Satyen Roy Rd, Indrajit Pally, Behala, Kolkata, West Bengal 700034",CCU-S,rHDjxiN,22.498462,88.321463,0,,-0.927978075,-1.211281757,3
Baghajatin Udayan Sangha,22.485561,88.371257,"A/86/1, Bijoygarh, Layalka, Jadavpur, Kolkata, West Bengal 700092",CCU-S,tekoTpN,22.485561,88.371257,0,,-1.118464995,0.168393307,1
Baghajatin B And C Block Durgotsav Committee [Baghajatin Sporting Club Durga Puja],22.484086,88.376085,"Baghajatin C Block, Chittaranjan Colony 6, Maidan, Kolkata, West Bengal 700092",CCU-S,8ELMDWa,22.484086,88.376085,0,,-1.140243788,0.302165874,1
Kolahal Gosthi Durga Puja Committe,22.522529,88.330937,"700027, 68/1A, Alipore Rd, Alipore, Kolkata, West Bengal 700027",CCU-S,gtcOkIy,22.522529,88.330937,0,,-0.572622,-0.948779416,3
Balia Baishakhi Sangha,22.465184,88.40057,"Garia Station Road, West Balia, Kolkata-700084",CCU-S,jJkYAoZ,22.465184,88.40057,0,,-1.419337173,0.980587851,1
Kamal Residency Puja Committee,22.447633,88.398922,"Kamalgazi, Narendrapur, Kolkata, West Bengal 700103",CCU-S,S1DOjNf,22.447633,88.398922,0,,-1.678482661,0.934925633,1
Binayak Residency Durgotsav Committee,22.52479,88.370419,"6/5C, 6/5D & 7A, Anil Maitra Rd, Ballygunge Place, Ballygunge, Kolkata, West Bengal 700019",CCU-S,iPJI2KF,22.52479,88.370419,0,,-0.539237695,0.14517429,1
Chanditala Sarbojanin Durgotsab Samity,22.499808,88.330494,"186, Roy Bahadur Rd, Ajoy Nagar, Tara Park, Behala, Kolkata, West Bengal 700053",CCU-S,rXJaxaS,22.499808,88.330494,0,,-0.908104003,-0.961053908,3
Picnic Sebayet Samity,22.528567,88.377627,"219, Picnic Garden Road, Kata Pukur, Kasba, Kolkata, West Bengal",CCU-S,QJnVCGc,22.528567,88.377627,0,,-0.48346922,0.344891081,1
Kalighat Youth Organisation,22.528983,88.344521,"12,Mahamaya Lane, Kol - 26",CCU-S,OCdEtPW,22.528983,88.344521,0,,-0.477326862,-0.572398606,1
Behala Sangathani Durga Puja Committee,22.496608,88.307447,"P/149, B G Press Colony, Behala, Kolkata, West Bengal 700034",CCU-S,ZMqTWSy,22.496608,88.307447,0,,-0.95535291,-1.599632275,3
Capricorn Springfield Flat Owners Association (Pilot Bari),22.472149,88.356649,"Benoy Pally, Aurobindo Park, Kolkata, West Bengal 700070",CCU-S,eFJGy4p,22.472149,88.356649,0,,-1.316496975,-0.236360144,1
Sitalatala Sanghasree Club,22.488128,88.311237,"Madhya Para, Behala Industrial Estate, Behala, Kolkata, West Bengal 700034",CCU-S,0ljA9bx,22.488128,88.311237,0,,-1.080562513,-1.494620256,3
Golf Green Phase II Durga Puja,22.495023,88.363044,"LIG 1/2, Golf Green, Kolkata, West Bengal 700095",CCU-S,F0XFIBo,22.495023,88.363044,0,,-0.978755884,-0.059169679,1
Mukul Sangha Club,22.503599,88.314264,"28, Gabtala Lane, Behala, Kolkata, West Bengal 700060",CCU-S,1Q22Skq,22.503599,88.314264,0,,-0.852128814,-1.410749179,3
Chandranat Chatterjee Street Sarbojanin Durgotsab,22.534751,88.345869,"2/1 A, Chandranath Chatterjee Street, Bhawanipur, Kolkata - 700025",CCU-S,qGDZW88,22.534751,88.345869,0,,-0.392160708,-0.535048685,1
Prantik Pally Durgapuja,22.520593,88.387959,"Om Namah Shivay Housing Society, Shanti Pally, Prantik Palli, Kasba, Kolkata, West Bengal 700042",CCU-S,vzFJ3s7,22.520593,88.387959,0,,-0.601207589,0.631166591,1
22 Pally Sarodotsav,22.524482,88.347507,"Bakul Bagan, Bhowanipore, Kolkata, West Bengal 700025",CCU-S,X1Vv86r,22.524482,88.347507,0,,-0.543785402,-0.489663543,1
Bansdroni Sarbojaneen Durgotsav,22.474243,88.357882,"Hirendralal Sarkar Rd, Bansdroni Government Colony, Purba Putiary, Kolkata-700070",CCU-S,rIIrb0r,22.474243,88.357882,0,,-1.285578472,-0.202196603,1
Aaikatan Sarbojanin Durgotsab,22.474439,88.321434,"Dhar Para, Netaji Pally, Purba Barisha, Kolkata, West Bengal 700063",CCU-S,rohkyhl,22.474439,88.321434,0,,-1.282684476,-1.212085279,3
Hindusthan Park Tarun Sangha,22.518062,88.361171,"8/1c, Hindustan Park Road, Hindustan Park, Gariahat, Kolkata, West Bengal 700029",CCU-S,9lxKpmn,22.518062,88.361171,0,,-0.638578521,-0.11106612,1
Lake Gardens Peoples Association,22.505648,88.356154,"B-202, Mollahati Path, Lake Gardens, Kolkata, West Bengal 700045",CCU-S,0AqC2G9,22.505648,88.356154,0,,-0.821874748,-0.250075434,1
Tiljala Baisakhi Club,22.47706,88.377727,"S14A, Ashoke Rd, Baghajatin Colony, Kolkata, West Bengal 700084",CCU-S,keMNrjz,22.47706,88.377727,0,,-1.243984669,0.347661846,1
Bhowanipur Sarbojanin Durgotsav,22.532387,88.3435,Harish Mukherjee Road kol- 700025,CCU-S,ZSFlc3d,22.532387,88.3435,0,,-0.427065837,-0.600688124,1
Janamangal Samity,22.519112,88.341486,"291/1, Kalighat Rd, Anami Sangha, Kalighat, Kolkata, West Bengal 700026",CCU-S,OltLSnD,22.519112,88.341486,0,,-0.623074974,-0.656491345,1
Dhakuria Sarbojanin Durgotsab,22.511363,88.378555,"5, Sarat Ghosh Garden Road, Dhakuria, Tanu Pukur, Kolkata, West Bengal",CCU-S,dYV4mEJ,22.511363,88.378555,0,,-0.737491154,0.370603786,1
Kalighat Milan Sangha,22.524156,88.340782,"No. 32E, Harish Chatterjee St, Kalighat, Kolkata, West Bengal 700026",CCU-S,khHufod,22.524156,88.340782,0,,-0.548598884,-0.675997535,1
Chetla Central Association,22.517737,88.334206,"33/4A, Chetla Central Rd, Chetla, Kolkata, West Bengal 700027",CCU-S,oSCqHNp,22.517737,88.334206,0,,-0.643377238,-0.858203086,3
Mahamayatala Sarbojanin Durgotsab,22.453918,88.387909,"228 Bus Stand, Garia Main Road, Mahamaya Tala, Garia, Kolkata-700084",CCU-S,H8qBqRY,22.453918,88.387909,0,,-1.585682856,0.629781208,1
95 Pally Jodhpur Park,22.508361,88.362913,"70A, Rahim Ostagar Rd, Jodhpur Park, Kolkata, West Bengal 700068",CCU-S,wVxuTMZ,22.508361,88.362913,0,,-0.781816535,-0.062799382,1
Kansaripara Sarbojanin Sarodotsab Committee,22.535769,88.342433,"38A, Kansaripara Road, Bhowanipore, Kolkata-700025",CCU-S,KVFF0j7,22.535769,88.342433,0,,-0.377129649,-0.630252194,1
Adi Dakshin Kalikata Barowari Samittee,22.516787,88.343197,"Rash Behari, Sahanagar, Kalighat, Kolkata, West Bengal 700026",CCU-S,9OOLVyt,22.516787,88.343197,0,,-0.657404257,-0.609083544,1
Tollygunge Regent Colony Sarbojonin Durga Utsav,22.489293,88.349618,"41/52, Netaji Subhash Chandra Bose Rd, Regent Colony, Tollygunge, Kolkata, West Bengal 700040",CCU-S,5G7t1pq,22.489293,88.349618,0,,-1.063360957,-0.431172679,1
Garia Sarbojanin Durgotsab Committee,22.465981,88.403179,"Garia Station Rd, Tentulberia, Nabagram, Panchpota, Kolkata, West Bengal 700084",CCU-S,UyGKvyV,22.465981,88.403179,0,,-1.407569243,1.052877128,1
Paschim Putiary Sarbojanin Nabo Durgotsav (Unnayani Sangha),22.483015,88.343703,"1/2, Taramoni Ghat Rd, Colony No.1, Paschim Putiary, Kolkata, West Bengal 700041",CCU-S,2iczbtB,22.483015,88.343703,0,,-1.156057406,-0.595063469,1
Deshapriya Park Durgotsab,22.518439,88.353527,"Rash Behari Ave, Manoharpukur, Kalighat, Kolkata, West Bengal 700029",CCU-S,biJy3MN,22.518439,88.353527,0,,-0.633012009,-0.322863449,1
Judge Bagan Recreation Unit,22.477416,88.339001,"Mahatma Gandhi Rd, Jiban Mohini Ghosh Park, Paschim Putiary, Kolkata, West Bengal 700041",CCU-S,HhOQFGJ,22.477416,88.339001,0,,-1.238728228,-0.725344872,1
Beltala Shakti Sangha,22.5256,88.351311,"Beltala Rd, Bakul Bagan, Bhowanipore, Kolkata, West Bengal 700026",CCU-S,3WQH1WI,22.5256,88.351311,0,,-0.527277815,-0.384263616,1
Behala Nutan Dal,22.500394,88.320315,"16, Sashibhusan Mukherejee Raod, Kolkata, West Bengal 700034",CCU-S,1ayb1Ga,22.500394,88.320315,0,,-0.899451547,-1.243090147,3
Behala Sanjib Palli,22.487004,88.309076,"Ho Chi Minh Sarani, Sanjib Pally, Behala, Kolkata, West Bengal 700034",CCU-S,xtgcAtu,22.487004,88.309076,0,,-1.097158691,-1.554496502,3
Raipur Club,22.474798,88.378133,"New Raipur Rd, Dakshin Raipur, Garia, Kolkata, West Bengal 700047",CCU-S,z5NaM2P,22.474798,88.378133,0,,-1.277383739,0.358911155,1
Ajoynagar Sarbojanin Durgotsav Society,22.488852,88.396304,"Ajoy Nagar, Mukundapur, Kolkata, West Bengal 700075",CCU-S,Uo8XY46,22.488852,88.396304,0,,-1.069872447,0.862386987,1
Shyama Pally Shyama Sangha,22.490875,88.371954,"29, Shyam Sunder Pally Main Road, Shyama Pally, Muchipara, Behala Mauza, Behala, Kolkata- 700061",CCU-S,VuE3TYC,22.490875,88.371954,0,,-1.040002279,0.187705543,1
Hindustan Pally Durga Puja [Tollygunge Place Club],22.499973,88.346706,"Russa Rd South 2nd Ln, Netajinagar, Rajendra Prasad Colony, Tollygunge, Kolkata, West Bengal 700033",CCU-S,6GpenVe,22.499973,88.346706,0,,-0.905667731,-0.511857376,1
Ramgarh Satapally Sarbojanin Durgotsav Committee,22.474398,88.376421,"Ramgarh E block, Kolkata-700047",CCU-S,6RPqdGp,22.474398,88.376421,0,,-1.283289853,0.311475647,1
HAZRA UDAYAN SANGHA,22.523378,88.348593,"109/19, Hazra, Kalighat, Kolkata, West Bengal 700026",CCU-S,4jmVFEk,22.523378,88.348593,0,,-0.560086275,-0.459573028,1
Dakshin Kolkata Tarun Samity Durga Puja,22.515614,88.341925,"23/7/3B, Tollygunge Road, Sahanagar, Kalighat, Kolkata, West Bengal",CCU-S,S6eSSzz,22.515614,88.341925,0,,-0.674723935,-0.644327683,1
Baruipur Pragati Sangha,22.367221,88.43189,"Subuddhipur, Arup Bhadra Sarani, Baruipur, Kolkata, West Bengal 700144",CCU-S,tGcePq7,22.367221,88.43189,0,,-2.865788625,1.848391663,1
Badamtala Ashar Sangha,22.517936,88.34375,"5, Nepal Bhattacharjee St, Kalighat, Kolkata, West Bengal 700026",CCU-S,3arE591,22.517936,88.34375,0,,-0.640438947,-0.59376121,1
Bosepukur Parijat Club Sarbojanin Durga Puja,22.523353,88.382366,"Bose Pukur Rd, Bosepukur, Kasba, Kolkata, West Bengal 700039",CCU-S,Iyhvin4,22.523353,88.382366,0,,-0.560455407,0.476197666,1
Tapoban Abasan Durgotsav,22.498907,88.409002,"Madurdaha Main Road, Madurdaha, Hussainpur, Kolkata, West Bengal 700107",CCU-S,9XPRHzp,22.498907,88.409002,0,,-0.921407523,1.214218813,1
Satellite Township Club,22.483875,88.287555,"Ho Chi Minh Sarani, New Shakuntala Park, Sarsuna, Kolkata, West Bengal 700061",CCU-S,XMN4dKB,22.483875,88.287555,0,,-1.143359263,-2.150792985,3
Khidderpore Sarbojanin Durgotsab,22.53896,88.324929,"Mansatala Ln, Khidirpur, Kolkata, West Bengal 700023",CCU-S,6nh9OKj,22.53896,88.324929,0,,-0.33001363,-1.115247019,3
Shibmandir Sarbojanin Durgotsab Samiti,22.511142,88.349772,"25, Lake Tample Road, Kolkata-700029",CCU-S,LveUF7w,22.511142,88.349772,0,,-0.740754282,-0.4269057,1
Jagaddal Balak Sangha Sarbojonin Durgotsab,22.422004,88.405633,"Eastern Metropolitan Bypass, KM Roy Chowdhury Road, Dakshin Jagaddal, Kolkata, West Bengal 700151",CCU-S,82nDf7x,22.422004,88.405633,0,,-2.056902108,1.120871718,1
Kidderpore Milan Sangha,22.541414,88.323145,"Watganj, Kolkata, West Bengal 700023",CCU-S,4QxI7KT,22.541414,88.323145,0,,-0.293779625,-1.164677478,3
Mahapuja Samity,22.529025,88.349732,"Ramesh Mitra Rd, Paddapukur, Bhowanipore, Kolkata, West Bengal 700025",CCU-S,jfvIkQc,22.529025,88.349732,0,,-0.47670672,-0.428014006,1
Monmohan Park Sarbojanin Durgotsab (Friends' Corner),22.48871,88.318783,"Manmohan Park, Raja Rammohan Roy Rd, Muradpur, Barisha, Kolkata, West Bengal 700008",CCU-S,mCrLU0h,22.48871,88.318783,0,,-1.071969118,-1.285538277,3
Haru Chandra Sporting Club Durga Puja,22.474269,88.29009,"Ghoshpara, Kolkata, West Bengal 700063",CCU-S,aSiq98X,22.474269,88.29009,0,,-1.285194574,-2.080554075,3
Barisha Sarbojanin Durgotsab,22.4798465,88.3079846,"35, K K Roychowdhury Rd, Subodh Pally, Paschim Barisha, Kolkata, West Bengal 700008",CCU-S,3aequDQ,22.4798465,88.3079846,0,,-1.202841207,-1.584736639,3
Golf Club Road Durga Puja,22.497555,88.347523,"73/26, Golf Club Rd, Uday Sankar Sarani, Rajendra Prasad Colony, Tollygunge, Kolkata-700033",CCU-S,Md0Mrck,22.497555,88.347523,0,,-0.941370187,-0.48922022,1
Vidyasagar Central Sarbojanin Durgotsav,22.481118,88.375093,"Vidya Sagar Main Rd, Vidyasagar Colony, Ganguly Bagan, Kolkata, West Bengal 700047",CCU-S,2CT08Yh,22.481118,88.375093,0,,-1.184067149,0.274679878,1
Purbachal Shakti Sangha,22.504944,88.388316,"22/10, Purbachal Main Rd, Ramlal Bazar, Haltu, Kolkata, West Bengal 700078",CCU-S,nkqgxtU,22.504944,88.388316,0,,-0.832269508,0.641058224,1
Suruchi Sangha (New Alipore),22.509053,88.334498,"Super Snack Bar, Block M 500 and 505, Station Rd, New Alipore, Kolkata, West Bengal 700053",CCU-S,o3hcucz,22.509053,88.334498,0,,-0.771598959,-0.85011245,3
Suryanagar Sarbojanin Durga Puja Committee,22.476493,88.358262,"1/20, Surya nagar, N.S.C. Bose Road , Tollygunge, Kolkata - 700040",CCU-S,9xp1o2Z,22.476493,88.358262,0,,-1.252356584,-0.191667694,1
Pragati Sangha Durgotsab Committee,22.477088,88.346821,"Purba Putiary,Regent Park, Kolkata-700093",CCU-S,sjvuysi,22.477088,88.346821,0,,-1.243571241,-0.508670995,1
Vivekananda Park Milan Chakra Club (Garia),22.462403,88.371195,"V-23/1, New Sonali Park, Vivekananda Park, Kamdahari, Kolkata, West Bengal 700084",CCU-S,JjKOHD3,22.462403,88.371195,0,,-1.460399426,0.166675432,1
Panchanna Gram Durgotsab Committee,22.528198,88.394793,"Eastern Metropolitan Bypass, Bidhan Nagar, Tiljala, Kolkata, West Bengal 700039",CCU-S,lVOR3qC,22.528198,88.394793,0,,-0.488917609,0.820520718,1
74 Pally Sarbojanin Durgotsab Kidderpore,22.539748,88.32528,"5B, Monilal Banerjee Rd, Khidirpur, Kolkata, West Bengal 700023",CCU-S,YwpISKE,22.539748,88.32528,0,,-0.318378587,-1.105521631,3
Suhrid Sangha,22.516629,88.346933,"Rash Behari Ave, Lake Market, Kalighat, Kolkata, West Bengal 700029",CCU-S,ar1EduT,22.516629,88.346933,0,,-0.659737172,-0.505567738,1
Babubagan Club,22.507931,88.369024,"14, Babu Bagan Ln, Dhakuria, Babu Bagan, Selimpur, Kolkata, West Bengal 700031",CCU-S,23AteTk,22.507931,88.369024,0,,-0.788165607,0.106522109,1
Panchanan Tala Sarbojonin Durgotsab Committee,22.503594,88.316721,"Panchanan Tala, Behala, Kolkata, West Bengal 700034",CCU-S,ZOuqi4P,22.503594,88.316721,0,,-0.85220264,-1.342671466,3
Betarpally Cultural Association,22.480255,88.348795,"9/8 C, Chandi Ghosh Rd, Kudghat, Moore Avenue, Tollygunge, Kolkata, West Bengal 700040",CCU-S,oT6OFH6,22.480255,88.348795,0,,-1.196809588,-0.453976081,1
Mominpore Sarbojanin,22.528451,88.322724,1 MEHER ALI MONDAL STREET KOLKATA-700027,CCU-S,DBgxPyN,22.528451,88.322724,0,,-0.485181993,-1.176342402,3
Pratapaditya Road Tricone Park Barowari Durga Puja Committee,22.513472,88.344734,"88 Ward, Pratapaditya Rd, Sahanagar, Kalighat, Kolkata, West Bengal 700026",CCU-S,YwzZsHq,22.513472,88.344734,0,,-0.706351172,-0.566496875,1
Amarabati Durga Puja Committee,22.523788,88.392602,"220, Naskarhat Rd, Amrabati, Kasba, Kolkata, West Bengal 700039",CCU-S,U6gfc9q,22.523788,88.392602,0,,-0.554032509,0.759813242,1
New Alipore Sarbojanin Durgotsav Samity,22.507111,88.337023,"DATTU PHADKAR CHILDRENS PARK, New Alipore, Kolkata, West Bengal 700053",CCU-S,4MASGcj,22.507111,88.337023,0,,-0.800273139,-0.780150617,3
Dipabali Co-operative Housing Puja Committee,22.48686,88.391007,"1050/2, P G, Survey Park, Santoshpur, Kolkata, West Bengal 700075",CCU-S,yJRaUvV,22.48686,88.391007,0,,-1.099284892,0.715619529,1
"Golf Green Sarbojanin Durgotsav Committee Phase 3,4,7",22.492158,88.362218,"Phase III,IV & VII,, Golf Green, Kolkata, West Bengal 700095",CCU-S,Y27dRov,22.492158,88.362218,0,,-1.021058421,-0.082056203,1
Baishnab Ghata Jatra Suru,22.470576,88.377922,"101B, Raja Subodh Chandra Mallick Rd, Baishnabghata, Garia, Kolkata, West Bengal 700047",CCU-S,hUHMWYh,22.470576,88.377922,0,,-1.339722766,0.353064839,1
Amardip Sangha,22.484463,88.330514,"192, Motilal Gupta Rd, Sodepur Kalitala, Sukanta Pally, Barisha, Kolkata, West Bengal 700082",CCU-S,enNnA5p,22.484463,88.330514,0,,-1.134677276,-0.960499755,3
Haridevpur Adarsha Samity,22.475988,88.334168,"Ustad Amir Ali Khan Sarani, Haridevpur, Paschim Putiary, Kolkata, West Bengal 700041",CCU-S,8YlQ4Cp,22.475988,88.334168,0,,-1.259813052,-0.859255977,3
Sthaniya Yuvak Brinda (Ashuti Netaji Sangha),22.472595,88.25612,West Bengal 700141,CCU-S,I363LVD,22.472595,88.25612,0,,-1.309911659,-3.021783177,3
Sonamukhi Gosthotala Progati Sangha Durga Puja,22.474242,88.277989,"Sonamukhi Road , Daspara,Kolkata-700141",CCU-S,ooJXtxn,22.474242,88.277989,0,,-1.285593237,-2.41584443,3
70 Pally Sarbojanin Durga Puja [Kasba Anchalik Yubak Brinda],22.519275,88.373638,"287 B. B. Chatterjee Road ,Kolkata 700042",CCU-S,bjmDAMs,22.519275,88.373638,0,,-0.620668232,0.234365238,1
4-Sight Prestige Cultural Association,22.463722,88.383518,"150, Garia Station Rd, Barhans, Garia, Kolkata, West Bengal 700084",CCU-S,4SI20YJ,22.463722,88.383518,0,,-1.440924018,0.508116887,1
Brijee Unnayan Samity Durgotsab Committee,22.468466,88.384922,"West,, Briji Road, Sreerampur, Garia, Kolkata, West Bengal 700084",CCU-S,I3Hc5da,22.468466,88.384922,0,,-1.370877514,0.547018437,1
Mahamayapur Sarbojanin Durgotsab Committee,22.45938,88.386486,"Mahamayapur School Road, Garia, Kolkata - 700084",CCU-S,YdXzUXP,22.45938,88.386486,0,,-1.505034878,0.590353212,1
Bhowanipur Muktadal,22.527443,88.343616,"Harish Mukherjee Rd, Jatin Das Park, Patuapara, Bhowanipore, Kolkata, West Bengal 700025",CCU-S,nWfT6or,22.527443,88.343616,0,,-0.500065398,-0.597474036,1
Bidhanpally Purbapara Sarbojanin Durgotsav Committee,22.468541,88.37241,"BIidhanpally, Garia, Kolkata-700084",CCU-S,8QhA337,22.468541,88.37241,0,,-1.369770117,0.200340235,1
Sahapur Nabashakti Sangha,22.508403,88.331179,"31/2, Sahapur, New Alipore, Kolkata, West Bengal 700038",CCU-S,pQKmRlo,22.508403,88.331179,0,,-0.781196393,-0.942074163,3
Bhowanipur Sanatan Dharmatsahini Sabha,22.529031,88.342999,"33, BALARAM BOSE GHAT ROAD, KOLKATA-700025",CCU-S,wh6SEES,22.529031,88.342999,0,,-0.476618128,-0.61456966,1
N.S.C. Sports Club Durga Puja,22.484672,88.359035,"2/65, Gandhi Colony, Kolkata-700092",CCU-S,ZqOZN0N,22.484672,88.359035,0,,-1.131591332,-0.170249675,1
Santoshpur Sonar Tori Durgotsav,22.491857,88.378544,"13, Avenue North, Kolkata 700075.",CCU-S,AirIyyF,22.491857,88.378544,0,,-1.025502771,0.370299002,1
Beltala Sarbojanin Durgotsab,22.481865,88.372325,"4/64B, VIDYASAGAR KOLKATA - 700047",CCU-S,07ZQC4K,22.481865,88.372325,0,,-1.173037482,0.197985084,1
Jagarani Sangha,22.481394,88.340746,"40, Panchanantala Rd, New Panchanantala, Paschim Putiary, Kolkata, West Bengal 700041",CCU-S,Oa4r2kT,22.481394,88.340746,0,,-1.179991931,-0.676995011,1
Sahapur Mitali Sangha,22.505306,88.325673,"14, Ishan Mondal Garden Road, Kolkata, West Bengal 700038",CCU-S,gkaLt9w,22.505306,88.325673,0,,-0.826924475,-1.094632522,3
Ballygunge Pally Sarbojanin Durgotsab Committee,22.526391,88.357686,"8B , Dover Road ,Kolkata-700026",CCU-S,ocgwYfn,22.526391,88.357686,0,,-0.515598476,-0.207627304,1
Mangalam Park Resisdents Association,22.485416,88.307949,"14, Ho Chi Minh Sarani, Sanjib Pally, Behala, Kolkata, West Bengal 700034",CCU-S,ePCNSBT,22.485416,88.307949,0,,-1.120605961,-1.585723031,3
Bosepukur Sitala Mandir Durgotsab Committee,22.519241,88.38499,"Bosepukur Road,Kasba, 1/27, Kolkata, West Bengal 700042",CCU-S,aSiXFwB,22.519241,88.38499,0,,-0.621170252,0.548902558,1
Bhai Bhai Sangha Sarbojanin,22.483172,88.181112,"38/c, Pandit Moti Lal Nehru Road, Samanta Para, Budge Budge, Kolkata, West Bengal 700137",CCU-S,LmiDqPN,22.483172,88.181112,0,,-1.153739257,-5.1000791,3
Poddar Nagar Sarbojanin Durgoutsav Committee,22.500899,88.364434,"5/1, Katju Nagar, Jadavpur, Kolkata, West Bengal 700032",CCU-S,GPJqIur,22.500899,88.364434,0,,-0.891995079,-0.020656036,1
Adarsha Pally Sarbojanin Durgotsav Committee,22.499953,88.327701,"No 165, Roy Bahadur Rd, Buroshibtalla, Behala, Kolkata, West Bengal 700034",CCU-S,XwnLNlv,22.499953,88.327701,0,,-0.905963037,-1.038441394,3
VIP Nagar Sarbojanin Durga Puja Committee,22.525504,88.396036,"12, VIP Nagar, Kolkata-700100",CCU-S,A1u2eFf,22.525504,88.396036,0,,-0.528695283,0.854961335,1
Dakshin Kolkata Sarbojanin Durgotsab,22.524378,88.33448,"Alipore, Kolkata, West Bengal 700027",CCU-S,2OCjJeg,22.524378,88.33448,0,,-0.545320992,-0.850611188,3
Barisha Udayan Pally Sabojanin Durga Puja,22.475241,88.309527,"Ward No.125, Diamond Harbour Rd, Udayan Pally, Barisha, Kolkata, West Bengal 700008",CCU-S,yCPkRYG,22.475241,88.309527,0,,-1.270842719,-1.542000349,3
Behala Friends Gosaipara Sarbojanin,22.501122,88.320429,"Auddy Bagan Basti, Behala, Kolkata, West Bengal 700034",CCU-S,0uX6C0Z,22.501122,88.320429,0,,-0.888702421,-1.239931474,3
Vivekananda Pally Sarbojanin Durga Puja,22.499082,88.307987,"45 Pally, Behala, Kolkata, West Bengal 700060",CCU-S,1WrALtG,22.499082,88.307987,0,,-0.918823599,-1.584670141,3
"JagriteeJagritee Durga Puja, Bhowanipore",22.530297,88.350885,"Rajshekhar Bose Sarani, Paddapukur, Bhowanipore, Kolkata, West Bengal 700025",CCU-S,JF3haVK,22.530297,88.350885,0,,-0.45792528,-0.396067078,1
Sahapur Suhrid Sangha Durga Puja Committee,22.508714,88.329027,"Rajani Mukherjee Road,Kolkata-70038",CCU-S,atMZSwa,22.508714,88.329027,0,,-0.77660439,-1.001701041,3
Bhowanipur Ritwik Club Durga Puja Committee,22.533087,88.346934,"76 A/76B, Padda PUkur Road, Bhowanipore, Kolkata, West Bengal 700020",CCU-S,weZ3gij,22.533087,88.346934,0,,-0.416730139,-0.50554003,1
Bengal United Club,22.512084,88.347812,"18, Kabir Rd,Lake Range, Kalighat,Kolkata, West Bengal 700026",CCU-S,iTAu3L5,22.512084,88.347812,0,,-0.726845385,-0.481212708,1
Neelachal Abasan,22.518125,88.388035,"700107, 98, Prantik Pally Rd, Nabapally, Rajdanga, East Kolkata Twp, Kolkata, West Bengal 700042",CCU-S,BBbdOSA,22.518125,88.388035,0,,-0.637648308,0.633272373,1
Selimpur Pally Sarbojanin Durgotsab Committee,22.504883,88.367864,"37/3A, Selimpur Rd, Dhakuria, Selimpur, Kolkata, West Bengal 700031",CCU-S,JdMJSf8,22.504883,88.367864,0,,-0.83317019,0.074381227,1
Baghajatin Park Housing Society Puja Committee,22.47953,88.392807,"Krishak Pally, Pancha Sayar, Kolkata, West Bengal 700094",CCU-S,kjy5xJl,22.47953,88.392807,0,,-1.207514419,0.765493311,1
Purba Barisha Sitalatala Kishore Sangha,22.480946,88.32156,"East Park, Barisha, Kolkata, West Bengal 700008",CCU-S,PIN4O7G,22.480946,88.32156,0,,-1.186606777,-1.208594114,3
Eden Residency Puja Committee,22.483302,88.411073,"2813, Nayabad Ave, Daspara, Rangapara, Nayabad, Kolkata, West Bengal 700094",CCU-S,PFLKDcC,22.483302,88.411073,0,,-1.15181977,1.271601371,1
Kasba Renaissance Club,22.519175,88.378205,"64, R.K. Chaterjee Road, Bosepukur, Kasba, Kolkata, West Bengal 700042",CCU-S,miKs4fB,22.519175,88.378205,0,,-0.622144761,0.360906106,1
Ekdalia Evergreen Club Durga Puja,22.521216,88.366581,"15, Ekdalia Road, Ekdalia, Ballygunge, Kolkata, West Bengal 700019",CCU-S,dOJIiki,22.521216,88.366581,0,,-0.592008818,0.038832303,1
Behala Pathak Para Sarbojonin Durgotsav,22.506745,88.320911,"Pathak Para, Behala, Kolkata, West Bengal 700034",CCU-S,mYVqSRf,22.506745,88.320911,0,,-0.805677233,-1.226576384,3
Pragati Sangha Sabojanin Durgotsav,22.494614,88.316649,"Bhupen Roy Rd, Jadu Colony, Sarada Pally, Kolkata, West Bengal 700034",CCU-S,QhLsKJu,22.494614,88.316649,0,,-0.984794885,-1.344666417,3
Chatterjee Colony Puja Committee,22.506416,88.330704,"P-130 A,S.N ROY ROAD,KOLKATA-700038",CCU-S,gtu48Ox,22.506416,88.330704,0,,-0.810535011,-0.9552353,3
Rajdanga Nabaday Sangha,22.513173,88.390008,"Rajdanga Main Road, Sarat Park, Rajdanga, Kasba, Kolkata-700107",CCU-S,Zs1gqk1,22.513173,88.390008,0,,-0.710765991,0.68793958,1
Ballygunge Purba Pally,22.522062,88.371234,"276/2 P. C. Sarkar, Rash Behari, Rash Behari Ave, Ekdalia, Ballygunge, Kolkata, West Bengal 700019",CCU-S,ssrQlme,22.522062,88.371234,0,,-0.579517388,0.167756031,1
Samaj Sebi Sangha(Ballygunge),22.516932,88.356058,"Rowland Row, Ballygunge, Kolkata, West Bengal 700029",CCU-S,XcimwCW,22.516932,88.356058,0,,-0.655263291,-0.252735369,1
Kidderpore Jubaghosthi Durga Puja,22.544072,88.319929,"30, Joy Krishna Paul Road, Andaman Dock, Khidirpur, Andaman Dock, Khidirpur, Kolkata-700023",CCU-S,DaiLhZ5,22.544072,88.319929,0,,-0.254533502,-1.253785303,3
Pallisree Sarbajanin Durgotsav Committee,22.483358,88.361413,"1, Pallisree, Regent Estate, Kolkata 700092",CCU-S,49Q7Da0,22.483358,88.361413,0,,-1.150992914,-0.104360867,1
Naktala Pally Unnayan Samity,22.474806,88.364303,"Naktala Pally Unnayan Samity, 1, Khanpur Rd, Naktala, Kolkata, West Bengal 700047",CCU-S,Zkwg0dX,22.474806,88.364303,0,,-1.277265617,-0.024285739,1
Kasba R.K. Chatterjee Road Adhibasi Brinda,22.517994,88.378348,"No.93/4, Rajkrishna Chatterjee Rd, Bosepukur, Kasba, Kolkata, West Bengal 700042",CCU-S,6qpvilZ,22.517994,88.378348,0,,-0.63958256,0.364868301,1
Bishalaxmitala Sarbojanin Durga Puja Committee,22.50926,88.315284,"8,Bishalaxmitala Road, Naskarpur, Behala, Kolkata, West Bengal 700060",CCU-S,sSRiCaK,22.50926,88.315284,0,,-0.768542545,-1.382487369,3
Behala Youngmen's Association,22.506932,88.32487,"69, Joykrishna Paul Rd, Sahapur, New Alipore, Kolkata, West Bengal 700038",CCU-S,OJHEyon,22.506932,88.32487,0,,-0.802916125,-1.11688177,3
48 Block Swiss Park Durgotsav Committee,22.505339,88.348958,"48/48, Purna Chandra Mitra Ln, Swiss Park, Tollygunge, Kolkata, West Bengal 700033",CCU-S,R1VGl2a,22.505339,88.348958,0,,-0.826437221,-0.449459733,1
Ajeya Sanghati,22.480887,88.337692,"47, Mahatma Gandhi Rd, Haridevpur, Paschim Putiary, Kolkata, West Bengal 700082",CCU-S,TUHOPNV,22.480887,88.337692,0,,-1.187477929,-0.761614195,1
Sonarpur Natun Pally Youth Club,22.437708,88.442823,"Middle Rd, Ghasiara, Rajpur Sonarpur, West Bengal 700150v",CCU-S,NByaBeN,22.437708,88.442823,0,,-1.825028098,2.151319475,1
Sahapur Maitri Sangha,22.510592,88.326138,"38, Sahapur, New Alipore, Kolkata, West Bengal 700038",CCU-S,ZnlfcZG,22.510592,88.326138,0,,-0.748875188,-1.081748462,3
Sarsuna Milan Tirtha Durga Puja,22.479002,88.294906,"8, Jadav Ghosh Rd, Kamala Park, Sarsuna, Kolkata, West Bengal 700061",CCU-S,7ktkqAp,22.479002,88.294906,0,,-1.215310488,-1.947113999,3
Barisha Janakalyan Sangha Durgotsav Committee,22.484934,88.313014,"18, Diamond Harbour Rd, Behala Chowrasta, Barisha, Sakher Bazar, Paschim Barisha, Kolkata-700008",CCU-S,7JjEKWO,22.484934,88.313014,0,,-1.127722828,-1.44538375,3
Singhi Park Sarbojanin,22.5208668,88.3631521,"16, Nandi St, Dover Terrace, Ballygunge, Kolkata, West Bengal 700029",CCU-S,RiEouKT,22.5208668,88.3631521,0,,-0.597164854,-0.056174481,1
Bengal Boys Training Association,22.518345,88.341363,"Kalighat Rd, Anami Sangha, Kalighat, Kolkata, West Bengal 700026",CCU-S,dfPDIDh,22.518345,88.341363,0,,-0.634399946,-0.659899386,1
Barisha Shakti Sangha,22.474384,88.315862,"92, Vidyasagar Sarani, Nutan Pally, Purba Barisha, Kolkata, West Bengal 700008",CCU-S,O9F7pvW,22.474384,88.315862,0,,-1.283496567,-1.366472343,3
Netaji Jatiya Sebadal Club,22.484724,88.357156,"130, Mirpara Marg, Ashwani Nagar, Regent Park, Kolkata, West Bengal 700040",CCU-S,3jU23Uz,22.484724,88.357156,0,,-1.130823537,-0.222312362,1
Bosepukur Talbagan Sarbojanin,22.516664,88.382412,"Tal Bagan, Bosepukur, Kasba, Kolkata, 700042",CCU-S,YR9wlnE,22.516664,88.382412,0,,-0.659220387,0.477472219,1
66 Pally Sarbojanin Durgostav Committee,22.518009,88.342777,"No. 14A, Nepal Bhattacharjee St, Dharamdas Lane, Anami Sangha, Kalighat, Kolkata, West Bengal 700026",CCU-S,BPn1FXF,22.518009,88.342777,0,,-0.639361081,-0.62072076,1
Akra Sarbojanin Durgotsab Commitee,22.518211,88.238514,"Akra, Santoshpur, Kolkata, West Bengal 700140",CCU-S,tLCJArt,22.518211,88.238514,0,,-0.636378494,-3.509604183,3
Haridevpur Nabin Sathi Club,22.470082,88.339838,"Dakshin Para, Purba Putiary, Kolkata, West Bengal 700093",CCU-S,qk3GKbu,22.470082,88.339838,0,,-1.347016816,-0.702153563,1
Sahapur Colony East Durga Puja,22.51166,88.32952,"j & K Block, Sahapur Colony (East), New Alipur, Kolkata-700 053",CCU-S,ctHYPcX,22.51166,88.32952,0,,-0.733105865,-0.988041166,3
Goalmath Durga Puja Samity,22.526886,88.349548,"41/1a, Townshend Rd, Bakul Bagan, Bhowanipore, Kolkata, West Bengal 700025",CCU-S,NotMmp5,22.526886,88.349548,0,,-0.508289661,-0.433112215,1
Lake Pally Club,22.515114,88.348072,"Lake Market, Kalighat, Kolkata, West Bengal 700029",CCU-S,Quoyi2c,22.515114,88.348072,0,,-0.682106576,-0.474008717,1
S R Das Road Tarun Sangha Durga Puja,22.512332,88.346878,"10/5,S R Das Road, Kolkata-700026",CCU-S,k5eHxSs,22.512332,88.346878,0,,-0.723183595,-0.507091659,1
Tollygunge Adi Durga Mancha Puja Committee,22.502261,88.343884,"Gobinda Banerjee Ln, Tollygunge, Kolkata, West Bengal 700033",CCU-S,pU8IOw7,22.502261,88.343884,0,,-0.871884763,-0.590048384,1
Kalighat Sabuj Sangha Sarbojanin Durgotsab,22.520093,88.345783,"5,DWARIK GANGULY STREET, KALIGHAT ,KOLKATA -700026",CCU-S,SVkDTcv,22.520093,88.345783,0,,-0.608590231,-0.537431543,1
Genexx Valley Durga Puja,22.449517,88.303277,"Diamond Harbour Rd, Near ESI Hospital, Diamond Park, Joka, Kolkata, West Bengal 700104",CCU-S,aKrkkLP,22.449517,88.303277,0,,-1.650664867,-1.715173204,3
21 Pally Sarbojanin Durgotsab Samiti,22.529242,88.368609,"17, near Patha Bhavan and beside, Bondel Rd, Ballygunge, Kolkata-700019",CCU-S,oTLO7Ki,22.529242,88.368609,0,,-0.473502653,0.095023431,1
Harish Park Sarbojanin Durgotsab Samity,22.539088,88.344352,"81/1, Harish Mukherjee Road, Kolkata-700025",CCU-S,6wFcYJG,22.539088,88.344352,0,,-0.328123674,-0.5770812,1
Saradia Sammilani (Chatushkone Park),22.511076,88.344317,"59/2A/1A, Pratapaditya Road, Kolkata ? 700 026",CCU-S,yC0dSO4,22.511076,88.344317,0,,-0.741728791,-0.578050968,1
Adi Ballygunge Sarbojanin Durga Puja Parishad,22.516887,88.371526,"71, Ballygunge Gardens Kolkata 700029",CCU-S,t1QvxTx,22.516887,88.371526,0,,-0.655927729,0.175846666,1
Kidzee Tulips and Tulipians Preschool Durga Puja,22.522394,88.362305,"16/2G, Dover Lane kolkata-700029",CCU-S,4TfaaSb,22.522394,88.362305,0,,-0.574615314,-0.079645637,1
Pally Mangal Samity (Prince Anwar Shah Road),22.502278,88.364611,"393-B, Prince Anwar Shah Road, Katju Nagar, Jadavpur, Kolkata, West Bengal 700068",CCU-S,eLAybJM,22.502278,88.364611,0,,-0.871633753,-0.015751781,1
Sarat Chatterjee Park Puja Samity (Triangular Park),22.517934,88.358221,"68, Purna Das Rd, Triangular Park, Hindustan Park, Gariahat, Kolkata, West Bengal 700029",CCU-S,xB77g36,22.517934,88.358221,0,,-0.640468477,-0.192803708,1
25 Pally Sarbojonin Durgastov Samity Khidderpore,22.539205,88.326445,"Gangadhar Babu Ln, Calcutta Medical College, Khidirpur, Kolkata, West Bengal 700012",CCU-S,DiQT83j,22.539205,88.326445,0,,-0.326396136,-1.073242211,3
Sahapur Panchabatitala Sammilani,22.503661,88.324534,"114, Sahapur Main Rd, Behala, Kolkata, West Bengal 700038",CCU-S,m5zzcOf,22.503661,88.324534,0,,-0.851213366,-1.126191543,3
Rail Vihar Puja Committee,22.512781,88.406073,"Anandapur Main Rd, Phase - 4, Niravra Cooperative Housing Society, Sector H, East Kolkata Twp, Kolkata-700107",CCU-S,jrajeij,22.512781,88.406073,0,,-0.716553982,1.133063087,1
D. N. Mitra Square Sarbojanin,22.535506,88.34661,"2/1C, Dr. Rajendra Road, Kolkata-700020",CCU-S,genW8cM,22.535506,88.34661,0,,-0.381012919,-0.514517311,1
Chakraberia Sarbojanin Durgotsab,22.532162,88.349536,"58A, Chakraberia Road (North), Kolkata, West Bengal 700020",CCU-S,kKHjs4r,22.532162,88.349536,0,,-0.430388026,-0.433444707,1
Barisha Tarun Tritha,22.484503,88.319269,"3, Kalipada Mukherjee Rd, Sakher Bazar, Barisha, Kolkata, West Bengal 700008",CCU-S,lsImheB,22.484503,88.319269,0,,-1.134086665,-1.272072356,3
New Agragami Sangha,22.503202,88.340384,"2/B Chetla Road, New Alipore Kolkata-700053",CCU-S,cwcDFCY,22.503202,88.340384,0,,-0.857990632,-0.687025182,1
Senhati Durgotsav Samiti,22.497103,88.329028,"Satyen Roy Rd, Senhati Colony, Behala, Kolkata, West Bengal 700034",CCU-S,5GVMnri,22.497103,88.329028,0,,-0.948044095,-1.001673333,3
Thakurpukur Vivekanandapally Sangha,22.464553,88.306687,"Diamond Harbour Rd, Pallymangal, Paschim Barisha, Kolkata, West Bengal 700063",CCU-S,RUO0S9H,22.464553,88.306687,0,,-1.428654067,-1.620690094,3
Behala Trishakti Sangha,22.498367,88.318985,"Nafar Chandra Das Rd, Auddy Bagan Basti, Behala, Kolkata, West Bengal 700034",CCU-S,kYkDFvt,22.498367,88.318985,0,,-0.929380776,-1.279941331,3
Nandana Yuva Sangha,22.501711,88.32623,"47 Nandana Park,, Nandana Park, Behala, Kolkata, West Bengal 700038",CCU-S,JyBY8Kp,22.501711,88.32623,0,,-0.880005669,-1.079199357,3
Dhakuria Pragati Sangha Durga Puja,22.508624,88.371807,"30C, Dhakuria, Tanu Pukur, Kolkata, West Bengal 700031",CCU-S,lxwbtC6,22.508624,88.371807,0,,-0.777933265,0.183632518,1
Baishnabghata Pashimpara Sarbojanin Durgotsab,22.470842,88.37186,"5/1, Baishnabghata Bye Lane, Naktala, Garia, Kolkata-700047",CCU-S,RAphfCI,22.470842,88.37186,0,,-1.3357952,0.185101024,1
Hindusthan Park Sarbojanin Durgotsab Committee,22.517696,88.362036,"51, Hindustan Park, Gariahat, Kolkata, West Bengal 700019",CCU-S,fqTkDwO,22.517696,88.362036,0,,-0.643982615,-0.087098997,1
Tollygunger Kirti,22.487762,88.345794,"97, Chandi Ghosh Rd, Moor Avenue, Mirania Gardens 2, Ashok Nagar, Tollygunge, Kolkata-700040",CCU-S,NzT5eOd,22.487762,88.345794,0,,-1.085966606,-0.537126759,1
Barisha Nabin Sangha,22.483312,88.311062,"Sakher Bazar, Paschim Barisha, Kolkata, West Bengal 700008",CCU-S,ngsssz1,22.483312,88.311062,0,,-1.151672117,-1.499469096,3
Diamond Park Sabojanin Durgotsav Committee,22.45192,88.304284,"P-62, Diamond Park, Joka, Kolkata, West Bengal 700104",CCU-S,8qJUprn,22.45192,88.304284,0,,-1.615183892,-1.687271594,3
Harijankalyan Sangh Sarbojanin,22.524235,88.361387,"6, Garcha 1st Ln, Dover Terrace, Ballygunge, Kolkata, West Bengal 700019",CCU-S,ZTYVNPX,22.524235,88.361387,0,,-0.547432427,-0.105081266,1
Hindusthan Park Purbachal Club,22.517773,88.363944,"Hindusthan Park, Hindustan Park, Gariahat, Kolkata, West Bengal 700029",CCU-S,7DAyKKg,22.517773,88.363944,0,,-0.642845688,-0.034232788,1
Sunil Nagar Sarbojanin,22.52843,88.384732,"143/31A, Picnic Garden Rd, Tiljala, Kolkata, West Bengal 700039",CCU-S,NE2FOnF,22.52843,88.384732,0,,-0.485492064,0.541753982,1
Barisha Tapoban,22.476431,88.310503,"Chandi Charan Ghosh Rd, Silpara, Purba Barisha, Kolkata, West Bengal 700008",CCU-S,H1dpsLw,22.476431,88.310503,0,,-1.253272032,-1.514957676,3
Adi Babubagan,22.507975,88.370909,"52 Babubagan Lane, Dhakuria, Kolkata-700039",CCU-S,4pP5Pxo,22.507975,88.370909,0,,-0.787515934,0.158751042,1
Bhowanipur Swadhin Sangha,22.531966,88.346481,"40B, Mahesh Chowdhury Street, Paddapukur, Bhowanipore, Kolkata, West Bengal 700025",CCU-S,UPP9qKC,22.531966,88.346481,0,,-0.433282022,-0.518091599,1
Jayasree Park,22.492156,88.324341,"Mandal Para Rd, Jayashree Park, Manton, Sarada Pally, Kolkata, West Bengal 700034",CCU-S,z22JlcB,22.492156,88.324341,0,,-1.021087951,-1.131539121,3
Sree Sree Sarodiya Durgotsab [Abasorika Club],22.507319,88.370179,"38J/12, Maharaja Tagore Road, Kolkata-700031",CCU-S,qTNVHjw,22.507319,88.370179,0,,-0.79720196,0.138524453,1
Agradut Udaya Sangha,22.533835,88.341946,"32B, D.N.Ghosh Road, Kolkata, West Bengal 700025",CCU-S,cpbZgJ2,22.533835,88.341946,0,,-0.405685707,-0.643745822,1
64 Pally Durgotsab Committee,22.520583,88.347567,"28C, Satish Mukherjee Road, Manoharpukur, Kalighat, Kolkata, West Bengal 700026",CCU-S,K6dtjlX,22.520583,88.347567,0,,-0.601355242,-0.488001083,1
Ballygunge Cultural Association,22.51614,88.355745,"Lake Terrace, lake Terrace, Ballygunge, Kolkata, West Bengal 700029",CCU-S,aucH5H8,22.51614,88.355745,0,,-0.666957396,-0.261407866,1
Panditia Puja Samity,22.52202,88.358753,35A PANDITIYA ROAD KOLKATA 700029,CCU-S,Zhs9S0d,22.52202,88.358753,0,,-0.58013753,-0.178063234,1
Sodepur Pragati Sangha (Haridevpur),22.48103,88.331273,"Dhawan Colony, Paschim Putiary, Kolkata, West Bengal 700082",CCU-S,678hJUV,22.48103,88.331273,0,,-1.185366494,-0.939469644,3
Behala Club Sarbojanin Durgotsav Committee,22.504681,88.315704,"58/1/1, Banamali Naskar Road, Behala, Kolkata, West Bengal 700060",CCU-S,08x8eaw,22.504681,88.315704,0,,-0.836152777,-1.370850153,3
Mohila Mahal Club Durga Puja,22.529917,88.344794,"3/1, Keder Bose Lane, Kolkata-700025",CCU-S,GRg1ZLl,22.529917,88.344794,0,,-0.463536087,-0.564834416,1
Udayan Kidderpore,22.544175,88.321421,"Andaman Dock, Khidirpur, Kolkata, West Bengal 700023",CCU-S,9PLHolT,22.544175,88.321421,0,,-0.253012677,-1.212445479,3
Bhowanipur Students Club Sarbojanin Durga Puja,22.534287,88.338926,"7/1, Bijoy Basu Rd, Bhowanipore. Kolkata, West Bengal 70002",CCU-S,wJyyZ5L,22.534287,88.338926,0,,-0.399011799,-0.727422946,3
New Alipur Hindustan Club,22.504006,88.337118,"Ajoy Nagar, Buroshibtalla, Behala, Kolkata, West Bengal 700053",CCU-S,g0pJbzv,22.504006,88.337118,0,,-0.846119344,-0.77751839,3
Baishali Pally Adhibasi Brinda,22.509778,88.390372,"P.Majumdar Road, Baishali Pally, Kolkata-700078",CCU-S,V9bSPL9,22.509778,88.390372,0,,-0.760894128,0.698025167,1
Behala buroshibtala Janakalyan Sangha Durga Puja,22.502507,88.332437,"Manmohan Banerjee Road, Buroshibtalla, Behala, Kolkata, West Bengal 700038",CCU-S,3BP8ymC,22.502507,88.332437,0,,-0.868252503,-0.907217931,3
Palli Asar Sporting Club,22.508493,88.324986,"11, Joykrishna Paul Rd, Sahapur, New Alipore, Kolkata, West Bengal 700038",CCU-S,K96rRfG,22.508493,88.324986,0,,-0.779867517,-1.113667682,3
Jodhpur Park Saradiya Utsab Committee,22.504519,88.36557,"1/D, JodhPur Park, Kolkata, West Bengal 700068",CCU-S,oIg5OM8,22.504519,88.36557,0,,-0.838544753,0.010819862,1
Santoshpur Lake Pally,22.491326,88.38274646,"Lake W Rd, Lake Terrace, Santoshpur, Kolkata, West Bengal 700075",CCU-S,nZH1qpU,22.491326,88.38274646,0,,-1.033343136,0.486739321,1
Saratpally Sarbojanin Durgotsav Committee,22.484994,88.335907,"SARATPALLY KARUNAMOYE GHAT ROAD, Kolkata-700082",CCU-S,GLvW93z,22.484994,88.335907,0,,-1.126836911,-0.811072362,3
Rajdanga Naba Uday Sangha,22.51667,88.391107,"700039, Rajdanga Chakraborty Para, Sector A, East Kolkata Twp, Kolkata, West Bengal 700039",CCU-S,Sz8pepZ,22.51667,88.391107,0,,-0.659131796,0.718390295,1
United Club Nabalia Para,22.487417,88.319118,"8, Nabalia Para Rd, Barisha, Kolkata, West Bengal 700008",CCU-S,QfEPkky,22.487417,88.319118,0,,-1.091060629,-1.276256212,3
"Sonali Park Sports & Cultural Society, Garia",22.464968,88.37055,"3, Sonali Park, Bansdroni, Kolkata, West Bengal 700084",CCU-S,T9LpgEg,22.464968,88.37055,0,,-1.422526475,0.148803993,1
Falguni Sangha Durga Puja,22.522228,88.365877,"Falguni Sangha, Ekdalia, Ballygunge, Kolkata, West Bengal 700019",CCU-S,lnRbtSe,22.522228,88.365877,0,,-0.577066351,0.019326113,1
Golden Arrow Club,22.516494,88.347673,"Tara Road, Lake Market, Kalighat, Kolkata, West Bengal 700029",CCU-S,9R4DCkr,22.516494,88.347673,0,,-0.661730485,-0.485064072,1
Barisha Netaji Sangha,22.485962,88.315179,"16/a/b, Raja Rammohan Roy Rd, Barisha, Kolkata, West Bengal 700008",CCU-S,uNrx5h9,22.485962,88.315179,0,,-1.112544116,-1.385396673,3
Sanghasree - Kalighat,22.521324,88.345886,"35B, Gurupada Halder Rd, Kalighat, Kolkata, West Bengal 700026",CCU-S,FzRMe4n,22.521324,88.345886,0,,-0.590414167,-0.534577655,1
Roynagar Unnayan Samity,22.472414,88.360174,"9, Naskarpara, Roynagar, Opp. Mastarda Surya Sen Metro Railway Station, Kolkata - 700070",CCU-S,bps76eF,22.472414,88.360174,0,,-1.312584175,-0.138690654,1
Green Field City Welfare Committee,22.495222,88.273668,"Greenfield City, Behala Mauza, Kolkata, West Bengal 700140",CCU-S,J5aI1eN,22.495222,88.273668,0,,-0.975817593,-2.535569215,3
Barisha Youth Club,22.478965,88.30259,"19, Srikrishna Pally, Paschim Barisha, Kolkata, West Bengal 700063",CCU-S,2ZgfZTp,22.478965,88.30259,0,,-1.215856804,-1.734208364,3
Jadavpur Bank Plot Welfare And Development Committee,22.501016,88.380382,"15/2P/4A, Jheel Road, Vivek Nagar, Jadavpur, Kolkata, West Bengal 700075",CCU-S,itF8FCP,22.501016,88.380382,0,,-0.890267541,0.421225675,1
Naskarpara Pally Unnayan Samity - Haridevpur,22.480223,88.339539,"Gouria moth, 27/1a, Mahendra Seth Lane, Ashok Nagar, Kolkata - 700040, WB, India",CCU-S,CTI3Gb8,22.480223,88.339539,0,,-1.197282077,-0.710438152,1
Behala Club,22.505381,88.314308,"Behala Club, Banamali Naskar Road, Behala, Kolkata - 700060, WB, India",CCU-S,uWE0bFP,22.505381,88.314308,0,,-0.825817079,-1.409530042,3
Behala Sree Sangha,22.497669,88.320183,"Behala, Kolkata - 700034, WB, India",CCU-S,PVlfbRJ,22.497669,88.320183,0,,-0.939686944,-1.246747558,3
Bosepukur Talbagan,22.517492,88.38533,"Rajkrishna Chatterjee Road, Kasbah North, Kolkata - 700039, WB, India",CCU-S,le9V0d3,22.517492,88.38533,0,,-0.646994733,0.558323161,1
Rajdanga Tribarna Sangha,22.515083,88.389534,"Kasbah North, Kolkata - 700107, WB, India",CCU-S,myqyyrj,22.515083,88.389534,0,,-0.6825643,0.67480615,1
Bosepukur Sitala Mandir,22.516581,88.388023,"Loknath Pharmacy, 198, Rajdanga Purbapara RB Connector, Ward 107, Kolkata - 700078, WB, India",CCU-S,3cLnwWE,22.516581,88.388023,0,,-0.660445906,0.632939881,1
Jodhpur Park,22.504702,88.365028,"Jodhpur Park Boys School, Jodhpur Park Road, Jodhpur Park, Kolkata - 700068, WB, India",CCU-S,hfY7zfo,22.504702,88.365028,0,,-0.835842707,-0.004197688,1
Suruchi Sangha,22.509346,88.333664,"Kowloon, Ward 81, Kolkata - 700053, WB, India",CCU-S,6xTAlHa,22.509346,88.333664,0,,-0.767272731,-0.873220636,3
Hindustan Park,22.517731,88.362648,"Hindustan Park, Ward 86, Kolkata - 700019, WB, India",CCU-S,6AxQoSc,22.517731,88.362648,0,,-0.64346583,-0.070141911,1
Azadgarh,22.484604,88.356171,"Minapara Road, Aswini Nagar, Kolkata - 700092, WB, India",CCU-S,yg6ZLrt,22.484604,88.356171,0,,-1.132595371,-0.249604404,1
Bharat Mata,22.488014,88.36248,"Bijoygarh Math, Arabinda Nagar, Kolkata - 700084, WB, India",CCU-S,rZFVAaj,22.488014,88.36248,0,,-1.082245755,-0.074796797,1
Golfgreen Phase 2,22.492256,88.360809,"Sarkar, W2A(R) 9, Prince Golam Hossain Shah Road, Bikramgarh, Kolkata - 700095, WB, India",CCU-S,WwPFpEX,22.492256,88.360809,0,,-1.019611423,-0.121096292,1
Yuba Sangha Club,22.485378,88.36499,"Bijoygarh, Kolkata - 700095, WB, India",CCU-S,XAwu9gn,22.485378,88.36499,0,,-1.121167042,-0.005250579,1
Netaji Nagar Sarbojanin,22.480721,88.357719,"Aswini Nagar, Kolkata - 700092, WB, India",CCU-S,7yBDUyr,22.480721,88.357719,0,,-1.189928966,-0.206712951,1
Netaji Jatiya Sebadal,22.484991,88.358231,"Gandhi Colony High School, Minapara Road, Aswini Nagar, Kolkata - 700092, WB, India",CCU-S,sgtcvpR,22.484991,88.358231,0,,-1.126881206,-0.192526631,1
Pally Mangal Samity,22.503017,88.36396,"Jodhpur Park, Kolkata - 700068, WB, India",CCU-S,zSEnICO,22.503017,88.36396,0,,-0.860722209,-0.033789465,1
Chakraberia Sarbojanin,22.533646,88.351891,"Chakraberia Trikon Park, Ward 70, Kolkata - 700019, WB, India",CCU-S,FIIfXlf,22.533646,88.351891,0,,-0.408476346,-0.368193175,1
Barisha Tarun Tirtha,22.476515,88.31823,"Kolkata - 700008, WB, India",CCU-S,uJeJRYa,22.476515,88.31823,0,,-1.252031748,-1.300860612,3
74 Pally,22.539438,88.325729,"Manali Banerjee Road, Ward 77, Kolkata - 700022, WB, India",CCU-S,rlONofl,22.539438,88.325729,0,,-0.322955825,-1.093080893,3
Behala 29 Palli,22.507343,88.322426,"Behala Balananda Brahmachari Hospital and Research Center, 151, Diamond Harbour Road, New Alipore, Kolkata - 700034, WB, India",CCU-S,JtakF1y,22.507343,88.322426,0,,-0.796847593,-1.184599284,3
Baishnabghata Patuli Upanagari,22.471201,88.380142,"Baghajatin, Kolkata - 700086, WB, India",CCU-S,FzpupLx,22.471201,88.380142,0,,-1.330494464,0.414575838,1
Kendua Shanti Sangha - Patuli,22.47193,88.380997,"Baghajatin, Kolkata - 700086, WB, India",CCU-S,gnBDMlj,22.47193,88.380997,0,,-1.319730572,0.438265884,1
Selimpur Naskarpara,22.504808,88.37606,"Naskarpara Para Playground, Ward 92, Kolkata - 700019, WB, India",CCU-S,ojOuaZ7,22.504808,88.37606,0,,-0.834277586,0.301473182,1
Chandranath Chatterjee Street,22.52669,88.345848,"Seagull, 31A, Shyama Prasad Mukherjee Road, Ward 72, Kolkata - 700053, WB, India",CCU-S,iIxgTol,22.52669,88.345848,0,,-0.511183657,-0.535630546,1
Greenwood Nook,22.50556,88.399902,"Greenwood Nook, Kolkata, Kolkata District, India",CCU-S,603FDCU,22.50556,88.399902,0,,-0.823174093,0.962079136,1
Sebak Sangha,22.511377,88.347542,"LT Tapan Chowdhury Avenue, Kalighat, Kolkata - 700033, WB, India",CCU-S,28PEBO4,22.511377,88.347542,0,,-0.73728444,-0.488693775,1
Dilip Smriti Sangha,22.517796,88.34494,"Kalighat, Kolkata - 700026, WB, India",CCU-S,U9Hqpd5,22.517796,88.34494,0,,-0.642506087,-0.560789098,1
Adi Ballygunge,22.529564,88.37265,"Bondel Road Flyover, Ballygunge, Kolkata - 700042, WB, India",CCU-S,jRMSPos,22.529564,88.37265,0,,-0.468748232,0.206990073,1
Barisha Player's Corner,22.486588,88.312614,"Behala Chowrashta, Biren Roy Road West, Kolkata - 700034, WB, India",CCU-S,sDiqgRR,22.486588,88.312614,0,,-1.103301049,-1.456466812,3
Barisha Sabuj Sathi Club,22.47821,88.310753,"Kolkata - 700063, WB, India",CCU-S,PXKzJEq,22.47821,88.310753,0,,-1.227004593,-1.508030762,3
Behala Arcadia Sarbojanin,22.4942,88.315163,"Behala, Kolkata - 700034, WB, India",CCU-S,ZhfxYJf,22.4942,88.315163,0,,-0.990907712,-1.385839995,3
Durgabari,22.499889,88.315765,"Brahmo Samaj Road, Behala, Kolkata - 700034, WB, India",CCU-S,PIr1UZP,22.499889,88.315765,0,,-0.906908015,-1.369159986,3
Ganbani Sangha,22.488768,88.327805,"Paschim Putiary, Kolkata - 700008, WB, India",CCU-S,63mfnzE,22.488768,88.327805,0,,-1.071112731,-1.035559798,3
Samaj Sebi Sangha,22.515591,88.357719,"Manoharpukur, Kolkata - 700029, WB, India",CCU-S,SFn5fe7,22.515591,88.357719,0,,-0.675063536,-0.206712951,1
Behala Buroshibtala Janakalyan Sangha,22.502289,88.329735,"Behala, Kolkata - 700053, WB, India",CCU-S,jQh0k6E,22.502289,88.329735,0,,-0.871471335,-0.98208402,3
Jogajatri Club,22.501614,88.331284,"Shibaloy, 85, Jyotish Roy Road, Ward 117, Kolkata - 700053, WB, India",CCU-S,XpYwv4I,22.501614,88.331284,0,,-0.881437901,-0.93916486,3
Surya Nagar Sarbojanin,22.47489,88.359344,"Queen of Peace Church, Netaji Subhash Chandra Bose Road, Bansdroni, Kolkata - 700070, WB, India",CCU-S,IvDFLzG,22.47489,88.359344,0,,-1.276025333,-0.161688009,1
Udayan Sangha,22.501814,88.387711,"Kasbah North, Kolkata - 700078, WB, India",CCU-S,IvsNmQf,22.501814,88.387711,0,,-0.878484845,0.624295092,1
Uttar Panchanan Gram Milan,22.532141,88.396339,"Kolkata - 700039, WB, India",CCU-S,6Gqtaqj,22.532141,88.396339,0,,-0.430698097,0.863356755,1
Naskarpur Sarbojanin,22.506571,88.312065,"Behala, Kolkata - 700060, WB, India",CCU-S,qBNeg6T,22.506571,88.312065,0,,-0.808246392,-1.471678316,3
64 Pally,22.526789,88.346512,"Seagull, 31A, Shyama Prasad Mukherjee Road, Ward 72, Kolkata - 700053, WB, India",CCU-S,uk5CS6D,22.526789,88.346512,0,,-0.509721893,-0.517232661,1
95 Pally,22.507622,88.362953,"Jodhpur Park, Kolkata - 700068, WB, India",CCU-S,ZaPpLLs,22.507622,88.362953,0,,-0.792728079,-0.061691076,1
Bandhab Sammilani,22.507818,88.367661,"Maharaja Tagore Road, Dhakuria, Kolkata - 700031, WB, India",CCU-S,crjM1OM,22.507818,88.367661,0,,-0.789834084,0.068756573,1
The Bengal Boys Training Association,22.517557,88.341179,"Kalighat Road, Bhowanipore, Kolkata - 700026, WB, India",CCU-S,dxUcALr,22.517557,88.341179,0,,-0.646034989,-0.664997595,1
Shyamapally Shyama Sangha,22.49152,88.37159,"Ananda Pally, Kolkata - 700032, WB, India",CCU-S,WAplXR7,22.49152,88.37159,0,,-1.030478671,0.177619956,1
Garia Sreerampur Kalyan Samity,22.466888,88.38044,"Kalyan Sangha, Garia Main Road, Kolkata - 700084, WB, India",CCU-S,JvTnGTE,22.466888,88.38044,0,,-1.394177131,0.422832719,1
Dakshin Phalguni Club,22.470131,88.379921,"Kolkata - 700086, WB, India",CCU-S,SHXn1jJ,22.470131,88.379921,0,,-1.346293317,0.408452445,1
Garia Pancha Durga,22.461643,88.378166,"Garia Mitali Sangha, Brahmapur, Kolkata - 700084, WB, India",CCU-S,Plm8FPo,22.461643,88.378166,0,,-1.471621042,0.359825508,1
Garia Sabuj Dal,22.469654,88.381599,"Kolkata - 700086, WB, India",CCU-S,867K0in,22.469654,88.381599,0,,-1.353336357,0.454945894,1
Harish Park Puja,22.530655,88.343681,"Netaji Eye Hospital, 28, Harish Mukherjee Road, Bhowanipore, Kolkata - 700025, WB, India",CCU-S,PGJZJn5,22.530655,88.343681,0,,-0.452639308,-0.595673038,1
Green Avenue Sarbojanin,22.494051,88.380264,"Jadavpur, Kolkata - 700075, WB, India",CCU-S,ao88ikl,22.494051,88.380264,0,,-0.993107739,0.417956172,1
Santoshpur Agragami,22.494265,88.377991,"Jadavpur, Kolkata - 700075, WB, India",CCU-S,THc6UQm,22.494265,88.377991,0,,-0.989947969,0.354976668,1
Santoshpur Bibekananda Sangha,22.493908,88.383392,"Jadavpur, Kolkata - 700075, WB, India",CCU-S,aYvY9KT,22.493908,88.383392,0,,-0.995219175,0.504625722,1
Lake Pally Sarbojanin,22.507259,88.346237,"Charu Chandra Place East, Charu Market Area, Kolkata - 700033, WB, India",CCU-S,XpXdJj5,22.507259,88.346237,0,,-0.798087877,-0.524852267,1
Golfgreen Phase 1,22.493393,88.362274,"Sarkar, W2A(R) 9, Prince Golam Hossain Shah Road, Bikramgarh, Kolkata - 700095, WB, India",CCU-S,JLrPfik,22.493393,88.362274,0,,-1.002823296,-0.080504575,1
19 Pally,22.512735,88.3675,"Sony Centre, 102, SH1, Dhakuria, Kolkata - 700029, WB, India",CCU-S,hNTQCxd,22.512735,88.3675,0,,-0.717233185,0.06429564,1
68 Pally,22.527443,88.346184,"Seagull, 31A, Shyama Prasad Mukherjee Road, Bhowanipore, Kolkata - 700025, WB, India",CCU-S,C329zjN,22.527443,88.346184,0,,-0.500065398,-0.526320773,1
77 Palli,22.504271,88.367607,"Dhakuria, Kolkata - 700068, WB, India",CCU-S,RhOtmiA,22.504271,88.367607,0,,-0.842206544,0.067260359,1
Bakul Bagan Sarbojanin,22.52673,88.347397,"Bhowanipore, Kolkata - 700025, WB, India",CCU-S,HV4iWgC,22.52673,88.347397,0,,-0.510593045,-0.492711385,1
Haridevpur Adarsha Samiti,22.475842,88.336937,"Paschim Putiary, Kolkata - 700040, WB, India",CCU-S,Z1lpAH1,22.475842,88.336937,0,,-1.261968784,-0.782533476,1
Padmapukur Youth Association,22.531614,88.352341,"Padmapukur Park, Lansdowne Road (Sarat Bose Road), Ward 72, Kolkata - 700019, WB, India",CCU-S,LjuEIE7,22.531614,88.352341,0,,-0.438479401,-0.35572473,1
Padmapukur Baroyari,22.531862,88.354294,"Jyotirmoyee Apartment, 27/2, Chakraberia Lane, Hazra, Kolkata - 700020, WB, India",CCU-S,AIDX2sL,22.531862,88.354294,0,,-0.434817611,-0.301611676,1
Sitalatala Kishore Sangha,22.481987,88.322479,"Kolkata - 700008, WB, India",CCU-S,BbcN8jY,22.481987,88.322479,0,,-1.171236118,-1.183130778,3
Prasanta Disha Sarbojanin,22.499216,88.327644,"Behala, Kolkata - 700053, WB, India",CCU-S,zABwDZ1,22.499216,88.327644,0,,-0.916845051,-1.04002073,3
Aikya Sammilani,22.504429,88.318611,"Behala Balananda Brahmachari Hospital and Research Center, 151, Diamond Harbour Road, New Alipore, Kolkata - 700034, WB, India",CCU-S,7c750BL,22.504429,88.318611,0,,-0.839873629,-1.290303994,3
Haridevpur 41 Pally,22.48303,88.338509,"41 Pally, Ward 115, Kolkata - 700040, WB, India",CCU-S,CCSZ0cm,22.48303,88.338509,0,,-1.155835927,-0.738977039,1
Haridevpur Vivekananda Park Athletic Club,22.481016,88.336967,"Paschim Putiary, Kolkata - 700040, WB, India",CCU-S,V4RN2xF,22.481016,88.336967,0,,-1.185573208,-0.781702246,1
Behala Debdaru Fatak,22.5026506,88.3174747,"Debdaru Fatak, Ward 131, Kolkata - 700034, WB, India",CCU-S,sOdN3rI,22.5026506,88.3174747,0,,-0.866132209,-1.321788205,3
Behala Adarsha Pally,22.499989,88.327632,"Behala, Kolkata - 700053, WB, India",CCU-S,opAayz5,22.499989,88.327632,0,,-0.905431487,-1.040353222,3
Selimpur Pally,22.505087,88.368149,"Dhakuria, Kolkata - 700068, WB, India",CCU-S,pWrVyDu,22.505087,88.368149,0,,-0.830158072,0.082277909,1
Shibmandir Sarbojanin Durgotsab,22.510822,88.349388,"Lake Temple Road, Ward 87, Kolkata - 700053, WB, India",CCU-S,FqhzR0f,22.510822,88.349388,0,,-0.745479173,-0.43754544,1
Kidderpore 25 Pally,22.539078,88.326538,"Watganj, Kolkata - 700023, WB, India",CCU-S,IGAey1e,22.539078,88.326538,0,,-0.328271327,-1.070665399,3
Behala Mukul Sangha,22.503359,88.313705,"Behala, Kolkata - 700034, WB, India",CCU-S,cwYhx9i,22.503359,88.313705,0,,-0.855672482,-1.426237759,3
Santoshpur Trikone Park,22.492996,88.378448,"Bapuji Nagar, Kolkata - 700075, WB, India",CCU-S,YCmYdu4,22.492996,88.378448,0,,-1.008685113,0.367639067,1
Kidderpore Kabitirtha,22.541059,88.321495,"Kabitirtha Saradotsab, Ram Kamal Street, Watganj, Kolkata - 700023, WB, India",CCU-S,vQWwE3k,22.541059,88.321495,0,,-0.2990213,-1.210395112,3
Kendua Shanti Sangha,22.472073,88.381544,"ShantiSangha Playground, Ward 101, Kolkata - 700084, WB, India",CCU-S,49CithP,22.472073,88.381544,0,,-1.317619137,0.453421972,1
Abasar Sarbojonin,22.527562,88.348897,"Rakhal Mukherjee Road, Ward 72, Kolkata - 700053, WB, India",CCU-S,dqtemFG,22.527562,88.348897,0,,-0.498308329,-0.4511499,1
Goal Math,22.526427,88.349862,"Bakul Bagan Road, Bhowanipore, Kolkata - 700025, WB, India",CCU-S,RQJXWYZ,22.526427,88.349862,0,,-0.515066926,-0.424412011,1
Jatra Suru Sangha,22.470616,88.377714,"Shreeram Enclave, 5/1, EM Bypass, Panchasayar, Kolkata - 700084, WB, India",CCU-S,BdIldWL,22.470616,88.377714,0,,-1.339132154,0.347301647,1
Abasarika Club,22.508394,88.369281,"Dakuria Kali Bari Lane, Dhakuria, Kolkata - 700031, WB, India",CCU-S,ux0EDyd,22.508394,88.369281,0,,-0.78132928,0.113642977,1
Manoharpukur Youngs,22.518682,88.356214,"Mahanirban Math, Rash Behari Avenue, Manoharpukur, Kolkata - 700029, WB, India",CCU-S,IaNPX0e,22.518682,88.356214,0,,-0.629424045,-0.248412975,1
Triangular Park Sarbojanin,22.517978,88.357962,"Sarat Chatterjee Park, Rash Behari Avenue, Manoharpukur, Kolkata - 700029, WB, India",CCU-S,cSL76D5,22.517978,88.357962,0,,-0.639818805,-0.199979991,1
Kidderpore 75 Pally,22.540058,88.325711,"Hari Sabha Road, Ward 77, Kolkata - 700022, WB, India",CCU-S,PWIhO3w,22.540058,88.325711,0,,-0.313801349,-1.093579631,3
Kidderpore Udayan,22.545121,88.321484,"Hemchandra Street, Watganj, Kolkata - 700023, WB, India",CCU-S,yd8LjxZ,22.545121,88.321484,0,,-0.239044719,-1.210699896,3
Kidderpore Sarbojanin Durgotsab,22.538145,88.3251,"Kidderpore Sarbojanin, Manastala Lane, Watganj, Kolkata - 700023, WB, India",CCU-S,vAgmlAO,22.538145,88.3251,0,,-0.342047336,-1.110509009,3
Lake Garden People's Association,22.506461,88.35646,"Lake Gardens Peoples Association, Ward 93, Kolkata - 700045, WB, India",CCU-S,bg1CFMt,22.506461,88.35646,0,,-0.809870573,-0.241596891,1
Santoshpur Avenue South,22.49083,88.380316,"Baghajatin, Kolkata - 700075, WB, India",CCU-S,mZCN7fs,22.49083,88.380316,0,,-1.040666717,0.41939697,1
Putiary Club,22.480153,88.342985,"Paschim Putiary, Kolkata - 700040, WB, India",CCU-S,h526UER,22.480153,88.342985,0,,-1.198315647,-0.614957567,1
Bandhusree,22.493447,88.316485,"Behala, Kolkata - 700034, WB, India",CCU-S,AOmtJQF,22.493447,88.316485,0,,-1.00202597,-1.349210473,3
4 No Milani,22.477933,88.37235,"Vidyasagar Park and Playground, Vidyasagar Colony, Naktala, Ward 100, Kolkata - 700047, WB, India",CCU-S,nM3gMIT,22.477933,88.37235,0,,-1.231094576,0.198677776,1
Janmangal Samiti,22.518097,88.341547,"Kalighat Road, Bhowanipore, Kolkata - 700026, WB, India",CCU-S,L3QqgDa,22.518097,88.341547,0,,-0.638061736,-0.654801178,1
22 Palli Northern Park,22.53544,88.349884,"Bhowanipore, Kolkata - 700020, WB, India",CCU-S,JOPdJ4O,22.53544,88.349884,0,,-0.381987427,-0.423802443,1
SB Park - Thakurpukur,22.46724,88.308612,"Thakurpukur, Kolkata - 700063, WB, India",CCU-S,euBrBAg,22.46724,88.308612,0,,-1.388979751,-1.567352855,3
Selimpur Club,22.50493,88.370537,"Kasba, Kolkata - 700031, WB, India",CCU-S,mGyuXks,22.50493,88.370537,0,,-0.832476222,0.148443794,1
Bhawanipur 75 Pally,22.5332948,88.3454998,"Debendra Ghosh Road, Bhowanipore, Kolkata - 700025, WB, India",CCU-S,m6vcLTY,22.5332948,88.3454998,0,,-0.413661913,-0.545278352,1
Sabarna Roychoudhury Atchala Temple,22.480011,88.306558,"F8J4+2JP, Sakher Bazar, Sabarna Para Rd, Subodh Pally, Paschim Barisha, Kolkata, West Bengal 700008",CCU-S,x4ie8ed,22.480011,88.306558,0,,-1.200412317,-1.624264382,3
Saborna Roychoudhury(Borobari) Durga Puja Area,22.479964,88.311034,"700008, Barisha Baro Bari Rd, Bose Para, Purba Barisha, Kolkata, West Bengal 700008",CCU-S,xlBVStr,22.479964,88.311034,0,,-1.201106286,-1.50024491,3
Amarendra Bhavan,22.501385,88.318826,"4/1, Roy Bahadur Rd, Auddy Bagan Basti, Behala, Kolkata, West Bengal 700034
",CCU-S,sAXtMFZ,22.501385,88.318826,0,,-0.884819151,-1.284346848,3
Sonar Durga Bari,22.499776,88.314599,"56, Brahmo Samaj Road, Behala, 9, Kedar Chatterjee Ln, New Bakshi Bagan, Bakshi Bagan, Behala, Kolkata, West Bengal 700034",CCU-S,YUUT8b7,22.499776,88.314599,0,,-0.908576492,-1.401467114,3
Mullick Bari Pujo (Ranjit & Koel Mullick),22.533559,88.349158,"25A,C, Mohini Mohan Rd, Jadubabur Bazar, Bhowanipore, Kolkata, West Bengal 700020
",CCU-S,ee0zgZM,22.533559,88.349158,0,,-0.409760925,-0.443918201,1
De bari Durga Puja,22.535065,88.342072,"26/E, Chandra Nath Chatterjee St, Bhowanipore, Kolkata, West Bengal 700025",CCU-S,ZXPAVMU,22.535065,88.342072,0,,-0.387524409,-0.640254658,1
Kali Mohan Ghosh Roy Blue Durga,22.51265,88.350022,"Kalighat, Kolkata, West Bengal",CCU-S,LZxfovv,22.51265,88.350022,0,,-0.718488235,-0.419978786,1
Ichapur Sawamiji Sangha,22.592112,88.311569,"Ichapur Canel Side, Purbapara,Howrah, India 711104",HWH,yE5aoYG,22.592112,88.311569,0,,0.45479071,-1.485421314,3
Kamardanga Sisu Sangha Durga Puja,22.595466,88.304097,"Kamardanda,Santragachi,Howrah-711104",HWH,hwsZrOL,22.595466,88.304097,0,,0.50431347,-1.692452926,3
Chakpara Jubak Brinda Sarbojanin Durgotsav,22.615008,88.317546,"Liluah, Chakpara, West Bengal 711204",HWH,f85qYcK,22.615008,88.317546,0,,0.792856637,-1.319812649,4
Taltala Shakti Mandir,22.614742,88.351134,"Guha Rd, Vivekananda Colony, Ghusuri, Howrah, West Bengal 711107",HWH,FuUpnlo,22.614742,88.351134,0,,0.788929072,-0.389167872,4
Olabibitala Sarbojanin Durgotsav,22.575337,88.31508,"4, Olabibitala Ln, Naora, Shibpur, Howrah, West Bengal 711104",HWH,yRZ9tQv,22.575337,88.31508,0,,0.207103082,-1.388139731,3
Ram Lochon Shaire Street Barowari (Shitala Mandir),22.624524,88.359602,"Belur, Math, Howrah, West Bengal 711202",HWH,L3QRkbz,22.624524,88.359602,0,,0.933363073,-0.154539434,4
Ghoshpara Sankalpa Sangha Durga Puja,22.585493,88.313691,"7 Fakir Chand Ghosh Lane, Howrah-711104",HWH,XHQZVQ6,22.585493,88.313691,0,,0.3570593,-1.426625666,3
Nabanagar Sarbojanin Durgotsav,22.579701,88.245946,"Duillya Nabanagar Badamatala, Howrah, India 711302",HWH,BiKWDFD,22.579701,88.245946,0,,0.271538778,-3.303680877,3
Ghoshpara Young Stars Durga Puja,22.583522,88.310944,"30/34 Baruipara 1St Bye Lane, Santragachi, Howrah-711104",HWH,EMyUIn7,22.583522,88.310944,0,,0.327956926,-1.502738599,3
Torpedo Welfare Society,22.571863,88.312779,"Binod Behari Halder Ln, Naora, Shibpur, Howrah, West Bengal 711102",HWH,SiItT6H,22.571863,88.312779,0,,0.155808488,-1.451895049,3
Howrah Anusilan Samity,22.576873,88.325253,"64 63, Gopal Banerjee Ln, Naora, Shibpur, Howrah, West Bengal 711102",HWH,h8283Ju,22.576873,88.325253,0,,0.229782557,-1.106269738,3
Nabanagar Badamtala Sarbojanin Durgotsab,22.578775,88.245807,"Howrah,, Andul Mauri, Duillya, Howrah, West Bengal 711302",HWH,WGJU3lW,22.578775,88.245807,0,,0.257866126,-3.307532242,3
Banerjee Bagan Sarbojanin Durgotsab,22.608067,88.34801,"21, Banerjee Bagan Ln, Salkia, Howrah, West Bengal 711106",HWH,8xSxEcg,22.608067,88.34801,0,,0.690370806,-0.475726591,4
Kazibagan Lane Social Welfare Association,22.576241,88.306021,"78/5/23, Thakur Ramkrishna Ln, Chatterjihat, Shibpur, Howrah, West Bengal 711104",HWH,zatjLpR,22.576241,88.306021,0,,0.220450898,-1.639143394,3
Jaynarayan Santra Lane Milan Mandir,22.582504,88.331084,"48 Jaynarayan Santra Lane, Howrah, 711101",HWH,Qx5uDKc,22.582504,88.331084,0,,0.312925868,-0.944706391,4
Bagbadini Bayam Samity,22.584392,88.327829,"10, Lakshman Das Lane, Kadam Tala, Howrah, West Bengal 711101",HWH,UOrf74B,22.584392,88.327829,0,,0.340802723,-1.034894814,4
Bankra Yuba Sanmilani,22.599971,88.284537,"Satashi Pal Para, Old Jagacha, Howrah, West Bengal 711104",HWH,Kin03Ev,22.599971,88.284537,0,,0.570831072,-2.234414693,3
Brindabon Netaji Balak Sangha,22.585947,88.317319,"5,, 11/4, Brindaban Mullick Ln, Bantra, Ichapur, Howrah, West Bengal 711104",HWH,rdvc2SK,22.585947,88.317319,0,,0.363762738,-1.326102287,3
Uttar Bantra Kumar Para Baroary Samity,22.597521,88.323886,"2, Sarat Dutta Lane, Kadamtala, Howrah-711101",HWH,ir0ri8r,22.597521,88.323886,0,,0.534656128,-1.144146105,4
AGRADOOT DURGA MANDIR,22.56999,88.311158,"700,, Sarat Chatterjee Rd, Mandirtala, Naora, Shibpur, Howrah, West Bengal 711102",HWH,1JpYdZu,22.56999,88.311158,0,,0.128153112,-1.496809161,3
Uttar Salkia Sarbojanain Durgotsav,22.608865,88.347917,"120/1, Sashi Bhushan Mukherjee Lane Salkia, Ghusuri, Howrah, West Bengal 711106",HWH,DQdGzdV,22.608865,88.347917,0,,0.702153502,-0.478303404,4
Bally Deshbandhu Club Durga Puja Committee (Bally House),22.644727,88.351644,"368, Grand Trunk Rd, Bally, Howrah, West Bengal 711201",HWH,ayFgPeL,22.644727,88.351644,0,,1.231666093,-0.375036967,4
Uttar Khurut Barwari,22.584324,88.323836,"J. N. B., Jainarayan Babu Ananda Datta Lane, Kadam Tala, Howrah, West Bengal 711101",HWH,S1I9nBN,22.584324,88.323836,0,,0.339798683,-1.145531488,3
Bantra Sammilani,22.597341,88.318765,"43, Chatterjee Para Ln, Tikiapara, Howrah, West Bengal 711101",HWH,Qhw2g0j,22.597341,88.318765,0,,0.531998377,-1.286037015,3
New Surya Sangha Rajchandrapur,22.654429,88.322278,"Rajchandrapur, Bally, Howrah, West Bengal 711205",HWH,7dgJti2,22.654429,88.322278,0,,1.374918872,-1.188700017,4
Ichapur Bayam Samity Durga Puja,22.590818,88.306623,"Ichapur Majher Para, Santragachi, Howrah-711104",HWH,dK6X2D4,22.590818,88.306623,0,,0.435684433,-1.622463384,3
Salkia Chatra Bayam Samity,22.594359,88.345369,"134, Salkia School Rd, Salkia, Howrah, West Bengal 711106",HWH,xWuCAgZ,22.594359,88.345369,0,,0.487968302,-0.548902513,4
Salkia Sitalatala Sarbojanin Durgotsab [Salkia Yuba Sangha Durga Puja],22.605696,88.34681,"20, Bhuban Mukherjee Lane, Howrah- 711106",HWH,I7S9zzj,22.605696,88.34681,0,,0.655362319,-0.50897578,4
Bantra Sarbojanin Durgotsav,22.5935,88.322085,"Kadamtala, Tikiapara, Howrah, West Bengal 711101",HWH,PIU0yxn,22.5935,88.322085,0,,0.475284923,-1.194047595,3
Beniapara Sarbojanin Durgatsav,22.58417,88.331142,"12, Sadar Boxi Lane, Howrah, India 711101",HWH,RQhm8RL,22.58417,88.331142,0,,0.33752483,-0.943099347,4
Shibaji Sangha Park,22.588545,88.307326,"1, 2, 4, Kedar Bhattacharjee Ln, Ichapur, Howrah, West Bengal 711104",HWH,8nIxlqG,22.588545,88.307326,0,,0.402122944,-1.602984902,3
Kamardanga Sitalatala Barowari Durga Puja,22.595933,88.30361,"Kamardanga Road, Kamardanga, Ichapur, Howrah, West Bengal 711104",HWH,2dydiHj,22.595933,88.30361,0,,0.511208858,-1.705946554,3
Kalyan Pally Sarbojanin Durgotsab Committee,22.563819,88.313908,"11/20, Balai Mistry Ln, Bataitala, Kazipada, Shalimar, Howrah, West Bengal 711103",HWH,DVfiK5L,22.563819,88.313908,0,,0.037036548,-1.420613104,3
Howrah Seva Sangha,22.586443,88.320503,"1,, 123/4, Narasingha Dutta Rd, Kadam Tala, Howrah, West Bengal 711101",HWH,3l65jZn,22.586443,88.320503,0,,0.371086319,-1.237881108,3
Salap Utsahi Sangha,22.614886,88.266437,"Salap, Domjur, Howrah, West Bengal 711409",HWH,vlbydin,22.614886,88.266437,0,,0.791055273,-2.735923282,3
Halderpara Friends Association,22.570389,88.313816,31/10/1 HALDER PARA LANE HOWRAH-711101,HWH,hL0oUqv,22.570389,88.313816,0,,0.13404446,-1.423162209,3
Salkia Sadharan Durga Puja (Jatadhari Park),22.604112,88.344719,"102/1/1, Sambhu Halder Lane, Babudanga, Bandhaghat, Mali Panchghara, Howrah, West Bengal 711106",HWH,aMgdLrz,22.604112,88.344719,0,,0.63197411,-0.56691249,4
Andul Dutta Chaudhury Bari Durga Puja,22.584944,88.232921,"Dutta Chaudhury Bari Ln, Andul, Argari, West Bengal 711302",HWH,ILTlHef,22.584944,88.232921,0,,0.348953159,-3.664573108,3
Howrah Jatiya Sevadal Club,22.588634,88.328358,"40/2, IR Belilious Ln, Kadam Tala, Howrah, West Bengal 711101",HWH,bzmkOHN,22.588634,88.328358,0,,0.403437054,-1.020237463,4
Shibpur Nimtala Barwari,22.571335,88.311199,"68, Kashinath Chatterjee Ln, Mandirtala, Naora, Shibpur, Howrah, West Bengal 711102",HWH,GZIQdSy,22.571335,88.311199,0,,0.148012418,-1.495673147,3
Batore 41 er Pally Durga Puja,22.577778,88.298761,"10/3, Baksara Rd, Betore, Baruipara, Ichapur, Howrah, West Bengal 711104",HWH,a9WBCwG,22.577778,88.298761,0,,0.243145139,-1.840300982,3
Howrah Tarun Samity,22.576145,88.32661,"Dr Gangadhar Mukherjee Rd, Naora, Shibpur, Howrah, West Bengal 711102",HWH,j366Sbv,22.576145,88.32661,0,,0.219033431,-1.068670448,3
Ichapur Mitali Sangha Durga Puja,22.593512,88.306956,"Ichapur Uttar Paschim Para, Howrah-711104",HWH,lqzxq8B,22.593512,88.306956,0,,0.475462107,-1.613236735,3
Bally Jora-Aswathatala Sarbojonin,22.64695,88.341847,"78, Goswami Para Rd, Bally, Howrah, West Bengal 711201",HWH,IMezYx9,22.64695,88.341847,0,,1.264489318,-0.64648888,4
Dharmatala Palli Bashi Brinda Club,22.605473,88.341941,"Salkia, 10, Dharmatala Rd, Salkia, Howrah, West Bengal 711106",HWH,HQVqDYl,22.605473,88.341941,0,,0.652069661,-0.643884361,4
Adarsha Sangha Sarbojanin,22.591235,88.300301,"Sastitala, 711104, Howrah Mangol Hat, Santragachi, Ramrajatala, Howrah, West Bengal 711104",HWH,uOPTLSr,22.591235,88.300301,0,,0.441841556,-1.797631191,3
Ambagan Durga Puja,22.590099,88.240726,"Kamrangu, Andul, Mahiari, West Bengal 711302",HWH,ChuE0NB,22.590099,88.240726,0,,0.425068195,-3.448314846,3
Ghas Bagan,22.591923,88.343468,"Howrah Maidan, Howrah - 711101, WB, India",HWH,SutsB5e,22.591923,88.343468,0,,0.452000071,-0.601574769,4
Kamardanga Sitalatala - Howrah,22.596292,88.302353,"Howrah - 711112, WB, India",HWH,JPzB39F,22.596292,88.302353,0,,0.516509594,-1.740775079,3
Arupara Milan Sangha - Howrah,22.597847,88.300949,"Howrah - 711112, WB, India",HWH,4dxCjlJ,22.597847,88.300949,0,,0.53946961,-1.779676629,3
